id,lng,lat,name,regnumber,industry,reglocation,businessscope,phonenumber,email,regcapital,regstatus,reginstitute,legalpersonname,approvedtime,estiblishtime,totime,updatetimes,companyorgtype,base,actualcapital,orgapprovedinstitute,orgnumber,branchcount,investcount,comabnoinfo,companybidcount,copyrightregcount,investorcount,empcount,staffcount,comchaninfocount,annurepyear,comabnoinfocount,patentcount,lawsuitcount,bondcount,tmcount,investorlist,stafflist,stafflisttypejoin
1,104.6091875,31.49294556,中国重汽集团绵阳专用汽车有限公司  ,5.11E+14,汽车制造业,绵阳高新区防震减灾产业园,"专用汽车、汽车零部件制造、销售，商用车销售,货物、技术进出口（法律、法规禁止项目除外，限制项目凭许可证经营）。",0816-7107068,myzhglb@sinotruk.com,5000,存续,四川省绵阳市工商局高新分局,颜家智,20090626,20120620,20390634,20160519,有限责任公司（自然人投资或控股的法人独资）,sc,,,,0,0,0,0,0,1,5,11,0,3,0,2,1,0,0,中国重汽集团济南动力有限公司,"雷鸣，张文昌，吴毅，沈娟，王涤非，曹长新,余增，颜家智，敬晓琴,许雷华，陈钢战，",董事，监事，董事，监事，监事，董事，董事，董事长，监事，董事，董事，
2,104.437286,31.780721,绵阳市东辰磁性材料有限公司,5.11E+14,计算机、通信和其他电子设备制造业,北川羌族自治县擂鼓镇新街331号,普通货运。磁性材料及元器件、磁电机、电子产品、包装材料、医用磁性保健材料及器具的制造、销售。,0816-4893996,mydccc@163.com,100,存续,四川省绵阳市北川县工商行政管理局,嘉衡,19991210,20041101,20371008,20160523,有限责任公司(自然人独资),sc,,,,0,0,0,0,0,1,4,2,0,3,0,7,0,0,0,嘉衡,卢杰，嘉衡，,监事，执行董事兼总经理，
3,104.6876025,31.46978098,绵阳赛茂科技有限公司  ,5.11E+14,计算机、通信和其他电子设备制造业,绵阳高新区火炬东街19号,"电子信息类磁性产品、电子应用类技术产品、电子专用设备、仪器、仪表、家用电器、音（视）产品、电子元器件及相关原材料的研究、开发、生产、销售，有色金属（须审批的品种除外）、磁疗保健用品及珠宝工艺品、机电产品的销售，提供电子技术服务,电子产品进出口（法律、法规禁止和限制产品除外）。",0816-2531965,1308672361@qq.com,100,存续,四川省绵阳市工商局高新分局,许天奇,19931108,20110510,29991231,20150428,有限责任公司（自然人投资或控股的法人独资）,sc,,,,0,0,0,0,0,1,0,6,0,3,0,0,8,0,0,西南应用磁学研究所,刘强，赵淳，许天奇，赵七一，薛勇健，蒋运石，,董事长，董事，董事长，董事，董事，董事，
4,104.9331493,31.95242667,江油市重鑫特种金属材料有限公司,5.11E+14,有色金属冶炼和压延加工业,江油市武都镇五通村六组,特种冶金制品及相关原辅材料、特种钢材、工模具钢、高温合金、钛合金、金属制品的生产、销售。（依法须经批准的项目，经相关部门批准后方可开展经营活动）,0816-3872213,jyzhongxin@126.com,1800,存续,四川省绵阳市江油市工商行政管理局,孙建国,20051228,20051228,20551227,20160624,有限责任公司(自然人投资或控股),sc,,,,0,,0,0,0,7,0,3,0,3,0,10,0,0,0,王遇元，范飞翔，吕建立，王辉，李先伟，高宝清，孙建国，,"王辉,孙建国,王遇元,","监事,执行董事,经理,"
5,104.678069,31.473335,四川圣光科技有限公司,5.11E+14,科技推广和应用服务业,绵阳高新区创业服务中心孵化大楼314号,信息技术产品、光电子产品、机械设备、化工设备的研制、批发及零售，货物及技术的进出口（法律、法规禁止项目除外，限制项目凭许可证经营），新能源、新材料及节能环保技术开发、技术咨询、技术服务、技术转让，企业形象策划，企业管理咨询。,18011132083,1303108333@qq.com,100,存续,四川省绵阳市工商局高新分局,刘明,20150316,20150316,29991231,20150316,有限责任公司(自然人投资或控股),,,,,0,0,0,0,2,0,2,0,1,0,0,0,0,0,0,刘明，徐晓，,刘明，徐晓，,执行董事兼总经理，监事，
6,104.705165,31.46891714,四川九洲光电科技股份有限责任公司,5.11E+14,计算机、通信和其他电子设备制造业,绵阳市科创园区九洲国际软件园,城市及道路照明工程的设计、施工（凭许可证经营）。光电子产品、LED点阵模块、LED显示屏、LED数码管、发光二极管、LED背光源、LED驱动电源、LED广告灯箱、LED电器用品、太阳能光源产品、半导体照明软硬件、光电子产品的设计、制造、销售及系统集成，照明灯饰、半导体元器件及材料的生产和销售，商品进出口业务（国家禁止的除外，限制的品种凭许可证经营），节能技术服务。,0816-2471120,jt.chen@scjz-led.com,17433.5,"存续
","四川省绵阳市工商行政管理局
","谢拥军
",20070428,20070428,29991231,20160720,股份有限公司(非上市、国有控股),,,,,1,3,0,3,2,3,0,10,2,3,0,105,7,0,,四川九洲电器集团有限责任公司，四川蜀祥投资有限公司，,吴江，何刚，谢拥军，但丁，郑智元，杨远林，刘定林，杜力平，王远谋，卿朝勇，,董事，董事，董事长，董事，董事，监事，董事，董事，监事，监事，
7,104.2583414,31.96252731,北川泰和新材料有限公司,5.11E+14,化学原料和化学制品制造业,北川羌族自治县永昌镇山东产业园区,粘合剂、聚氨酯弹性体、固化剂、夹胶及防弹玻璃的研发、生产、销售；稀释剂的加工、销售。,0816-8195015,476541586@qq.com,2600,存续,四川省绵阳市北川县工商行政管理局,包忠平,20091112,20091112,29991231,20160913,有限责任公司(自然人投资或控股),,,,,0,0,0,0,0,3,0,3,2,3,0,6,0,0,,张丹，包忠平，封同林，,张丹，包忠平，封同林，,监事，执行董事，总经理，
8,104.829128,31.40538,四川物科光学精密机械有限公司,5.11E+14,仪器仪表制造业,绵阳市游仙经济开发区凯越路1号,光学、机械、电子产品、光机电一体化产品的设计、研发、生产、销售及技术服务；计算机软件的开发、销售及技术服务；机械加工，光学元件加工；光钎器件，电子元器件，金属材料，光学玻璃，仪器仪表的销售及以上相关产品和技术的进出口。（依法须经批准的项目，经相关部门批准后方可开展经营活动）,0816-6204826,guanghailiu@163.com,500,存续,四川省绵阳市游仙区工商行政管理局,龙本兰,20150319,20150319,29991231,20160616,有限责任公司(自然人投资或控股),,,,,0,0,0,0,0,2,4,2,4,1,0,0,0,0,,龙本兰，刘光海，,刘光海，龙本兰，,监事，执行董事，
9,102.8991597,30.36748094,四川特锐祥科技股份有限公司,5.11E+14,计算机、通信和其他电子设备制造业,绵阳市游仙经济开发区三江路1号,电子、电器、电工、电气产品研发、生产、销售，五金零部件研发、生产、销售，包装材料及耗材的设计、生产、销售，化工材料（不含易燃易爆易制毒品）销售，计算机软件开发及销售，自营产品的进出口。,0816-6167066,1141745050@qq.com?,1000,存续,四川省绵阳市工商行政管理局,崔玉琼,20140122,20140122,20340122,20140122,股份有限公司(非上市、自然人投资或控股),,,,,0,1,0,0,0,2,1,8,1,2,0,0,0,0,,李莉，崔玉琼，,李莉，王振强，刘福，蔡鑫，刘世军，杨永春，崔玉琼，邓良泽，,董事，董事，监事，监事，董事，监事，董事长，董事，
10,105.119908,31.07731,四川三台力达泵业有限公司,5.11E+14,通用设备制造业,三台县青东坝工业集中区,生产、销售：泵类产品及配件。五金标件、通用机械及配件。电机、化工建材、生铁、炉料、铁合金销售，机电提（排）灌站、泵站、节水灌溉设计、制作及安装，温室、大棚制作及安装。（依法须经批准的项目，经相关部门批准后方可开展经营活动）,0816-5345281,1056353002@qq.com,2000,存续,四川省绵阳市三台县工商行政管理局,何良贵,19950530,20050520,20200520,20160105,有限责任公司(自然人投资或控股),,,,,0,1,0,0,0,3,0,2,2,3,0,0,1,0,,李素琼，何良贵，何林，,何林，何良贵，,监事，执行董事，
11,105.0169949,31.1532679,太极集团.四川天诚制药有限公司,5.11E+14,医药制造业,四川省绵阳市三台县灵兴镇,生产、销售：双氯酚酸钾原料药，凝胶剂、颗粒剂、片剂、糖浆剂、丸剂、擦剂、酊剂、口服液、流浸膏剂、中药饮片。营养补剂、保健食品(含营养补剂）。日用化学品销售。（依法须经批准的项目，经相关部门批准后方可开展经营活动）,0816-5603127,tiancheng@taiji.com,3612.18,存续,四川省绵阳市三台县工商行政管理局,黄珠成,20010531,20040331,20200404,20160307,其他有限责任公司,,,,,0,0,0,0,0,2,0,1,0,3,0,0,34,0,,重庆太极实业（集团）股份有限公司，四川绵阳药业集团公司，,黄珠成，,负责人，
5979313,104.7801403,31.42361614,四川长虹电器股份有限公司,1.60E+14,电气机械和器材制造业,绵阳市高新区绵兴东路35号,家用电器、汽车电器、电子产品及零配件、通信设备、照明设备、家居产品、计算机及其他电子设备、电子电工机械专用设备、电器机械及器材、电池系列产品、电子医疗产品、电力设备、机械设备、制冷设备及配件、数字监控产品、金属制品、仪器仪表、文化及办公用机械、文教体育用品、厨柜及燃气具的制造、销售和维修，房屋及设备租赁，包装产品及技术服务，公路运输，仓储及装卸搬运，集成电路与软件开发及销售、服务，企业管理咨询与服务，高科技项目投资及国家允许的其他投资业务，房地产开发与经营，房屋建筑工程施工，废弃电器、电子产品回收及处理，信息技术服务，财务咨询服务，化工原料及产品（不含危险化学品）、建筑材料、有色金属、钢材、塑料、包装材料、机电设备、贵重金属、汽车零配件、电子元器件的销售及相关进出口业务。,0816-2417949,600839@changhong.com,461624.4222,存续,四川省绵阳市工商行政管理局,赵勇,1.45E+12,7.34E+11,3.25E+13,1.48E+12,其他股份有限公司(上市),sc,,,,3,64,0,3,45,3,177,13,5,3,0,6568,86,4,123,"四川长虹电子集团有限公司,社会公众股,社会法人股,","赵勇,邬江,李进,宁向东,袁兵,吴晓刚,蔡春,刘体斌,巫英坚,阳丹,唐德超,余万春,林茂祥,","董事长 ,董事 ,董事 ,董事 ,监事 ,监事 ,董事 ,副董事长 ,董事 ,监事 ,监事 ,监事 ,董事 ,"
23117939,104.745131,31.460361,四川长虹佳华数字技术有限公司,5.11E+14,互联网和相关服务,绵阳市涪城区长虹大道南段西一巷12号,企业依法自主选择经营项目，开展经营活动；依法须经批准的项目，经相关部门批准后方可开展经营活动。,0816-2410681,chenlei@chongongit.com,5000,存续,四川省绵阳市涪城区工商行政管理局,赵勇,1.48E+12,1.22E+12,1.85E+12,1.48E+12,有限责任公司（非自然人投资或控股的法人独资）,sc,,,,0,2,0,5,33,1,0,2,1,3,0,0,20,0,0,"四川长虹佳华信息产品有限责任公司,","赵勇,费敏英,","执行董事 ,监事 ,"
28225447,104.6876222,31.46980254,中国电子科技集团公司第九研究所,,,,,,,,,,,,,,,,,,,,0,1,0,0,0,0,0,0,0,0,0,8,0,0,1,,,
28368203,104.763595,31.771963,攀钢集团江油长城特殊钢有限公司,5.11E+14,黑色金属冶炼和压延加工业,四川省江油市江东路,氧气、氮气、氢气、氩气生产销售；危险货物运输；货物专用运输（集装箱、自卸运输、冷藏保鲜、罐式）；普通货运；大型物件运输（一）；货车租赁；普通货物装卸；危险货物装卸；专用铁路线运输及维修；机动车维修；钢冶炼、钢压延加工；钢管、异性钢材研发、生产销售；钛、钛合金及钛制品生产销售；二级土木工程建筑；金属材料、冶金原辅材料、日用百货、日杂销售；旅游信息咨询服务；对外贸易经营；机电设备制造、安装、维修、销售；资产租赁。【依法须经批准的项目，经相关部门批准后方可开展经营活动】,0816-3653409,,430000,存续,四川省绵阳市江油市工商行政管理局,江宾,1.46E+12,6.11E+11,2.19E+12,1.48E+12,有限责任公司（非自然人投资或控股的法人独资）,sc,,,,1,11,0,0,0,1,0,3,10,3,0,127,15,0,1,"攀钢集团有限公司,","王保军,刘宇,江宾,","监事 ,执行董事 ,总经理 ,"
55708938,104.705519,31.50470126,四川省绵阳西南自动化研究所,5.11E+14,仪器仪表制造业,绵阳市游仙区仙人路二段7号,科学研究综合技术服务。 工程科学技术研究开发销售；《兵工自动化》出版；设计和制作印刷品广告，利用《兵工自动化》的印刷品发布广告；变压器、整流器和电感器制造，计算机制造，工业自动控制系统装置制造，核子及核辐射测量仪器制造，软件开发及信息技术服务。(以上经营范围中依法需经相关部门批准的，凭其批准文件经营),2282114,,20000,存续,四川省绵阳市游仙区工商行政管理局,刘勇,1.42E+12,7.63E+11,3.25E+13,1.47E+12,全民所有制,sc,,,,0,4,0,0,22,1,0,0,2,3,0,111,1,0,5,"?,",,
141701082,104.705519,31.50470126,绵阳麦思威尔科技有限公司,5.11E+14,化学原料和化学制品制造业,绵阳市安州区工业园区,水性金属防锈漆、水性汽车漆、水性木器漆、水性防火涂料、乳胶漆、水性防火涂料的研发、生产及销售和咨询服务；水性树脂、精细化工制剂及化工助剂、生物化学品（不含危化品）及新材料的研发、生产、销售。（以上项目涉及行政许可或资质的凭相关许可或资质从事经营）,4365880,myweide@sina.com,1000,存续,四川省绵阳市安县工商行政管理局,闫辉,1.47E+12,1.38E+12,3.25E+13,1.48E+12,有限责任公司(自然人投资或控股),sc,,,,0,0,0,0,0,3,7,2,9,3,0,0,0,0,1,"杨光,王国蓉,闫辉,","闫辉,赵白云,","执行董事 ,监事 ,"
142754868,104.7986016,31.52585299,绵阳鸿琪新材料科技有限公司,5.11E+14,橡胶和塑料制品业,绵阳游仙经济开发区五里梁工业园东环路西段11号,工程塑料、聚氨脂组合料的研发、生产、销售；塑料制品、聚氨脂制品生产、销售；模具的制作、销售；机械加工。（依法须经批准的项目，经相关部门批准后方可开展经营活动）,,,1100,存续,四川省绵阳市游仙区工商行政管理局,曾学良,1.45E+12,1.19E+12,1.82E+12,1.48E+12,有限责任公司(自然人投资或控股),sc,,,,0,0,0,0,0,2,0,2,4,3,0,10,5,0,0,"蒋小欧,曾学良,","蒋小欧,曾学良,","监事 ,执行董事 ,"
146218246,104.705519,31.50470126,绵阳雷磁电子科技有限公司,5.11E+14,计算机、通信和其他电子设备制造业,绵阳高新区火炬西街81号,货物进出口及技术进出口（法律、法规禁止项目除外，限制项目取得许可后方可经营）。。电子磁性元器件、照明电子及光电器件的研发、生产、销售。货物进出口及技术进出口（法律、法规禁止项目除外，限制项目取得许可后方可经营）。,0816-2533958,,1000,存续,四川省绵阳市工商局高新分局,赵七一,1.45E+12,1.18E+12,1.59E+12,1.48E+12,其他有限责任公司,sc,,,,0,0,0,0,0,3,4,7,2,3,0,0,2,0,0,"文家涛,惠州雷士光电科技有限公司,西南应用磁学研究所（中国电子科技集团公司第九研究所）,","肖宇,黄蓉,赵七一,谈鹰,文家涛,薛勇健,向用德,","董事 ,董事 ,董事长 ,董事 ,董事 ,监事 ,监事 ,"
156845920,104.266144,31.506617,四川省银河化学股份有限公司,5.11E+14,化学原料和化学制品制造业,安县雎水镇青云村,制造、销售水泥、重铬酸钠、铬酸酐、铬鞣剂、重铬酸钾、氧化铬绿、硫酸及硫酸制品（凭相关行政许可从事经营）、包装用袋、矿山机械、水泥制造机械；建筑材料、钢材、化工产品（不含危险化学品）零售；铬化学及无机颜料、电子浆料、新型油墨等相关产品的研究、开发；汽车货运；经营本企业自产产品及相关技术的出口业务；本企业生产科研所需的原辅材料、仪器仪表、机械设备、零配件及相关技术的进口业务（国家限定公司经营的和国家禁止进出口的商品除外）；经营本企业的来料加工和三来一补业务。,0816-4672289,yhxzb@yhcc.com,40000,存续,四川省绵阳市工商行政管理局,周中田,1.47E+12,8.51E+11,3.25E+13,1.48E+12,其他股份有限公司(非上市),sc,,,,2,8,0,0,3,56,7,10,3,3,0,65,6,0,35,"徐伟灿,叶明光,蒋清平,刘清华,阳艳,刘勇,颜登有,唐双全,俞中山,张建华,蒲运莲,林正,邱建兰,王亭刚,刘鑑洪,李洪武,李昕,周中田,张来春,何永飞,李志刚,范德平,庞富英,刘晋,白礼太,郭义祥,杨学平,李世民,赵云凯,范兴木,魏显德,董明甫,罗顺德,李俊虎,蒋再国,尤华莲,陈家英,张志刚,张松柏,陈宁,马顺友,张少华,邵建,李先荣,梁永林,林冬兰,尹春林,谢恩俊,叶莉莉,肖棱,四川久远投资控股集团有限公司,四川三新创业投资有限责任公司,绵阳市安县投资控股有限公司,安县国有资产管理办公室,绵阳保峰投资中心,北京亘古投资中心,","陈宁,杨安,陈保军,李洪武,王亭刚,马顺友,周中田,肖棱,邱建兰,李晓记,","董事 ,董事 ,董事 ,监事 ,董事 ,董事 ,董事长兼总经理 ,董事 ,监事 ,监事 ,"
157390975,104.705519,31.50470126,绵阳铭宇电子有限公司,5.11E+14,计算机、通信和其他电子设备制造业,绵阳科创园区西南科技大学国家大学科技园,仪器仪表的研发、生产与销售；工业控制系统、自动化控制系统、计算机软硬件、机电产品、电子产品的研发、生产与销售；无人机的技术研发；环保及节能设备、汽车配件、文化办公设备的研发、生产与销售；新材料的研发、生产与销售；电线电缆生产与销售；机械加工；土木工程建设；质检技术服务，信息系统集成，工程勘察服务及工程管理服务。,15309016525,,200,存续,四川省绵阳市工商行政管理局,叶伟,1.46E+12,1.31E+12,2.26E+12,1.48E+12,有限责任公司(自然人投资或控股),sc,,,,0,0,0,0,2,4,3,2,3,3,0,3,0,0,1,"叶伟,何东明,刘学峰,绵阳西南科技大学国家大学科技园有限公司,","刘丽莉,叶伟,","监事 ,执行董事 ,"
162161694,102.8991597,30.36748094,四川邦辰信息科技有限公司,5.11E+14,科技推广和应用服务业,绵阳科创区创新中心二期8号楼173号,计算机软、硬件的研发、销售及相关服务；系统集成服务；自动化控制及管理系统、仪表、电子产品的开发、销售及相关技术服务；机械加工及技术服务，机电设备、化工产品（不含易燃易爆易制毒等危险品）的销售。,2697988,,500,存续,四川省绵阳市工商行政管理局,霍强,1.44E+12,1.40E+12,3.25E+13,1.48E+12,其他有限责任公司,sc,,,,0,0,0,0,7,6,2,2,8,2,0,0,0,0,0,"霍强,张天志,张洋舟,王璐,吕军,深圳市百盛佳信息咨询有限公司,","霍强,张洋舟,","执行董事 ,监事 ,"
162696953,104.678067,31.473341,四川极速动力超微粉体设备制造有限公司,5.11E+14,通用设备制造业,绵阳市高新区创业服务中心孵化大楼三楼303号,超微粉体设备制造、研发、销售及技术服务；机械零部件加工、超微粉末加工。（以上经范营围国家限制或禁止经营的除外，需经有关部门批准的，必须取得相关批准后，按照批准的事项开展生产经营活动）。,2745869,516378793@qq.com,500,存续,四川省绵阳市工商局高新分局,袁祖江,1.47E+12,1.38E+12,3.25E+13,1.48E+12,有限责任公司(自然人投资或控股),sc,,,,0,0,0,0,0,3,0,4,12,3,0,14,0,0,1,"汪林,林勇,袁祖江,","林勇,周新蓉,袁祖江,包哲,","董事长 ,监事 ,执行董事 总经理 ,监事 ,"
162707570,104.6931706,31.47088581,四川九洲线缆有限责任公司,5.11E+14,电气机械和器材制造业,绵阳市科发大道中段9号,电线、电缆、光缆的设计、制造、安装、销售；相关接插件、电线、电缆、光缆用材料的制造、销售；五金交电、化工产品、日用百货、副食品、建筑材料的销售；机械加工，货物进出口、技术进出口，房产、机械、设备租赁。,0816-2532916,jzxl608@126.com,18349.9746,存续,四川省绵阳市工商局高新分局,孙仲,1.46E+12,9.88E+11,3.25E+13,1.48E+12,其他有限责任公司,sc,,,,1,4,0,0,0,2,0,8,4,3,0,122,0,0,1,"四川发展（控股）有限责任公司,四川九洲电器集团有限责任公司,","王洪波,陈锐,任敏,孙仲,冯雪峰,杨远林,龙贵林,何林虎,","监事 ,监事 ,监事 ,执行董事 ,董事 ,监事 ,董事 ,董事 ,"
162859866,104.705519,31.50470126,绵阳华通磁件技术有限公司,5.11E+14,计算机、通信和其他电子设备制造业,绵阳市涪城区绵州路南段356号,电子材料与器件、设备仪器、仪表及机械零部件的研发、生产、销售；机电工程安装，设备维修；国家允许的进出口贸易与服务。(依法须经批准的项目，经相关部门批准后方可开展经营活动)***,0816-2868178,mianyanghuatong@163.com,600,存续,四川省绵阳市涪城区工商行政管理局,许天奇,1.45E+12,5.84E+11,2.17E+12,1.48E+12,其他有限责任公司,sc,,,,2,0,0,0,0,1,1,8,8,3,0,1,0,0,0,"中国西南应用磁学研究所,","陈雪梅,焦健,陈文波,徐忠德,周永川,许天奇,蒋运石,罗旗,","监事 ,监事 ,董事 总经理 ,监事 ,董事 ,董事长 ,董事 ,董事 ,"
163142626,104.683553,31.497001,四川九洲电器集团有限责任公司,1.50E+12,电气机械和器材制造业,四川省绵阳市九华路6号,房地产开发、经营(取得资质证后方可经营)。雷达、通信设备、应用电子系统、安全防范系统、建筑电子工程（取得资质证后方可经营）、计算机信息网络系统及相关设备器材的设计、制造、安装、销售，电子产品、电缆光缆、电子电源、家电、普通机械、工模具、包装箱、橡胶塑料制品制造、销售，五金交电化工、纸制品、汽车配件销售，餐饮服务（仅限取得许可证的分支机构经营），出口自产机电产品，进口批准的所需原辅材料、设备、仪器及零配件，承包境外电子行业工程及境内国际招标工程。以上经营范围不含国家法律、法规、国务院决定需前置审批或许可的项目。,0816-2468306,jinggb@jezetek.cc,41841.1769,存续,四川省绵阳市工商行政管理局,杜力平,1.44E+12,7.88E+11,3.25E+13,1.47E+12,有限责任公司(国有独资),sc,,,,3,35,0,1,90,1,5,12,3,3,0,940,4,4,39,"市国有资产管理委员会,","王强,杨波,王国春,孙仲,谢拥军,祁权生,程旗,但丁,霞晖,何林虎,杜力平,贾必明,","董事 ,董事 ,董事 ,董事兼总经理 ,董事 ,董事 ,副总经理 ,董事 ,董事 ,副总经理 ,董事长 ,董事 ,"
163225987,104.7626039,31.46411855,四川迪派锐科技有限公司,5.11E+14,科技推广和应用服务业,绵阳科创园区创业大道中段237号,数字化管道检测设备、工业射线成像系统的研发、生产、销售及更新、换代服务，无损检测及配套设备仪器的研发、生产、销售、服务，新技术开发、服务、转让，货物及技术进出口业务（国家限制或禁止项目除外），机械设备、机电产品租赁及销售。,0816-6355581,dpri@dpri.net.cn,1250,存续,四川省绵阳市工商行政管理局,刘铃,1.45E+12,1.35E+12,1.98E+12,1.48E+12,其他有限责任公司,sc,,,,0,0,0,0,2,3,0,8,7,3,0,0,0,0,8,"徐浩,北京金色盛鑫科技有限公司,四川省科技城九九瑞迪数字成像技术有限公司,","刘琴,徐浩,陈浩,李红波,刘国才,刘铃,顾浩,许州,","监事 监事 ,董事 董事 ,董事 董事 ,监事 监事 ,董事 董事 ,董事长 总经理 董事长 总经理 ,董事 董事 ,董事 董事 ,"
163264291,102.8991597,30.36748094,四川九九瑞迪数字成像检测有限责任公司,5.11E+14,仪器仪表制造业,绵阳市绵山路64号（科学城六区）,X射线数字成像无损检测（以上经营范围，需许可、备案的取得许可、备案后经营，需资质的凭资质证经营）,0816-6355592,273854131@qq.com,100,存续,四川省科学城工商行政管理局,宋影松,1.47E+12,1.39E+12,3.25E+13,1.47E+12,有限责任公司（非自然人投资或控股的法人独资）,sc,,,,0,0,0,0,0,1,0,2,3,2,0,0,0,0,0,"?,","陈虹,宋影松,","监事 监事 ,执行董事兼总经理 执行董事兼总经理 ,"
163269398,104.7481915,31.51773607,四川省科学城九九瑞迪数字成像技术有限公司,5.11E+14,科技推广和应用服务业,绵阳市绵山路64号（十所民品楼）,辐射数字成像仪器和设备，高低能工业CT系统、医用CT、显微CT、电子直线加速器、工业管道数字化无损检测系统、三维安检系统、X射线成像系统和涉及辐射成像技术相关的产品及配套设备仪器的研发、生产、销售和服务。（以上项目需国家审批的取得许可后方可经营）,0816-6355559,273854131@qq.com,6843,存续,四川省科学城工商行政管理局,李红波,1.47E+12,1.39E+12,3.25E+13,1.48E+12,有限责任公司（非自然人投资或控股的法人独资）,sc,,,,0,1,0,0,0,1,0,6,3,2,0,0,0,0,0,"四川省科学城久利科技实业有限责任公司,","王远,陈浩,陈虹,李红波,宋影松,余善聚,","董事 董事 ,董事 董事 ,董事 董事 ,董事长 董事长 ,董事 董事 ,监事 监事 ,"
163516275,102.8991597,30.36748094,四川久远银海畅辉软件有限公司,5.11E+14,科技推广和应用服务业,绵阳市涪城区九州大道303号,计算机系统软件、硬件系统、网络设备、监控设备、办公用品的销售及技术服务；计算机软、硬件的开发、销售、技术服务及技术咨询；弱电工程设计与施工。（以上经营范围，需许可、备案的取得许可、备案后经营，需资质的凭资质经营）,0816-2563690,dongkuiyuan@yinhai.com,1000,存续,四川省绵阳市涪城区工商行政管理局,韩志华,1.40E+12,1.40E+12,3.25E+13,1.47E+12,有限责任公司（非自然人投资或控股的法人独资）,sc,,,,0,0,0,0,21,1,0,5,0,2,0,0,0,0,2,"四川久远银海软件股份有限公司,","张雪梅,韩志华,杜斌,连春华,揣军,","监事 监事 ,董事长 董事长 ,董事 董事 ,董事 董事 ,经理 经理 ,"
163624905,102.8991597,30.36748094,四川久远特种高分子材料技术有限公司,5.11E+14,研究和试验发展,绵阳市绵山路64号（久远纳米大楼四楼）,进出口业务(以上项目取得许可后方可经营）。特种功能材料、绝缘材料、热缩材料及制品、线缆附件、电线电缆、电力电缆附件、船舶航空配件及材料的相关各项技术开发、转让及服务，仪器仪表、电子产品、电子元器件、连接器、通讯设备（除专供产品）电讯器材、包装材料、、机电设备、劳保用品、办公设备及用品、五金交电的销售。,0816-2484616,1102961970@QQ.com,300,存续,四川省科学城工商行政管理局,刘波,1.47E+12,1.22E+12,1.87E+12,1.48E+12,有限责任公司(自然人投资或控股),sc,,,,0,1,0,0,0,5,0,4,1,3,0,0,0,0,0,"刘波,黄震,李明,四川久远投资控股集团有限公司,四川省科学城环通电器总公司,","刘波,王耀华,徐勇智,余彦胤,","董事长兼总经理 董事长兼总经理 ,董事 董事 ,监事 监事 ,董事 董事 ,"
163957280,104.678069,31.473335,四川迈迪测控技术有限公司,5.11E+14,仪器仪表制造业,绵阳市高新区创业服务中心孵化大楼二楼239,计算机及周边设备、测量与控制产品、自动化仪器、传感器、图像采集产品、机电一体化产品、智能环保电子产品、测控系统的软硬件开发、生产、销售及相关服务。,0816-2837369,multiidea@126.com,500,存续,四川省绵阳市工商局高新分局,张明千,1.46E+12,1.40E+12,2.03E+12,1.48E+12,有限责任公司(自然人投资或控股),sc,,,,0,1,0,0,3,4,0,3,3,2,0,8,0,0,0,"何佼,王国金,张明千,张永,","张永,何佼,张明千,","总经理 总经理 ,监事 监事 ,执行董事 执行董事 ,"
164297993,104.705519,31.50470126,绵阳市达诺电子科技有限公司,5.11E+14,计算机、通信和其他电子设备制造业,安县工业园（辽宁大道西侧）,"模具、液晶模组的研发、生产、销售，合金产品加工，机械加工，工业自动化设备的设计、制造、销售，电子产品生产、销售，家用电器、制冷设备的销售。（以上经营范围不含前置许可项目,依法需经相关部门批准的，凭其批准文件经营）",0816-4617783,mydanuo@163.com,100,存续,四川省绵阳市安县工商行政管理局,张立明,1.43E+12,1.36E+12,1.99E+12,1.48E+12,有限责任公司(自然人投资或控股),sc,,,,0,0,0,0,0,2,8,2,3,3,0,0,0,0,0,"张立明,张庭婷,","张立明,张庭婷,","执行董事 执行董事 ,监事 监事 ,"
165436863,102.8991597,30.36748094,四川艺精科技集团有限公司,5.11E+14,研究和试验发展,绵阳市绵山路72号（江油市德胜南路87号）,新材料、光机电一体化、民用核技术的研发和生产经营；军转民成果推广、转化、孵化；高科技产业投资与技术转移平台投资；房地产开发。,0816-3620346,2328002395@qq.com,5000,存续,四川省科学城工商行政管理局,王新,1.46E+12,9.96E+11,3.25E+13,1.48E+12,有限责任公司（非自然人投资或控股的法人独资）,sc,,,,0,7,0,0,2,1,1,13,4,3,0,9,0,0,5,"中国工程物理研究院材料研究所,","王建华,王新,郭芳,石岩,付军,范勇,李嵘,毛燕,黎晓峰,邓幼宁,苗丰田,帅茂兵,鲜晓斌,","董事 董事 ,董事长 董事长 ,监事 监事 ,董事 董事 ,监事 监事 ,副总经理 副总经理 ,董事 董事 ,监事 监事 ,监事 监事 ,董事兼总经理 董事兼总经理 ,监事 监事 ,副董事长 副董事长 ,董事 董事 ,"
166359349,104.705519,31.50470126,绵阳诗兰姆汽车零部件有限公司,5.11E+14,汽车制造业,安县工业园区汽车零部件产业园,汽车零部件、模具、机械设备及配件开发、制造、销售；自产产品售后服务。(以上经营范围不涉及前置许可，涉及许可证的依据许可证经营),0816-6155266,zhangdongmei@schlemmer.com.cn,500,存续,四川省绵阳市安县工商行政管理局,毛明,1.41E+12,1.35E+12,1.99E+12,1.48E+12,有限责任公司（非自然人投资或控股的法人独资）,sc,,,,0,0,0,0,0,1,7,3,0,3,0,0,0,0,0,"宁波诗兰姆汽车零部件有限公司,","王刚,周燕燕,毛明,","经理 经理 ,监事 监事 ,执行董事 执行董事 ,"
166483137,104.705519,31.50470126,绵阳西磁科技有限公司,5.11E+14,计算机、通信和其他电子设备制造业,绵阳高新区火炬西街北段81号,磁性材料、电子元器件、电子材料、仪器设备研发、生产、销售，服务及进出口业务。,0816-2555182,china_west01@163.com,4567.5,存续,四川省绵阳市工商局高新分局,许天奇,1.45E+12,1.13E+12,3.25E+13,1.48E+12,有限责任公司（自然人投资或控股的法人独资）,sc,,,,0,7,0,0,0,1,5,8,2,3,0,5,0,0,0,"西南应用磁学研究所,","刘强,陈浩,陈劲松,赵淳,周永川,许天奇,薛勇健,蒋运石,","董事 董事 ,董事 董事 ,董事 董事 ,董事 董事 ,董事 董事 ,董事长 董事长 ,监事 监事 ,董事 董事 ,"
166734460,104.705519,31.50470126,绵阳蜀邦实业有限公司,5.11E+14,批发业,绵阳市经开区南湖街326号附216号,建筑装饰材料的生产、销售；化工产品（不含易燃易爆易制毒品）、新型材料、墙体材料、环保产品、高效节能产品研发、生产、销售；装饰材料、五金交电、有色金属材料的销售；矿产品加工、销售。（依法须经批准的项目，经相关部门批准后方可开展经营活动）***,0816-2309713,2406021531@qq.com,1000,存续,四川省绵阳市工商行政管理局,张峻,1.48E+12,9.52E+11,1.86E+12,1.48E+12,有限责任公司(自然人投资或控股),sc,,,,0,0,0,0,0,2,1,2,3,3,0,0,2,0,5,"郭翠华,雷翔,","张峻,雷翔,","执行董事 执行董事 ,监事 监事 ,"
167211233,104.7672254,31.49939596,四川科莱电梯股份有限公司,5.11E+14,建筑安装业,绵阳市游仙区石马工业集中区,电梯、自动扶梯、自动人行道、电梯控制设备及电梯零部件的生产和销售， 电梯安装及维修改造，衡器产品的生产和销售，机械加工；电子设备、电子测量仪器、电子机械产品、工业自动控制设备的销售；进出口贸易（国家禁止项目除外）；科技信息咨询及技术服务。,0816-5012567,cl@myclimb.cn,4000,存续,四川省绵阳市工商行政管理局,余海跃,1.47E+12,1.06E+12,3.25E+13,1.48E+12,其他股份有限公司(非上市),sc,,,,3,4,0,1,0,48,1,8,7,3,0,13,3,0,5,"彭兴平,杨平华,雷晓燕,魏建军,胡霄松,余海跃,聂文清,李凤保,胡胜利,许继东,胡立民,彭山平,王永秦,韩一红,杨红梅,夏红军,何明贵,唐开荣,刘涌,郑东,金春雨,顾凌云,曾兵,黄鑫,李柔霖,虞丽君,白义波,李西川,尹远,潘宁,王玉桃,范伟,杨耿,戴庶沁,梁丛友,杨志军,孙金山,张品健,陈景玉,李勇,周飞,杜芳,刘晓伟,贾岗,陶淼,程玉涛,四川堂宏实业集团有限公司,四川省科学城环通电器总公司,","张小平,张爱民,郑东,马俊,许成林,高堂宏,高义杰,余海跃,","董事 董事 ,董事长 董事长 ,监事 监事 ,监事 监事 ,监事 监事 ,董事 董事 ,董事 董事 ,董事兼总经理 董事兼总经理 ,"
168429031,104.705519,31.50470126,四川绵阳华元航升环保科技有限公司,5.11E+14,专用设备制造业,绵阳高新区路南工业区,机动车配件制造、销售，汽车尾气催化、净化系统产品研发、制造、销售，货物进出口、技术进出口（法律、法规禁止项目除外，限制项目凭许可证经营）。,18681658298,280196646@qq.com,1446,存续,四川省绵阳市工商局高新分局,胡长青,1.45E+12,1.20E+12,3.25E+13,1.48E+12,有限责任公司(自然人投资或控股),sc,,,,0,1,0,0,0,4,0,2,4,3,0,8,2,0,3,"齐茹萍,胡长青,陈美华,绵阳高新区天力机械有限责任公司,","胡长青,陈美华,","执行董事兼总经理 ,监事 ,"
168429199,104.6859311,31.46602695,绵阳高新区天力机械有限责任公司,5.11E+14,汽车制造业,绵阳高新区路南工业区,汽车发动机零配件及机器零配件的加工、制造、销售。,2532316,740800676@qq.com,1000,存续,四川省绵阳市工商局高新分局,陈美华,1.45E+12,1.05E+12,1.69E+12,1.48E+12,有限责任公司(自然人投资或控股),sc,,,,0,1,0,0,0,5,1,3,2,3,0,1,0,0,0,"郭钢,王翔卫,王秀君,陈美华,杨梅,","徐思伟,陈美华,王翔卫,","监事 ,执行董事 ,总经理 ,"
169245333,104.9331493,31.95242667,江油联福特种锻造有限公司,5.11E+14,通用设备制造业,江油市三合镇桂香村（工业开发区东区）,锻钢件、金属结构件的制造、销售；通用机械加工；铸造件加工；钢材销售。（依法须经批准的项目，经相关部门批准后方可开展经营活动）,0816-3220641,314366108@qq.com,70,存续,四川省绵阳市江油市工商行政管理局,蒲红,1.48E+12,1.16E+12,2.74E+12,1.48E+12,有限责任公司(自然人投资或控股),sc,,,,0,1,0,0,0,2,0,1,0,3,0,1,2,0,0,"蒲红,尞治贞,","蒲红,","执行董事兼总经理 ,"
171252566,102.8991597,30.36748094,四川科瑞达电子技术有限公司,5.11E+14,计算机、通信和其他电子设备制造业,绵阳科创区创新中心2号楼1楼,企业依法自主选择经营项目，开展经营活动；依法须经批准的项目，经相关部门批准后依批准的内容开展经营活动。,0816-6335580,199330046@qq.com,500,存续,四川省绵阳市工商行政管理局,陈坤,1.47E+12,1.40E+12,3.25E+13,1.48E+12,有限责任公司(自然人投资或控股),sc,,,,0,0,0,0,4,3,2,2,12,2,0,6,0,0,0,"陈子荣,王芳,陈坤,","王芳,陈坤,","监事 ,执行董事 ,"
177768637,104.705519,31.50470126,绵阳锐洋新材料技术开发有限公司,5.11E+14,研究和试验发展,绵阳市游仙经济开发区三江路1号,橡胶材料的技术开发，辐射加工技术开发及服务，生产、销售辐射交联、聚合、固化系列产品，辐射加工专用化工材料及制品（不含危险化学品）、电力电缆高压预制式附件、光缆光纤接续附件的销售，废旧金属、废旧物资、废旧电子元件、废旧橡胶（国家政策限制的品种除外）的收购、加工、销售，商品和技术的进出口贸易（国家限定公司经营或禁止进出口的商品及技术除外）。（以上经营范围中依法须经批准的项目，经相关部门批准后方可开展经营活动）,13890153438,27985968@qq.com,10000,存续,四川省绵阳市游仙区工商行政管理局,王多孝,1.46E+12,1.15E+12,2.10E+12,1.48E+12,有限责任公司(自然人投资或控股),sc,,,,0,0,0,0,0,2,4,2,11,3,0,2,0,0,3,"王多孝,景兵,","王多孝,任高锐,","执行董事 ,监事 ,"
177769325,104.7690419,31.49975135,四川久远科技股份有限公司,5.11E+14,计算机、通信和其他电子设备制造业,四川省绵阳市游仙区中经路科学城工业园区内,研发、生产、销售化工产品及材料（不含危险化学品）、塑料、橡胶、高分子改性材料及电子、机电、机械产品；钢质管道防腐系列产品；电力电缆高压预制式附件；光缆（纤）接续附件；辐射加工及技术开发服务；经营本企业自产产品及技术的出口业务；经营本企业生产所需的原辅材料、仪器仪表、机械设备、零配件及技术的进口业务（国家限定公司经营和国家禁止进出口的商品及技术除外）；经营进料加工和“三来一补”业务。,0816-2489140,419159095@qq.com,4200,存续,四川省绵阳市工商行政管理局,梁益忠,1.44E+12,9.78E+11,3.25E+13,1.47E+12,其他股份有限公司(非上市),sc,,,,0,7,0,0,0,6,1,8,3,3,0,14,0,0,1,"四川汉龙（集团）有限公司,北京中体改投资顾问有限责任公司,绵阳市科学城华能科技实业公司,四川省科学城西核高技术开发总公司,四川久远（集团）有限责任公司,四川省科学城国营海天实业总公司,","李晓华,田志强,刘亚东,侯春梅,赵德智,梁益忠,隋涵蓉,绪明,","董事 ,董事 ,监事 ,监事 ,董事兼总经理 ,董事长 ,监事 ,董事 ,"
177944650,104.2583414,31.96252731,北川羌族自治县六合汽轮机材料有限公司,5.11E+14,通用设备制造业,北川羌族自治县通口镇通泉村,汽轮机配件及材料、专用锻材、锻件、铸件产品的生产、加工、销售。（以上经营项目需前置审批的，取得许可证后方可经营）,0816-3639257,,1000,存续,四川省绵阳市北川县工商行政管理局,熊建新,1.47E+12,1.18E+12,2.76E+12,1.48E+12,有限责任公司（自然人投资或控股的法人独资）,sc,,,,0,0,0,0,0,1,0,1,0,3,0,0,0,0,0,"四川六合锻造股份有限公司,","熊建新,","董事长 ,"
177945264,104.7580884,31.75162326,四川六合锻造股份有限公司,5.11E+14,金属制品业,江油市三合镇羊河村,金属锻件、锻材、铸件及材料生产、加工、销售，锻造、铸造工艺及材料技术开发，通用机械设备及备件、汽轮机零部件及材料生产、加工、销售，进出口业务（国家禁止或限制的除外）。,0816-3639257,,8243.5393,存续,四川省绵阳市工商行政管理局,熊建新,1.42E+12,1.08E+12,2.63E+12,1.47E+12,股份有限公司(非上市、自然人投资或控股),sc,,,,0,4,0,0,0,23,4,10,2,3,0,50,4,0,4,"王春江,赵西平,何新,张华国,艾广权,洪玉春,熊建新,罗明,雷德江,蒋洪波,黄志永,曾令军,刘永新,尹恒,熊玉梅,王宁,熊科阳,李媛,李观群,高刚毅,代忠明,苏州仁华创业投资有限公司,苏州合盈创业投资管理有限公司,","王霞,郭旭东,梁勇,蒋代明,王春江,尹恒,李凤明,罗明,王胜东,熊建新,","监事 ,董事 ,董事 ,董事 ,监事 ,董事 ,董事 ,董事 ,监事 ,董事长 ,"
178943551,104.705519,31.50470126,绵阳才智软件有限公司,5.11E+14,科技推广和应用服务业,绵阳科创区西南科技大学国家大学科技园区,计算机软硬件开发、技术服务、技术转让、技术维护及系统集成服务；电子产品及配件的销售、安装；广告设计、制作、发布及代理；计算机辅助设备的销售及咨询。,13795771194,317638404@qq.com,30,存续,四川省绵阳市工商行政管理局,张秋梅,1.45E+12,1.39E+12,3.25E+13,1.48E+12,其他有限责任公司,sc,,,,0,0,0,0,0,4,0,3,5,2,0,0,0,0,0,"陈念年,张秋梅,李波,曹昉,","李波,张秋梅,陈长志,","经理 ,执行董事 ,监事 ,"
182309554,104.705519,31.50470126,绵阳昊音丰科电子有限公司,5.11E+14,计算机、通信和其他电子设备制造业,绵阳市经开区溏汛镇金广村七组,电子产品及通信设备研发、生产及销售，机电产品制造及销售。(依法须经批准的项目，经相关部门批准后方可开展经营活动）***,2494705,,10,存续,四川省绵阳市工商行政管理局,赵清国,1.42E+12,1.42E+12,3.25E+13,1.48E+12,有限责任公司(自然人独资),sc,,,,0,0,0,0,0,1,0,2,0,2,0,0,0,0,0,"赵清国,","赵清国,常显锋,","执行董事 ,监事 ,"
186745206,104.7658134,31.47869766,四川东材科技集团股份有限公司,5.11E+14,医药制造业,绵阳市经济技术开发区洪恩东路68号,绝缘材料、高分子材料、精细化工材料的生产、销售，危险化学品(含丙酮、甲苯、醋酸酐、甲基乙基酮、有毒品、易燃液体、腐蚀品、氧化剂和有机过氧化物、易燃固体、自燃和遇湿易燃物品)、非药品类易制毒化学品（含醋酸酐、丙酮、甲苯、乙醚、硫酸、盐酸、三氯甲烷）的销售。科技信息咨询、技术服务，出口本企业自产的绝缘材料及其生产设备和原辅料，进口本企业生产、科研所需的原辅材料、机械设备、仪器仪表及零配件。,0816-2972570,tangjian2@emtco.cn,61576,存续,四川省绵阳市工商行政管理局,于少波,1.47E+12,7.88E+11,3.25E+13,1.48E+12,其他股份有限公司(上市),sc,,,,3,7,0,0,0,4,6,12,0,3,0,110,12,0,5,"广州诚信创业投资有限公司,广州高金技术产业集团有限公司,广州金悦塑业有限公司,四川新运科贸有限公司,","赵平,于少波,徐坚,尹胜,李文权,简青,唐安斌,杨鸣波,马庆柯,熊玲瑶,马宗桂,宗跃强,","监事 ,董事长 ,董事 ,董事 ,监事 ,监事 ,董事 ,董事 ,监事 ,董事 ,董事 ,监事 ,"
190196940,104.705519,31.50470126,雅化集团绵阳实业有限公司,5.11E+14,专用设备制造业,绵阳市游仙区新桥镇,民用爆破器材的生产、销售。电镀及金属表面加工处理，金属材料加工，技术服务及咨询；机械设备制造、销售、安装、租赁及维修；钢材、建筑材料销售，环保设备制造、安装；自有房屋租赁；装卸业务；进出口贸易（国家限定公司经营或禁止进出口的商品及技术除外）。（以上经营范围中依法须经批准的项目，经相关部门批准后方可开展经营活动）,0816-2777212,178559851@qq.com,17710,存续,四川省绵阳市游仙区工商行政管理局,高欣,1.46E+12,8.95E+11,1.68E+12,1.48E+12,有限责任公司（自然人投资或控股的法人独资）,sc,,,,1,12,0,0,0,1,0,3,5,3,0,130,0,0,2,"四川省雅化实业集团股份有限公司,","高欣,胡强,李学平,","董事长 ,监事 ,监事 ,"
192350037,104.7672875,31.50320043,四川久远智能监控有限责任公司,5.11E+14,建筑安装业,绵阳市绵山路64号附34号,火灾报警、保安、消防电子产品、消防器材产品、报警源产品的设计、生产、销售，相关工程安装服务，电子产品、 计算机应用产品，提供技术咨询服务;安防技术防范工程设计、安装、维修。（以上项目取得许可后方可经营）,0816-2482326,,800,存续,四川省科学城工商行政管理局,蔡为民,1.47E+12,9.97E+11,1.58E+12,1.48E+12,其他有限责任公司,sc,,,,1,2,0,0,5,2,5,10,3,3,0,12,0,0,1,"四川久远投资控股有限公司,河北北大青鸟环宇消防设备有限公司,","王国强,蔡为民,魏平,高俊艳,林锋,崔蓉,任春燕,侯春梅,康亚臻,德杰,","董事 董事 ,董事长 董事长 ,监事 监事 ,董事 董事 ,董事 董事 ,监事 监事 ,监事 监事 ,董事 董事 ,董事 董事 ,董事 董事 ,"
192623149,104.6482999,31.52524745,四川迅吉科技有限责任公司,5.11E+14,计算机、通信和其他电子设备制造业,绵阳市金家林经济试验区,机箱、机柜及机电一体化产品、电子产品、精密电子、数码光电产品、精密五金件、装饰件、模具、高精密偶传动件、汽车配件（不含汽车发动机）的研发、设计、加工、制造、销售及表面处理（电镀除外）。（以上经营范围：国家禁止的不得经营；涉及专项许可事项的，必须取得专项许可后在许可范围和时效内经营）***,0816-5012999,1063179414@qq.com,500,存续,四川省绵阳市涪城区工商行政管理局,姜琳,1.45E+12,1.29E+12,1.92E+12,1.47E+12,有限责任公司(自然人投资或控股),sc,,,,0,1,0,0,0,2,0,2,0,3,0,35,0,0,0,"姜琳,张吉,","姜琳,张继琼,","执行董事 ,监事 ,"
193864725,104.705519,31.50470126,绵阳市赛亚磁业有限责任公司,5.11E+14,计算机、通信和其他电子设备制造业,绵阳高新区火炬西街北段81号,磁性材料及器件的研制、开发、生产、销售，电子产品、通讯设备、机电产品、金属材料销售。,0816-2530712,,70.7,存续,四川省绵阳市工商局高新分局,赵淳,1.47E+12,9.59E+11,2.69E+12,1.48E+12,有限责任公司（自然人投资或控股的法人独资）,sc,,,,0,0,0,0,0,1,0,4,0,3,0,0,0,0,0,"绵阳西磁科技有限公司,","赵刚,赵淳,李兆波,吴献军,","监事 ,董事长 ,董事 ,董事 ,"
194477031,104.677705,31.473927,四川长虹技佳精工有限公司,5.11E+14,专用设备制造业,绵阳高新区绵兴东路35号,"机械设备及通用零部件设计、制造、加工、销售，金属表面处理及热处理加工，人造纤维板加工,信息产业系列产品（法律、法规禁止项目除外）的设计、制造、加工、销售，货物进出口、技术进出口（法律、法规禁止项目除外，限制项目凭许可证经营）。",15908230177,li1.tang@changhong.com,3500,存续,四川省绵阳市工商局高新分局,郑光清,1.40E+12,1.16E+12,1.79E+12,1.48E+12,其他有限责任公司,sc,,,,1,3,0,0,1,2,0,1,0,3,0,139,2,0,0,"四川长虹电器股份有限公司,四川长虹创新投资有限公司,","郑光清,","执行董事 ,"
194504850,104.5736342,31.45705881,四川豪特实业集团有限公司,5.11E+14,计算机、通信和其他电子设备制造业,绵阳河北-平武工业园区,对国家产业政策允许的项目进行投资，能源与环保设备、电子计算机与电子信息技术研发、制造、销售及技术咨询服务，路面工程技术开发，工程咨询服务，吸音材料的研发，钢圈研发、制造及销售，货物及技术进出口，电动汽车充电设备的研发设计、生产、销售及服务，电动汽车充电站规划设计、建设施工及运营服务，新能源汽车运营管理，信息科技专业领域内的技术开发、技术服务，通信设备的销售、安装、调试、维护（不含大功率发射装置），机器人研发设计、生产、销售、租赁和技术服务。,0816-2810765,serve@haotejt.com,5000,存续,四川省绵阳市平武县工商行政管理局,辜俊杰,1.45E+12,1.34E+12,2.28E+12,1.48E+12,有限责任公司(自然人投资或控股),sc,,,,0,6,0,0,0,2,6,2,3,3,0,22,0,0,0,"辜俊杰,辜子恒,","辜俊杰,辜子恒,","执行董事 总经理 ,其他人员 ,"
195569204,102.8991597,30.36748094,禾大西普化学（四川）有限公司,5.11E+14,化学原料和化学制品制造业,绵阳市经开区塘汛东路656号,专用化学品及衍生产品、塑料包装产品的生产及销售（外商投资禁止、限制类除外，涉及资质许可的凭许可证经营）。,0816-2534954,sales@crodasipo.com,5000,存续,四川省绵阳市工商行政管理局,朱进,1.48E+12,1.14E+12,1.85E+12,1.48E+12,有限责任公司(台港澳与境内合资),sc,,,,3,3,0,0,0,2,1,6,3,3,0,1,4,0,6,"四川久远投资控股集团有限公司,禾大香港有限公司,","朱进,周晞,董琳琳,邓全农,David Edward BARRACLOUGH,Thomas Michael BROPHY,","总经理 ,董事长 ,监事 ,董事 ,董事 ,监事 ,"
197205055,104.7643597,31.77153988,四川省江油市新华泰实业有限责任公司,5.11E+14,黑色金属冶炼和压延加工业,江油市彰明镇昌明村,不锈钢精密铸造生产、销售；特殊钢材料销售；废旧金属、冶金固体废弃物（不含危险废物）收购。（依法须经批准的项目，经相关部门批准后方可开展经营活动）,0816-3482011,,5000,存续,四川省绵阳市江油市工商行政管理局,邢春,1.40E+12,1.09E+12,3.25E+13,1.48E+12,有限责任公司(自然人投资或控股),sc,,,,0,0,0,0,0,2,0,2,3,3,0,13,1,0,0,"邢春,胡志芳,","邢春,胡志芳,","执行董事兼总经理 ,监事 ,"
198251120,104.7454388,31.76947716,四川广通建设有限公司,5.11E+14,土木工程建筑业,江油市华丰新村9号,工业与民用建筑工程施工（壹级）；可承担机电安装工程施工；市政公用工程施工；建筑装修装饰工程施工；核工程施工；环保工程施工；建筑防水施工；水利水电工程施工；公路工程施工；房地产开发。地质灾害治理工程施工。（取得许可后方可经营） 销售：五金、交电、化工产品（不含危险品）、建筑材料、机械电器设备、医疗器械、钢材、汽车配件、百货、办公用品、其他副食用品。,0816-3621292,scgtjsyxgs@163.com,5800,存续,四川省科学城工商行政管理局,王新,1.45E+12,9.78E+11,2.85E+12,1.48E+12,其他有限责任公司,sc,,,,1,8,0,0,0,50,0,12,2,3,0,0,8,0,0,"蔺伟宏,刘洪全,胡志鹏,彭刚,代庭友,闫树山,郑玮,刘强,孙志浩,邓幼宁,陈清平,陈清太,余洪远,郑武成,黄峰,王关禄,李康军,王晖,张云鹏,钟武诚,朱文英,姜琪,谢卫东,靳燕,边锡铜,杨开元,慕承兰,姜维庶,高川晴,肖志江,苏海,潘德华,陈方,罗云霞,陈刚,黄永秀,罗启均,冉亨龙,谌美,胡建新,王忠,杨春成,田汉辉,王勇,王戈平,杨怡,任正喜,何敏,顾星渊,四川艺精科技集团有限公司,","王新,郭芳,苏海,马英杰,丁平,李嵘,王戈平,张孝华,姜琪,杨春成,陈清太,鹿蔚,","董事长 ,监事 ,监事 ,监事 ,董事 ,董事 ,董事兼总经理 ,董事 ,监事 ,董事 ,董事 ,监事 ,"
201260701,102.8991597,30.36748094,四川思安特科技有限公司,5.11E+14,科技推广和应用服务业,绵阳西南科技大学国家大学科技园,计算机软、硬件研发，计算机及外设、网络产品销售，网络工程建设（凭资质证书经营）、及系统集成，相关产品生产、销售，相关技术咨询服务。,13981191558,,100,存续,四川省绵阳市工商行政管理局,黄晓芳,1.41E+12,1.34E+12,2.91E+12,1.47E+12,有限责任公司(自然人投资或控股),sc,,,,0,0,0,0,2,2,0,2,4,3,0,0,0,0,0,"宋鲁华,黄晓芳,","黄晓芳,宋鲁华,","执行董事兼总经理 ,监事 ,"
209586066,104.810232,31.375517,利尔化学股份有限公司,5.11E+14,医药制造业,四川省绵阳经济技术开发区,农药原药、制剂、化工材料及化工产品的研发、生产、销售；经营本企业自产产品的出口业务；经营本企业所需机械设备、仪器仪表、零配件及相关技术的进口业务；经营本企业的加工贸易业务；技术转让、技术检测及咨询；投资管理及咨询。,0816-2845140,lm@lierchem.com,52437.303,存续,四川省绵阳市工商行政管理局,尹英遂,1.47E+12,9.65E+11,3.25E+13,1.48E+12,股份有限公司(台港澳与境内合资、上市),sc,,,,1,7,0,0,0,12,3,12,6,3,0,110,9,0,159,"何勇,陈学林,张成显,张俊,蒋勇,黄世伟,魏平,宋剑安,四川久远投资控股集团有限公司,中通投资有限公司,社会公众普通股（A股）,中国工程物理研究院化工材料研究所,","李海燕,方建新,徐士辉,罗宏,代明华,肖渝,潘力佳,靳建立,尹英遂,来红刚,谭芬芳,张启戎,","监事 ,董事 ,副董事长 ,董事 ,董事 ,监事 ,董事 ,董事 ,董事长 ,董事 ,监事 ,董事 ,"
211704100,102.8991597,30.36748094,四川中盾金卫光电科技有限公司,5.11E+14,计算机、通信和其他电子设备制造业,绵阳科创园区西南科技大学国家大学科技园,光电仪器及元器件、特种电源、电子产品、计算机软件的研发、生产、销售；五金交电、电器产品、汽车配件的销售。,13350029100,zhongdunjinwei@163.com,625,存续,四川省绵阳市工商行政管理局,宋凤军,1.42E+12,1.33E+12,1.96E+12,1.48E+12,有限责任公司(自然人投资或控股),sc,,,,0,1,0,0,4,4,3,2,7,3,0,3,0,0,1,"宋凤军,北京优卓越投资有限公司,绵阳西南科技大学国家大学科技园有限公司,四川威比特投资有限公司,","宋凤军,杨言,","执行董事兼总经理 执行董事兼总经理 ,监事 监事 ,"
217281581,104.6864912,31.46200819,四川巨子超微科技有限公司,5.11E+14,研究和试验发展,绵阳高新区火炬西街南段19号,"超微粉碎设备、超微粉体、新材料的研究、制造、销售，精细化工产品、电子、机械零配件、环保产品的制造、销售,自动化系统设备、低压配电系统控制设备设计、制造、加工、销售，系统集成销售，机械系统技术开发、转让、服务、咨询，货物、技术进出口业务（法律、法规禁止项目除外，限制项目凭许可证经营）。",0816-2545551,juzichaowei@163.com,200,存续,四川省绵阳市工商局高新分局,曹志国,1.41E+12,1.05E+12,1.89E+12,1.47E+12,有限责任公司(自然人投资或控股),sc,,,,0,1,0,1,0,2,13,1,0,3,0,16,1,0,1,"张立群,曹志国,","曹志国,","执行董事 ,"
218702193,104.7312651,31.55469144,四川湖山电器有限责任公司,5.11E+14,电气机械和器材制造业,绵阳市游仙经济试验区中经路36号,电子音响设备、整机装饰件的制造、加工、销售和安装，文娱用品、文化办公机械、电工器件、家用电器、影视设备、电子元器件、仪器仪表、电子计算机、灯光器材销售、维修、安装和咨询服务（该项目涉及行政许可的，需取得许可后方可经营）。经营本企业自产产品及技术的出口业务，经营本企业生产所需的原辅材料、仪器仪表、机械设备零配件及技术的进口业务（国家限定公司经营和禁止进出口的商品及技术除外），经营进料加工和“三来一补”业务，投影设备的研发、制造、加工、销售、安装和维修；电子与智能化工程施工；广播电视设备生产、销售；互联网信息服务；计算机软硬件及网络技术、电子信息及信息处理技术、系统集成、通信技术的开发、转让、咨询服务；网络、通信工程施工。(以上经营范围中依法须经相关部门批准的，凭其批准文件经营),0816-2336622,hsbgs@china-hushan.com,9000,存续,四川省绵阳市游仙区工商行政管理局,廖建明,1.47E+12,1.15E+12,1.79E+12,1.48E+12,有限责任公司（自然人投资或控股的法人独资）,sc,,,,0,1,0,8,23,1,1,1,3,3,0,185,3,0,8,"四川九洲电器集团有限责任公司,","廖建明,","执行董事 ,"
222172213,104.705519,31.50470126,绵阳富林岚科技有限责任公司,5.11E+14,计算机、通信和其他电子设备制造业,绵阳市涪城区绵绢路9号,企业依法自主选择经营项目，开展经营活动；依法须经批准的项目，经相关部门批准后方可开展经营活动。,0816-2532557,Follna@163.com,500,存续,四川省绵阳市涪城区工商行政管理局,李军,1.47E+12,1.23E+12,3.25E+13,1.48E+12,有限责任公司(自然人投资或控股),sc,,,,0,0,0,0,0,2,19,2,6,3,0,31,0,0,0,"李军,袁红,","李军,袁红,","执行董事 ,监事 ,"
240850001,102.8991597,30.36748094,四川久安芯电子科技有限公司,5.11E+14,计算机、通信和其他电子设备制造业,绵阳市绵山路64号(科学城环通电器总公司M01大楼）,研发、生产、销售电子雷管延期模块及专用控制系统，技术服务；软件开发；电子元件及组件生产；机电产品加工与装配；灌封工艺及加工；工业自动化控制系统生产与销售；机电引信及其部件组件、专用芯片及测试系统的设计、生产与销售。,2490663,office@scjax.cn,1500,存续,四川省科学城工商行政管理局,高欣,1.44E+12,1.28E+12,1.91E+12,1.48E+12,其他有限责任公司,sc,,,,0,0,0,0,0,5,10,6,5,3,0,15,0,0,5,"赵先锋,张永刚,雅化集团绵阳实业有限公司,四川省科学城环通电器总公司,中科芯集成电路股份有限公司,","高欣,杨黎明,李学平,赵先锋,青敏,张正璠,","董事长 ,董事 ,董事 ,董事 ,监事 ,董事 ,"
243744983,104.705519,31.50470126,绵阳宁瑞电子有限公司,5.11E+14,计算机、通信和其他电子设备制造业,四川省梓潼县经技开发区成都路,磁性元件的加工、组装及组件的制造、销售，塑胶制品、五金配件的生产及销售（以上经营范围不含前置许可项目，依法需经相关部门批准的，凭其批准文件经营），货物进出口、技术进出口（国家限定公司经营或禁止进出口的商品或技术除外）。,0816-8322916,,6000,存续,四川省绵阳市梓潼县工商行政管理局,王强,1.47E+12,1.35E+12,1.66E+12,1.48E+12,有限责任公司(自然人投资或控股),sc,,,,0,1,0,0,0,3,3,2,3,3,0,13,0,0,1,"王强,邓秀兰,绵阳高新区经纬达科技有限公司,","王强,邓秀兰,","执行董事兼总经理 ,监事 ,"
248595741,104.575037,31.458219,四川田奥环保科技有限公司,5.11E+14,研究和试验发展,绵阳高新区河北-平武工业园,环保专用设备、汽车零部件、汽车电子技术开发及产品制造、销售，货物、技术进出口。（法律、法规禁止项目除外，限制项目凭许可证经营）。,2532316,,1000,存续,四川省绵阳市平武县工商行政管理局,王翔卫,1.45E+12,1.36E+12,3.25E+13,1.48E+12,有限责任公司(自然人投资或控股),sc,,,,0,2,0,0,0,4,0,2,4,3,0,8,0,0,1,"杨姝,胡长青,叶泽容,孙先琼,","孙先琼,王翔卫,","监事 ,执行董事 ,"
251038491,104.7292,31.763943,四川聚能核技术工程有限公司,5.11E+14,仪器仪表制造业,江油市德胜南路87号,"民用核技术（氢应用中的安全技术、裂变反应堆氚安全技术、聚变反应堆氘氚燃料循环技术）开发及相关产品生产、经营，光机电一体化（印制电路专用设备）产品的研发和生产、销售,高性能陶瓷产品研制，新材料研究及相关产品生产销售，信息系统、技防系统开发及服务，核技术工程的技术咨询及服务，高科技成果转化服务与企业孵化服务，机电设备安装工程，电子工程，消防设施工程，核工程专业承包（取得资质后方可从事经营），工业CT（无损检测设备）、机电一体化设备的研发、生产、销售及相关技术服务，建筑工程施工总承包。（依法须经批准的项目，经相关部门批准后方可开展经营活动）",0816-3322211,hr@scjuly.com,1500,存续,四川省绵阳市江油市工商行政管理局,高鸿伟,1.43E+12,1.32E+12,3.25E+13,1.48E+12,有限责任公司（非自然人投资或控股的法人独资）,sc,,,,0,4,0,0,1,1,1,12,8,3,0,76,0,0,6,"中国工程物理研究院材料研究所,","郭芳,丁平,高鸿伟,杨世忠,孙钊,向飞,白彬,王东文,佘瑞峰,杨江荣,罗学建,梅国,","监事 ,董事 ,董事长 ,监事 ,董事 ,监事 ,副董事长 ,董事 ,董事兼总经理 ,董事 ,监事 ,监事 ,"
251592599,104.705519,31.50470126,绵阳九天磁材有限公司,5.11E+14,计算机、通信和其他电子设备制造业,绵阳高新区滨河北路西段268号2栋,磁性材料、磁性材料元器件的研发、生产、销售、售后服务及进出口业务（国家禁止项目除外，限制项目凭许可证经营）。,0816-2555133,376797836@qq.com,2000,存续,四川省绵阳市工商局高新分局,赵七一,1.46E+12,1.34E+12,1.97E+12,1.48E+12,其他有限责任公司,sc,,,,0,0,0,0,0,3,0,10,2,3,0,8,0,0,0,"天通控股股份有限公司,海宁市盈通工贸有限公司,西南应用磁学研究所（中国电子科技集团公司第九研究所）,","陈雪梅,罗志,陈文波,赵淳,周锡明,许丽秀,赵七一,张瑞标,顾祖兴,晓镔,","监事 ,监事 ,董事 ,董事 ,董事 ,监事 ,董事长 ,董事 ,董事 ,董事 ,"
253103765,102.8991597,30.36748094,四川天塬增材制造材料有限公司,5.11E+14,黑色金属冶炼和压延加工业,绵阳市高新区绵兴东路167号,企业依法自主选择经营项目，开展经营活动；依法须经批准的项目，经相关部门批准后依批准的内容开展经营活动。,2718637,hyl0310@sina.com,2000,存续,四川省绵阳市工商局高新分局,林素中,1.47E+12,1.42E+12,2.05E+12,1.48E+12,有限责任公司(自然人投资或控股),sc,,,,0,0,0,0,0,2,0,2,1,2,0,3,0,0,0,"唐燕,林素中,","唐燕,林素中,","监事 ,执行董事兼总经理 ,"
257039925,104.680408,31.477072,四川三阳永年增材制造技术有限公司,5.11E+14,专用设备制造业,绵阳高新区绵兴东路167号,企业依法自主选择经营项目，开展经营活动；依法须经批准的项目，经相关部门批准后依批准的内容开展经营活动。,2209288,1406409182@qq.com,4000,存续,四川省绵阳市工商局高新分局,顾德阳,1.47E+12,1.39E+12,,1.48E+12,有限责任公司（非自然人投资或控股的法人独资）,sc,,,,0,0,0,0,1,1,0,2,5,3,0,4,0,0,0,"绵阳高新区三阳塑胶有限责任公司,","林素中,顾德阳,","监事 ,董事长兼总经理 ,"
271279824,102.8991597,30.36748094,四川唯新电子科技有限公司,5.11E+14,科技推广和应用服务业,绵阳科创区西南科技大学国家大学科技园,计算机系统设计、电脑图文设计、网页设计、计算机系统集成、网络设备安装于维护、计算机技术服务、智能网络控制系统设备的设计及安装、网络系统工程设计与安装、软件及硬件测试、安全防范设备的安装与维护，计算机产品、网络产品、计算机数码产品销售、电脑及配件销售、办公耗材销售。,13548447006,22741356@qq.com,500,存续,四川省绵阳市工商行政管理局,张廷蓉,1.45E+12,1.41E+12,2.05E+12,1.48E+12,有限责任公司(自然人投资或控股),sc,,,,0,1,0,0,4,2,0,3,6,2,0,0,0,0,1,"张红英,张廷蓉,","王玉林,张红英,张廷蓉,","经理 ,监事 ,执行董事 ,"
276804793,104.9470142,31.2534435,雅化集团三台化工有限公司,5.11E+14,化学原料和化学制品制造业,四川省三台县刘营镇安宁场镇,制造、销售：工业炸药。销售：化工产品；爆破工程设计、施工、咨询服务；土石工程爆破（涉及行政许可其他项目凭证经营）；非营业性危险货物运输（1类1项，1类5项，5类1项）；炸药现场混装服务；机器设备研发及销售；应用软件开发及销售；从事与本企业生产经营相关的对外贸易（涉及行政许可事项的，凭许可证在有效期内经营）。（依法须经批准的项目，经相关部门批准后方可开展经营活动 ）,0816-5621060,1999machangyuan@163.com,4100,存续,四川省绵阳市三台县工商行政管理局,谭勇,1.46E+12,1.04E+12,1.75E+12,1.48E+12,有限责任公司(自然人投资或控股),sc,,,,0,1,0,0,0,1,0,4,3,3,0,44,0,0,0,"雅化集团公司,","胡强,杨庆,李学平,谭勇,","监事 ,董事 ,董事长 ,董事兼总经理 ,"
278943883,104.781929,31.503457,四川瑞永双机电科技有限公司,5.11E+14,仪器仪表制造业,绵阳市游仙区游仙东路55号芙蓉金城一期9栋4单元2层2号,机械、电子、电气、机电一体化产品的研发、生产、销售及技术服务；光学产品设计与制造；实验室设备及其配件、环保设备及环保材料的销售。（以上经营范围不含前置许可项目，依法需经相关部门批准的，凭其批准文件经营）,18160132182,,100,存续,四川省绵阳市游仙区工商行政管理局,高峻彬,1.44E+12,1.39E+12,2.03E+12,1.47E+12,有限责任公司(自然人投资或控股),sc,,,,0,0,0,0,0,2,0,2,3,2,0,0,0,0,0,"高培义,高峻彬,","高培义,高峻彬,","监事 ,执行董事 ,"
281158196,104.7497293,31.42251236,绵阳历泰机械制造有限公司,5.11E+14,汽车制造业,绵阳市涪城区石塘商贸物流城,机械加工，模具制造，金属包装、塑料制品加工、销售，汽车、摩托车零部件制造、销售。,0816-2380658,3043538838@qq.com,300,存续,四川省绵阳市涪城区工商行政管理局,赵富春,1.46E+12,1.10E+12,2.68E+12,1.48E+12,有限责任公司(自然人投资或控股),sc,,,,0,0,0,0,0,2,5,2,0,3,0,19,0,0,2,"赵富春,赵富华,","赵富春,赵富华,","执行董事 ,监事 ,"
286765241,102.8991597,30.36748094,四川卓众科技有限公司,5.11E+14,研究和试验发展,绵阳科创区灵创孵化器北京楼103号,企业依法自主选择经营项目，开展经营活动；依法须经批准的项目，经相关部门批准后依批准的内容开展经营活动。,0816-6869260,sczomax@sczomax.com,841.9285,存续,四川省绵阳市工商行政管理局,罗亦鸣,1.47E+12,1.40E+12,2.34E+12,1.48E+12,有限责任公司(自然人投资或控股),sc,,,,0,0,0,0,2,11,0,2,12,2,0,14,0,0,0,"刘鹏,刘亚飞,米发财,曹丁象,路小龙,乐俊吉,张保平,梁建,杜林,罗亦鸣,上海淳璞投资管理中心（有限合伙）,","刘亚飞,罗亦鸣,","监事 ,执行董事兼总经理 ,"
289312157,104.8050023,31.40971939,华核电气股份有限公司,5.11E+14,电气机械和器材制造业,绵阳河北-平武工业园,40.5KV及以下高低压成套开关设备、控制设备及消防集中应急电源的设计、开发、生产、销售、安装，电器元件、电器产品的销售。(以上经营范围，需许可、备案的取得许可、备案后经营，需资质的凭资质经营）,0816-2394290,sichuanhuahe@126.com,8090,存续,四川省绵阳市工商行政管理局,韩文兵,1.47E+12,1.11E+12,1.90E+12,1.48E+12,股份有限公司(非上市、自然人投资或控股),sc,,,,0,0,0,0,0,8,7,10,7,3,0,11,0,0,1,"杨丽华,郭吉庆,韩文照,翁建,赵正华,杨开勇,韩文兵,韩文强,","张杰,杨丽华,陈果,杨开勇,翁建,郭吉庆,韩文强,何洪清,韩文兵,韩文照,","监事 ,董事 ,监事 ,监事 ,监事 ,董事 ,监事 ,董事 ,董事长 ,董事 ,"
289706505,104.67406,31.507532,四川华拓光通信股份有限公司,5.11E+14,科技推广和应用服务业,绵阳市涪城区金家林总部经济试验区,光纤通信技术、光纤通信产品的技术开发、生产、销售，通信产品及技术的进出口（法律、法规禁止和限制的除外），科技产业、信息产业投资及相关咨询服务（法律法规需审批的除外）。,0816-5019901,,2670,存续,四川省绵阳市工商行政管理局,范巍,1.46E+12,1.29E+12,3.25E+13,1.48E+12,其他股份有限公司(非上市),sc,,,,1,0,0,0,0,8,4,10,1,3,0,36,3,0,0,"范巍,刘慧,魏子秦,殷瑞麟,何丽萍,周超超,张炜哲,深圳华拓旺科技有限公司,","陈海勇,范勇,范巍,郝锐,金圣,董轲,粟立,魏子秦,张炜哲,张廷顺,","董事 ,董事 ,董事长 ,监事 ,监事 ,董事 ,董事 ,董事 ,监事 ,董事 ,"
293288803,104.705519,31.50470126,绵阳北星通信科技有限公司,5.11E+14,电信、广播电视和卫星传输服务,绵阳科创区创业服务中心所属灵创孵化器北京楼415-416号,电子设备的销售，卫星导航设备、通讯设备（不含大功率无线电发射装置及卫星地面接收设施）、微波设备的研发、生产、销售。以上经营范围不含国家法律、法规、国务院决定需前置审批或许可的项目。,0816-2330757,scbxkj@qq.com,100,存续,四川省绵阳市工商行政管理局,文丽,1.40E+12,1.40E+12,3.25E+13,1.48E+12,有限责任公司(自然人独资),sc,,,,0,0,0,0,0,1,0,2,0,2,0,3,0,0,0,"文丽,","文丽,王天芬d/td>,","执行董事 ,监事 ,"
293302842,104.705519,31.50470126,绵阳北星电子科技有限责任公司,5.11E+14,电信、广播电视和卫星传输服务,绵阳市涪城区青义镇科大路405号科大花园北区9-1-6-3,电子设备、通讯设备、微波设备、无线设备的研制、生产、销售及相关业务的咨询服务；安防设备的销售、安装及售后服务。(以上经营范围，需许可、备案的取得许可、备案后经营，需资质的凭资质经营)***,0816-2330757,scbxkj@qq.com,300,存续,四川省绵阳市涪城区工商行政管理局,王天芬,1.43E+12,1.38E+12,2.95E+12,1.48E+12,有限责任公司(自然人投资或控股),sc,,,,0,0,0,0,0,2,0,3,1,3,0,0,0,0,0,"文丽,王天芬,","文丽,郑柳,王天芬,","监事 ,监事 ,执行董事 ,"
298682377,104.7044726,31.46943603,四川零点自动化系统有限公司,5.11E+14,仪器仪表制造业,绵阳高新区普明南路东段95号,自动化控制设备、仪器仪表、电气传动、计算机软件、电子电器、通讯设备（不含大功率无线电）及成套设备的研发、制造、系统集成、销售、维修、咨询、技术转让、技术服务及进出口业务；机电工程、网络工程的设计、承包。（法律、法规禁止项目除外，限制项目凭许可证经营）。,0816-2530577,info@odot.com.cn,615.7894,存续,四川省绵阳市工商局高新分局,王永贵,1.46E+12,1.07E+12,3.25E+13,1.48E+12,有限责任公司(自然人投资或控股),sc,,,,0,1,0,0,5,6,6,2,6,3,0,9,2,0,4,"王永贵,袁莉,刘鹏,刘亚飞,张清安,上海淳璞投资管理中心（有限合伙）,","王永贵,万学兵,","执行董事 ,监事 ,"
300247258,102.8991597,30.36748094,四川凯拓电器有限公司,5.11E+14,电气机械和器材制造业,绵阳市涪城区金家林总部经济试验区2号路西侧,LED照明产品、高低压电气成套设备与电气自动化设备研发、制造、安装与调试；机械钣金加工；金属表面处理；教学实训仪器的生产、销售和服务。(以上经营范围：国家禁止的不得经营；涉及专项许可事项的，必须取得专项许可后在许可范围和时效内经营)***,13708117208,mylb9090@126.com,300,存续,四川省绵阳市涪城区工商行政管理局,梁斌,1.46E+12,1.31E+12,1.94E+12,1.47E+12,有限责任公司(自然人投资或控股),sc,,,,0,0,0,0,0,1,0,2,0,3,0,0,0,0,1,"?,","梁斌,杜正强,","执行董事 ,监事 ,"
310995746,105.0969215,31.1008806,绵阳恒昌制衣有限公司,5.11E+14,纺织业,绵阳市三台县刘营镇长兴街,服装设计、生产及销售。,0816-8281111,,3570,存续,四川省绵阳市工商行政管理局,卢克凡,1.46E+12,1.09E+12,1.72E+12,1.48E+12,有限责任公司(台港澳合资),sc,,,,0,1,0,0,0,2,0,3,2,3,0,0,2,0,6,"香港三昌国际投资有限公司,香港怡昌集团有限公司,","卢克凡,冯瑞琛,冯瑞仪,","董事长兼总经理 ,董事 ,副总经理 ,"
312009939,105.1003261,31.08073142,绵阳佳禧印染有限责任公司,5.11E+14,纺织业,四川省绵阳市三台县潼川镇南寺坝,纺织品、面料印染，服装、床上用品的生产、销售；来料加工、出口本企业生产产品；本企业所需机械设备、零配件、原辅材料、技术的进口业务。（依法须经批准的项目，经相关部门批准后方可开展经营活动 ）,0816-5224659,myyrbgs@163.com,600,存续,四川省绵阳市三台县工商行政管理局,胡志强,1.47E+12,1.17E+12,2.75E+12,1.48E+12,有限责任公司（自然人投资或控股的法人独资）,sc,,,,0,0,0,0,0,1,6,2,4,3,0,6,0,0,0,"绵阳佳联印染有限责任公司,","何海燕,胡志强,","监事 ,执行董事 ,"
312011495,105.1000662,31.08962364,绵阳佳联印染有限责任公司,5.11E+14,纺织业,四川省绵阳市三台县潼川镇南寺坝工业集中区,纺织品印染及来料加工，印花布、精漂布、染色布、服装、床上用品生产销售。印染机械设备零配件、仪器、仪表及配件销售。经营本企业自产产品及技术的出口业务和本企业所需的机械设备、零配件、原辅材料及技术的进口业务（但国家限定公司经营或禁止进出口的商品及技术除外）。投资管理（不含金融、证券、保险及融资性担保等需前置审批的业务）。（依法须经批准的项目，经相关部门批准后方可开展经营活动）。,0816-5224659,myyrbgs@163.com,1000,存续,四川省绵阳市三台县工商行政管理局,胡志强,1.47E+12,1.05E+12,2.63E+12,1.48E+12,有限责任公司(自然人投资或控股),sc,,,,0,1,0,0,0,8,31,4,2,3,0,38,3,0,7,"何海燕,石岷山,石艾琪,胡潇,周柯帆,叶景阳,黄伟琼,胡志强,","何海燕,胡志强,黄伟琼,石岷山,","董事 ,董事长 ,监事 ,董事 ,"
314284469,104.7479192,31.47932667,四川华丰企业集团有限公司,5.11E+14,计算机、通信和其他电子设备制造业,绵阳市跃进路36号,电子连接器、汽车摩托车零部件、电机及电动车、微型计算机及附件、工模具的制造、销售，汽车运输，科技咨询服务，经营本企业自产产品及相关技术的出口业务和本企业生产、科研所需的原辅材料、仪器、仪表、机电设备、零部件及相关技术的进口业务，以及本企业的进料加工和三来一补业务，黄金、白银、钯金的回收及销售。(依法须经批准的项目，经相关部门批准后方可开展经营活动)***,2330304,leilei@huafeng796.com,35908.19,存续,四川省绵阳市涪城区工商行政管理局,陈炼,1.46E+12,7.85E+11,1.73E+12,1.48E+12,其他有限责任公司,sc,,,,1,3,0,0,0,3,6,6,6,3,0,185,1,0,1,"四川长虹创新投资有限公司,四川长虹电子控股集团有限公司,四川电子军工集团有限公司,","黄红,陈炼,吴学锋,刘太国,胡超群,康太虹,","监事 监事 ,董事长 董事长 ,副董事长 副董事长 ,董事 董事 ,董事 董事 ,董事 董事 ,"
318455447,104.705519,31.50470126,绵阳市京果电子科技有限公司,5.11E+14,计算机、通信和其他电子设备制造业,绵阳科创园区西南科技大学大学科技园内,电子元器件、微带厚膜、薄膜、电路芯片、低温共烧陶瓷电路芯片的研发、生产、销售，机电产品、建材、劳保用品、五金机电设备及配件销售，激光技术研究开发、转让及服务。,18681658298,myemail@sina.com,500,存续,四川省绵阳市工商行政管理局,陈美华,1.46E+12,1.33E+12,3.25E+13,1.48E+12,其他有限责任公司,sc,,,,0,0,0,0,0,2,0,2,6,3,0,0,0,0,0,"项仁洁,四川田奥环保科技有限公司,","陈美华,项仁洁,","执行董事兼总经理 执行董事兼总经理 ,监事 监事 ,"
320239496,102.8991597,30.36748094,四川九强通信科技有限公司,5.11E+14,电信、广播电视和卫星传输服务,绵阳市涪城区绵安路35号（科技城软件产业园）,通信设备产品、终端产品的研发、生产、销售，软件平台的开发、生产、销售及运营，通信产品软、硬件设备系统的设计、集成、销售、施工，计算机及其他通信产品的销售。(依法须经批准的项目，经相关部门批准后方可开展经营活动)***,0816-2899336,,6777.78,存续,四川省绵阳市涪城区工商行政管理局,李文晗,1.45E+12,1.35E+12,1.99E+12,1.48E+12,其他有限责任公司,sc,,,,0,1,0,0,0,2,0,8,9,3,0,0,0,0,0,"四川发展（控股）有限责任公司,四川九洲电器集团有限责任公司,","王强,赵海星,任敏,孙仲,唐洪,钱堃,谭少成,李文晗,","董事 董事 ,董事 董事 ,监事 监事 ,董事 董事 ,监事 监事 ,董事 董事 ,监事 监事 ,董事长 董事长 ,"
321233269,102.8991597,30.36748094,四川久润环保科技有限公司,5.11E+14,生态保护和环境治理业,绵阳高新区火炬西街南段23号,水处理工程设计、安装、运营管理及咨询；液体分离膜技术开发、产品及设备制造和销售；新材料和资源循环利用的技术研发、生产和销售、环保工程和设施的运营管理、机电设备安装、环保设备和机电设备的销售、技术服务、钢结构工程（取得许可后方可经营）、工程设计（取得许可后方可经营）、工程咨询（取得许可后方可经营）、环境评估（取得许可后方可经营）、工程监理（取得许可后方可经营）。（涉及行政许可事项的，需取得相关许可证后方可经营）。,0816-2492404,jiurunkeji@163.com,10000,存续,四川省绵阳市工商局高新分局,苗伟,1.47E+12,1.24E+12,3.25E+13,1.48E+12,其他有限责任公司,sc,,,,0,0,0,0,0,17,2,8,13,3,0,13,0,0,1,"张万明,赵东平,田满红,黄卫东,杨俊永,张洁,刘岩,李大海,罗明仁,于秀英,杨华,孟维军,薛青积,凌蓉,汪英海,四川长兴实业（集团）有限公司,四川省科学城中心科技有限公司,","李大海,李洪,黄卫东,杜伟,苗伟,罗明仁,宋宝增,田满红,","董事 ,监事 ,董事 ,经理 ,董事长 ,董事 ,董事 ,监事 ,"
321233989,104.7481915,31.51773607,四川省科学城中心科技有限公司,5.11E+14,生态保护和环境治理业,绵阳市绵山路64号,环保工程施工；环境工程（水污染防治工程）设计和相应的建设工程总承包业务以及项目管理和相关的技术与管理服务；环保设备研发、生产、成套及销售。,18780525566,,1150,存续,四川省科学城工商行政管理局,李晓记,1.47E+12,1.18E+12,1.49E+12,1.48E+12,有限责任公司（非自然人投资或控股的法人独资）,sc,,,,0,1,0,0,0,1,0,8,6,3,0,13,0,0,0,"四川省水处理及资源化工程技术研究中心,","田志强,王晓川,李洪,蒋文举,林学海,徐庆元,郝敏宏,李晓记,","董事 ,董事 ,董事 ,监事 ,监事 ,董事 ,监事 ,董事长 ,"
321239634,102.8991597,30.36748094,四川省水处理及资源化工程技术研究中心,,,,,,,,,,,,,,,,,,,,0,3,0,0,0,0,0,0,0,0,0,6,0,0,0,,,
322171005,104.9331493,31.95242667,江油市丰威新材料有限责任公司,5.11E+14,批发业,江油市武都镇公平村,新材料的研发、销售，冷轧硅钢片生产、销售，成套冶金工程设备设计，金属材料的设计、加工、销售。（依法须经批准的项目，经相关部门批准后方可开展经营活动）,0816-3887788,fengweigroup@126.com,1000,存续,四川省绵阳市江油市工商行政管理局,周栋承,1.46E+12,1.20E+12,2.14E+12,1.48E+12,有限责任公司(自然人投资或控股),sc,,,,0,0,0,0,0,3,0,2,0,3,0,8,4,0,0,"李运彪,周栋承,江山,","周栋承,李运彪,","执行董事兼总经理 ,监事 ,"
329144061,104.5997499,31.46682286,际华三五三六职业装有限公司,5.11E+14,批发业,绵阳高新区磨家工业园,"服装、鞋、帽、棉被褥类、帐篷、背囊、口罩、床上用品、针纺织品、毛衣类、手套类、被装、棉胎、絮片、硬质棉、棉纱、特种劳动防护用品研发、设计、制造（生产）、加工、销售,日用百货、包装材料销售、货物进出口、技术进出口（法律、法规禁止项目除外，限制项目凭许可证经营）,仓储,房屋租赁,有色金属（稀贵金属除外）、金属材料、建筑材料、化工原料及产品（危化品除外）、通讯器材（卫星电视地面接收设施、大功率发射器除外）,矿产品、汽车配件、机电设备、仪器仪表,办公用品、橡胶制品销售。",0816-2537271,3536jmb@163.com,15523,存续,四川省绵阳市工商局高新分局,陈兰玲,1.46E+12,7.66E+11,2.75E+12,1.48E+12,有限责任公司（自然人投资或控股的法人独资）,sc,,,,0,0,0,4,0,1,2,7,2,3,0,80,2,0,15,"际华集团股份有限公司,","杨志刚,李传伟,陈兰玲,孙树东,张高鹏,黎仁华,文正理,","董事 ,董事长 ,总经理 ,监事 ,董事 ,董事 ,董事 ,"
330210101,104.705519,31.50470126,绵阳市金华洋电器制造有限公司,5.11E+14,电气机械和器材制造业,绵阳市经开区塘汛镇三元社区五组（群文西街70号）,电子元器件的生产、销售，电器零部件及整机的生产、销售。（依法须经批准的项目，经相关部门批准后方可开展经营活动）***,0816-6390883,1061307057@QQ.COM,530,存续,四川省绵阳市工商行政管理局,王斌,1.46E+12,9.84E+11,1.78E+12,1.48E+12,有限责任公司(自然人投资或控股),sc,,,,0,0,0,0,0,6,2,5,4,3,0,14,0,0,4,"谌怡汐,何文鼎,伍礼婷,杨太元,王斌,杨兰,","王斌,李宣,谌怡汐,何文鼎,伍礼婷,","董事长 ,副董事长 ,董事 ,董事 ,监事 ,"
331712216,104.7094361,31.499056,四川融圆聚能科技有限责任公司,5.11E+14,科技推广和应用服务业,绵阳市绵山路64号（绵阳市科创园区园艺街二十号孵化大楼B507）,科学仪器、光电子器件和设备、光学元器件、先进材料、新能源产品及系统、自动化产品及系统、大型科学工程的咨询、设计、制造、集成、销售、维护、维修、技术培训、技术改造、相关检测服务；知识产权经营和高新技术项目孵化；现代办公设备、消耗材料、电子产品、仪器仪表、电器设备、机电产品、医疗设备配件的销售、服务。（以上项目不含国家许可项目）,0816-2485252,,760,存续,四川省科学城工商行政管理局,唐永建,1.42E+12,1.31E+12,3.25E+13,1.48E+12,有限责任公司（非自然人投资或控股的法人独资）,sc,,,,0,4,0,0,0,1,0,3,2,3,0,0,0,0,0,"中国工程物理研究院激光聚变研究中心,","王燕,唐晓东,唐永建,","监事 ,总经理 ,执行董事 ,"
331712903,104.764867,31.517945,中国工程物理研究院激光聚变研究中心,,,,,,,,,,,,,,,,,,,,0,1,0,0,3,0,0,0,0,0,0,674,0,0,0,,,
332698438,104.705519,31.50470126,绵阳菲纳理科技有限责任公司,5.11E+14,仪器仪表制造业,绵阳市泗王庙巷28号B栋313-314号,量热分析仪表、石油探测设备、电子测量与自动控制、射频电子产品研制、生产、销售。,13608119239,,500,存续,四川省绵阳市涪城区工商行政管理局,张国良,1.40E+12,1.25E+12,2.83E+12,1.48E+12,有限责任公司(自然人投资或控股),sc,,,,0,0,0,0,0,3,0,2,0,3,0,0,0,0,0,"赵细文,张小隆,张国良,","张国良,张小隆,","执行董事 ,监事 ,"
333474658,102.8991597,30.36748094,四川神光石英科技有限公司,5.11E+14,批发业,江油工业园区创元路南段科技孵化园,石英玻璃、光学玻璃、镀膜玻璃、特种玻璃的技术研发及技术咨询服务；石英玻璃、光学玻璃、镀膜玻璃、特种玻璃、玻璃生产设备的销售及进出口，但国家限定公司经营及禁止进出口的商品除外；通用仪器仪表的研发、生产、销售；电子产品的销售。（以上经营范围国家限制或禁止经营的除外，需经有关部门批准的，必须取得相关批准后，按照批准的事项开展生产经营活动）。,0816-2497294,346669550@qq.com,4000,存续,四川省绵阳市江油市工商行政管理局,尹英遂,1.47E+12,1.35E+12,3.25E+13,1.48E+12,其他有限责任公司,sc,,,,0,1,0,0,0,4,0,8,8,3,0,7,0,0,4,"蒋立新,张国武,四川久远投资控股集团有限公司,四川融圆聚能科技有限责任公司,","张静,戴亚平,唐晓东,张国武,蒋立新,董琳琳,靳建立,尹英遂,","董事 ,董事 ,监事 ,监事 ,董事兼总经理 ,监事 ,董事 ,董事长 ,"
334728305,102.8991597,30.36748094,四川自胜机电设备有限责任公司,5.11E+14,专用设备制造业,安县工业园（界牌镇永丰村6组）,机电设备制造、安装；模具、量具设计、制造；机械工程设计、制造、安装；汽车、摩托车零部件开发、生产、销售；节能环保产品的研发、生产；工程塑料加工、销售。,0816-7132999,sc_zsjd@163.com,1000,存续,四川省绵阳市安县工商行政管理局,李晓川,1.45E+12,1.33E+12,3.25E+13,1.48E+12,有限责任公司(自然人投资或控股),sc,,,,0,0,0,0,0,2,0,2,1,3,0,9,0,0,3,"李晓东,李晓川,","李晓东,李晓川,","监事 ,执行董事 ,"
335806228,104.705519,31.50470126,绵阳西磁磁电有限公司,5.11E+14,计算机、通信和其他电子设备制造业,绵阳高新区滨河北路西段268号,稀土销售，磁、电、机械及其综合装置、电子及电力电子控制装置、成套专用设备制造，系统集成，磁性材料与器件、电子材料与器件、磁性保健产品、机械电子产品、稀土永磁电机的研究、开发、生产、销售与技术服务，货物、技术进出口（依法须经批准的项目，经相关部门批准后方可开展经营活动）。,0816-2554306,xccd_7@126.com,2453,存续,四川省绵阳市工商局高新分局,陈浩,1.46E+12,1.01E+12,3.25E+13,1.48E+12,其他有限责任公司,sc,,,,0,0,0,0,0,3,1,5,5,3,0,8,1,0,1,"赵导文,绵阳西磁科技有限公司,深圳市鑫高益磁材有限公司,","陈浩,赵淳,金秀刚,赵导文,罗旗,","董事长 ,董事 ,董事兼总经理 ,董事 ,监事 ,"
335851784,104.705519,31.50470126,绵阳西磁磁业有限公司,5.11E+14,计算机、通信和其他电子设备制造业,绵阳高新区火炬西街北段81号,"磁性材料与器件、电子材料与器件、机械电子产品、永磁电机及零部件的研究、开发、生产、销售及技术服务,货物、技术进出口（法律、法规禁止项目除外，限制项目凭许可证经营）。",0816-2546108,heyongxing@westem-magnet.com,183.3,存续,四川省绵阳市工商局高新分局,周永川,1.46E+12,1.02E+12,1.66E+12,1.47E+12,其他有限责任公司,sc,,,,0,0,0,0,0,29,0,2,1,3,0,0,0,0,0,"田小林,何昌友,唐先全,刘明生,易冬梅,王慎川,帖晓宁,陈果,何遵强,黄维斌,柏林,谢文秀,刘伟军,王军,何军,肖军,曾德群,徐岳弘,邓小波,吴玲,李平,李长春,邱春俊,李方平,何永兴,张云鸿,李浩,沈安国,绵阳西磁科技有限公司,","王敬东,周永川,","监事 ,执行董事 ,"
335976763,104.7819129,31.51586959,绵阳万众汽配有限责任公司,5.11E+14,汽车制造业,绵阳市游仙西路59号,汽车用空气滤清器及其它汽车零部件的开发、生产、销售。（依法须经批准的项目，经相关部门批准后方可开展经营活动）,0816-6283125,wanzhongqp@126.com,290.96,存续,四川省绵阳市游仙区工商行政管理局,黄朝永,1.46E+12,1.01E+12,1.64E+12,1.47E+12,其他有限责任公司,sc,,,,0,0,0,0,0,38,0,1,0,3,0,1,0,0,0,"韩淑琴,王莉,赵滨生,李智,龚淑秀,王敏,辜晓斌,帅勇,杨运忠,杨涛,黄敏,周佑勇,贾秀红,孙元清,雷建蓉,张树生,曾兵,康涛,蒲玉玲,陈富芳,杨荣生,阴建龙,何荣伟,廖世建,石其明,罗勇,胥勇,卓桂林,李晓华,陈宜殊,黄烈荣,王波,宋萍,李秀蓉,江彬,杨德菊,钟林琼,四川建安工业有限责任公司（5131001800119）,","黄朝永,","董事长 ,"
342941762,104.705519,31.50470126,绵阳市康特斯电子有限公司,5.11E+14,计算机、通信和其他电子设备制造业,绵阳科创园区,"集成电路、电子元器件、电子产品及五金交电产品的设计、研发、生产、加工、销售及技术咨询服务 、货物进出口业务（国家明令禁止及特种许可的除外）,文体用品、化工用品（不含危险化学品）。",15983692244,,200,存续,四川省绵阳市工商行政管理局,周锐,1.41E+12,1.18E+12,1.82E+12,1.47E+12,有限责任公司(自然人投资或控股),sc,,,,0,0,0,0,0,4,0,3,0,3,0,0,1,0,0,"李文华,周锐,岳艳梅,陈进平,","周锐,陈进平,沙祥虎,","执行董事兼总经理 ,其他人员 ,监事 ,"
356819222,104.705519,31.50470126,绵阳恒持金属设备有限公司,5.11E+14,电气机械和器材制造业,绵阳市游仙区游仙西路70号,环卫器材、公路设施、电器成套设备开发、生产、销售，机柜、箱柜生产、销售，电子产品、五金工具销售，通讯设备的生产、销售。（以上经营范围不含前置许可项目，依法需经相关部门批准的，凭其批准文件经营）,2532536,1874305866@QQ.COM,100,存续,四川省绵阳市游仙区工商行政管理局,黄名清,1.44E+12,1.30E+12,1.93E+12,1.47E+12,有限责任公司(自然人投资或控股),sc,,,,0,0,0,0,0,2,20,3,10,3,0,0,0,0,0,"汪小聪,黄名清,","汪雪琴,黄名清,汪小聪,","监事 ,执行董事 ,经理 ,"
394211412,104.7884669,31.51313826,绵阳市维博电子有限责任公司,5.11E+14,计算机、通信和其他电子设备制造业,绵阳市游仙区游仙东路98号,电工仪器仪表、电子工业专用设备、缝制机械、核子及核辐射测量仪器、工业自动控制系统装置、其他计算机及软件的研发、制造、销售、技术服务及进出口业务。（以上经营范围不含前置许可项目，依法需经相关部门批准的，凭其批准文件经营）,0816-2270570,wbdzzgb@126.com,6386.61,存续,四川省绵阳市游仙区工商行政管理局,刘勇,1.45E+12,9.72E+11,3.25E+13,1.48E+12,有限责任公司(自然人投资或控股),sc,,,,1,0,0,0,26,7,0,16,6,3,0,115,0,0,2,"王伟,阮赐元,段武堂,南方工业资产管理有限责任公司,绵阳久盛科技创业投资有限公司,四川省绵阳西南自动化研究所,绵阳威盛创新创业股权投资基金（有限合伙）,","刘勇,王伟,刘伟,李东,刘润红,周勇,马波,李凤明,王能,吴昊天,项麟,席敏,石航飞,彭正红,阮赐元,王景倩,","董事长 ,监事 ,副总经理 ,董事兼总经理 ,其他人员 ,董事 ,监事 ,董事 ,副总经理 ,董事 ,董事 ,监事 ,副总经理 ,监事 ,董事 ,监事 ,"
398106593,104.705519,31.50470126,绵阳知觉科技股份有限公司,5.11E+14,科技推广和应用服务业,安县创业服务中心,计算机软件设计、开发、销售，工业、矿山、生物、环境检测与控制仪器、设备及系统的研发、制造、销售，技术咨询、服务及合作，货物进出口、技术进出口（法律、法规禁止项目除外，限制项目凭许可证经营）；信息系统集成，数据处理和存储服务，互联网信息服务（取得许可证后方可经营），工程技术研究和试验发展技术咨询服务，游戏厅、网吧（限分公司经营、取得许可证后方可经营），动漫游戏开发、销售。,18148060445,1181592577@qq.com,1000,存续,四川省绵阳市工商行政管理局,刘先勇,1.42E+12,1.11E+12,3.25E+13,1.48E+12,其他股份有限公司(非上市),sc,,,,0,2,0,0,0,13,19,10,12,3,0,0,1,0,14,"夏华,刘先勇,乐莉,余艇,蒋美荣,葛向兵,赵昌健,李谷力,魏长江,李良杰,王永健,周彬,绵阳先觉股权投资管理中心,","周彬,魏长江,刘振旺,王永健,夏华,蒋美荣,赵昌健,刘先勇,乐莉,李谷力,","董事 ,监事 ,监事 ,董事 ,董事 ,董事 ,董事 ,董事长兼总经理 ,董事 ,监事 ,"
398196790,104.726322,31.543253,四川瑞立安光学精密机械有限公司,5.11E+14,仪器仪表制造业,绵阳市游仙区石马机电产业园,光机电系统及产品的设计、研发、制造、销售及技术开发、技术咨询、技术服务、技术转让；光学元件加工，钣金加工，机械加工。（以上经营范围不含前置许可项目，依法需经相关部门批准的，凭其批准文件经营）,0816-2660068,146063982@qq.com,100,存续,四川省绵阳市游仙区工商行政管理局,贾晓川,1.41E+12,1.39E+12,3.25E+13,1.48E+12,其他有限责任公司,sc,,,,0,0,0,0,0,3,7,3,1,2,0,0,0,0,0,"吴学成,贾晓川,宁波海恩光电仪器有限责任公司,","解芳,贾晓川,雷伟国,","监事 ,总经理 ,执行董事 ,"
398897547,104.705519,31.50470126,绵阳思创磁业有限公司,5.11E+14,计算机、通信和其他电子设备制造业,绵阳高新区火炬西街北段81号,"磁性材料与器件、电子材料与器件、机械电子设备、电子产品、计算机设备的开发、生产、销售,货物进出口（国家法律、法规禁止项目除外，限制项目凭许可经营）。",0816-2544539,strongmag@sohu.com,52.7,存续,四川省绵阳市工商局高新分局,赵淳,1.40E+12,1.01E+12,1.64E+12,1.48E+12,有限责任公司（自然人投资或控股的法人独资）,sc,,,,0,0,0,0,0,1,5,4,0,3,0,0,0,0,0,"绵阳西磁科技有限公司,","赵刚,王永强,陈彪,赵淳,","监事 ,董事 ,总经理 ,执行董事 ,"
420015666,104.705519,31.50470126,绵阳天羽航科技有限公司,5.11E+14,科技推广和应用服务业,绵阳市西南科技大学国家大学科技园,航模技术开发、销售及技术服务，航拍技术指导，无人机技术开发。(以上经营范围，需许可、备案的取得许可、备案后经营，需资质的凭资质经营)***,0816-6080663,uav@tyhfly.com,10,存续,四川省绵阳市涪城区工商行政管理局,谢福林,1.46E+12,1.38E+12,2.02E+12,1.48E+12,有限责任公司(自然人投资或控股),sc,,,,0,0,0,0,0,8,0,3,0,3,0,1,0,0,1,"李伯宇,孟春潮,彭秋生,张哲,谢福林,王云桃,刘畅,胡浩,","谢福林,刘畅,彭秋生,","执行董事 ,监事 ,总经理 ,"
488323061,104.705519,31.50470126,绵阳天眼激光科技有限公司,5.11E+14,研究和试验发展,绵阳科创园区创业大道中段237号,激光雷达及相关电子产品研发、生产、销售，工程测量，摄影测量与遥感（丙级），提供测绘技术服务及相关行业软件开发，贸易进出口（以上项目涉及国家禁止项目除外，限制项目凭许可证经营）。,0816-5022288,303781616@qq.com,3756.0976,存续,四川省绵阳市工商行政管理局,刘学涌,1.45E+12,1.28E+12,3.25E+13,1.48E+12,其他有限责任公司,sc,,,,0,1,0,0,8,3,2,12,7,3,0,6,0,0,0,"四川省科学城久利科技实业有限责任公司,中物功能材料研究院有限公司,中国工程物理研究院建筑设计院,","雷蕾,王欣,赵小宁,李红波,唐丹,傅飞,罗雪燕,潘文武,钟庆国,陈门雪,颜佳荣,刘学涌,","监事 ,董事 ,监事 ,董事 ,董事兼总经理 ,董事 ,董事 ,监事 ,董事 ,董事 ,董事 ,董事长 ,"
490892987,104.705519,31.50470126,绵阳德华磁材有限公司,5.11E+14,计算机、通信和其他电子设备制造业,绵阳市游仙区石马镇翠屏村三社（石马工业园）,磁性材料及其元器件的研发、生产和销售及其产品的进出口贸易（国家限制和禁止的除外）。（依法须经批准的项目，经相关部门批准后方可开展经营活动）,13096122573,39980496@qq.com,200,存续,四川省绵阳市游仙区工商行政管理局,钟宣平,1.47E+12,1.12E+12,3.25E+13,1.48E+12,有限责任公司(自然人投资或控股),sc,,,,0,0,0,0,0,2,0,2,6,3,0,3,0,0,0,"钟宣平,魏瑞,","魏瑞,钟宣平,","监事 ,执行董事 ,"
495842666,102.8991597,30.36748094,四川中物裕邦科技有限公司,5.11E+14,科技推广和应用服务业,绵阳市游仙区绵山路64号,安全应急产品、电子信息产品、工业电气设备、新材料的研发、设计、生产、销售及相关技术咨询、技术转让、技术推广服务；计算机系统服务，基础软件服务，应用软件服务。（依法须经批准的项目，经相关部门批准后方可开展经营活动）,2489082,zwybhr@qq.com,500,存续,四川省绵阳市游仙区工商行政管理局,韩红军,1.47E+12,1.37E+12,2.32E+12,1.48E+12,其他有限责任公司,sc,,,,0,0,0,0,0,3,3,8,2,3,0,3,0,0,2,"四川省科学城海天实业有限公司,北京瑞德裕邦科技有限公司,四川中物富威电子科技股份有限公司,","李建,徐萍,梁毅,韩红军,吴寒冬,吴雪琳,姬太涛,杨德仪,","董事 ,监事 ,董事 ,董事长兼总经理 ,董事 ,监事 ,董事 ,监事 ,"
578255662,104.705519,31.50470126,绵阳柏瑞电子有限公司,5.11E+14,计算机、通信和其他电子设备制造业,绵阳市经开区塘汛镇洪恩村（长虹配套产业园105号）,电子零件、电连接器及线束的设计、制造、销售；高密度精密零件、精密模具设计、制造、销售，进出口贸易（限公司经营范围内项目）。(以上经营范围：国家禁止的不得经营；涉及专项许可事项的，必须取得专项许可后在许可范围和时效内经营)***,13035690770,,50,存续,四川省绵阳市工商行政管理局,杨晓晖,1.30E+12,1.09E+12,1.76E+12,1.48E+12,有限责任公司(自然人投资或控股),sc,,,,0,1,0,0,0,2,0,1,0,3,0,0,1,0,0,"杨晓晖,安传凤,","杨晓晖,","执行董事 ,"
595524882,104.705519,31.50470126,绵阳昱丰电子科技有限公司,5.11E+14,计算机、通信和其他电子设备制造业,绵阳市涪城区青义镇宝灯街39号,企业依法自主选择经营项目，开展经营活动；依法须经批准的项目，经相关部门批准后方可开展经营活动。,13018138868,,300,存续,四川省绵阳市涪城区工商行政管理局,董明新,1.47E+12,1.11E+12,1.74E+12,1.48E+12,有限责任公司(自然人投资或控股),sc,,,,0,0,0,0,0,2,0,2,2,3,0,3,0,0,1,"董明新,陈永华,","陈永华,董明新,","监事 ,执行董事 ,"
652991566,104.711838,31.537845,四川西达科技有限公司,5.11E+14,计算机、通信和其他电子设备制造业,绵阳科创园区西南科技大学国家大学科技园,电子产品、电气产品、安防产品、计算机软、硬件的研发、生产、销售及技术服务，自动化工业设备集成和生产。,0816-6080986,823634568@qq.com,100,存续,四川省绵阳市工商行政管理局,聂诗良,1.42E+12,1.34E+12,1.97E+12,1.46E+12,有限责任公司(自然人投资或控股),sc,,,,0,0,0,0,0,5,0,2,0,3,0,2,0,0,0,"聂诗良,何桥,楚红雨,王军栋,姜官武,","何桥,聂诗良,","监事 ,执行董事 ,"
699262605,102.8991597,30.36748094,四川德拉普环保科技有限公司,5.11E+14,研究和试验发展,绵阳科创区创业服务中心所属孵化器D区701号,微生物技术研发，环保工程施工，环保产品研发、销售，环境综合治理，土地改良服务，通信网络技术服务，通信网络工程，机械设备及配件的加工、制造、销售及安装服务。,13060189888,scdelapu@163.com,200,存续,四川省绵阳市工商行政管理局,李宏,1.43E+12,1.40E+12,2.98E+12,1.48E+12,有限责任公司(自然人投资或控股),sc,,,,0,0,0,0,0,2,0,2,4,2,0,8,0,0,1,"李宏,王政,","李宏,王政,","执行董事 ,监事 ,"
727948180,104.7292455,31.49503583,绵阳科创园区精机电子有限公司,5.11E+14,仪器仪表制造业,绵阳科创园区创业服务中心,特种电源、开关电源、泵浦激光器的开发、生产、销售及服务，光电一体化设备的研制、开发、生产、销售，软件开发，激光配套产品、精密机械电子产品的开发、生产与销售和相关技术服务，五金交电、化工产品生产和销售。,0816-2495955,165660661@qq.com,500,存续,四川省绵阳市工商行政管理局,邓玄,1.42E+12,1.05E+12,3.25E+13,1.48E+12,有限责任公司(自然人投资或控股),sc,,,,0,0,0,0,6,3,1,3,5,3,0,3,0,0,1,"邓玄,张芩,邓定友,","张芹,邓定友,邓玄,","监事 ,总经理 ,执行董事 ,"
786463139,104.6808041,31.5048037,四川永贵科技有限公司,5.11E+14,计算机、通信和其他电子设备制造业,绵阳市九洲大道270号,电连接器、线束组件、接线装置及其零部件、机电产品的研发、制造、销售，经营本公司自产产品及技术的出口业务及本公司生产所需的机械设备、零配件、原辅材料及技术进口业务（国家限定公司经营和国家禁止进口的商品及技术除外），机电设备、五金交电、汽车配件、办公用品、计算机及耗材的销售。,0816-2573664,zhangwei@yonggui.com,3000,存续,四川省绵阳市工商行政管理局,范正军,1.47E+12,1.21E+12,1.84E+12,1.48E+12,有限责任公司（自然人投资或控股的法人独资）,sc,,,,0,3,0,0,0,1,5,4,3,3,0,205,0,0,0,"?,","范正军,范纪军,李运明,赵国海,","董事长 董事长 ,董事 董事 ,董事兼总经理 董事兼总经理 ,监事 监事 ,"
788715569,104.9331493,31.95242667,江油市九0三建筑设计有限责任公司,5.11E+14,专业技术服务业,江油市德胜南路87号,"建筑工程设计丙级（凭资质证经营）。销售：装饰装修材料,车辆租赁服务。",18781171818,7546054@qq.com,50,存续,四川省科学城工商行政管理局,范勇,1.45E+12,9.72E+11,1.92E+12,1.48E+12,其他有限责任公司,sc,,,,0,1,0,0,0,15,10,4,6,3,0,0,0,0,0,"郭永谦,任建青,薜琴,韩丽珍,刘炯,蒋弢,王艳,郑群超,周凤梅,李涛,阎树山,魏世亮,王忠,刘永真,四川艺精科技集团有限公司,","张健,王忠,范勇,陈丕恒,","监事 ,董事兼总经理 ,董事长 ,董事 ,"
808917239,104.6772895,31.47034753,绵阳高新区天意电子科技有限公司,5.11E+14,计算机、通信和其他电子设备制造业,绵阳市高新区永昌路136号,电子产品、电子元器件的制造、销售及技术开发服务，货物、技术进出口（法律、法规禁止项目除外，限制项目凭许可证经营）。,2533087,,600,存续,四川省绵阳市工商局高新分局,陈立波,1.40E+12,1.08E+12,1.72E+12,1.48E+12,有限责任公司(自然人投资或控股),sc,,,,0,0,0,0,0,9,3,1,2,3,0,7,2,0,1,"陈文胜,钟朝东,冯德珍,罗红梅,李希清,彭俊,钱有志,陈立波,韩会武,","陈立波,","执行董事 ,"
810370520,104.7769179,31.50774746,绵阳市万欣测控技术有限公司,5.10E+14,专业技术服务业,绵阳市游仙区游仙西路89号,传感器、仪器仪表、汽车零配件（国家政策须审批的除外）、电机、塑料制品的生产、销售；环保水处理设备及产品的生产、销售，进出口贸易（国家限定公司经营或禁止进出口的商品及技术除外）。（依法须经批准的项目，经相关部门批准后方可开展经营活动）,0816-6283258,624204067@qq.com,800,存续,四川省绵阳市游仙区工商行政管理局,王运生,1.45E+12,9.88E+11,1.62E+12,1.48E+12,有限责任公司(自然人投资或控股),sc,,,,1,2,0,0,0,9,6,2,1,3,0,14,0,0,2,"杨红,冯兰清,王运生,杨朝君,王运金,王运通,赵贵琼,赵玉琼,杨小平,","王运生,杨朝君,","执行董事 ,监事 ,"
814873380,104.705519,31.50470126,绵阳天和机械制造有限公司,5.11E+14,专用设备制造业,绵阳市绵州南路356号,机械制造、加工，电器机电设备销售及维修，五金交电、建筑材料、电子元器件、仪器仪表、电线电缆的销售。(依法须经批准的项目，经相关部门批准后方可开展经营活动)***,0816-2842369,wjj971002@163.com,1000,存续,四川省绵阳市涪城区工商行政管理局,吴建军,1.47E+12,1.12E+12,1.59E+12,1.48E+12,有限责任公司(自然人投资或控股),sc,,,,0,0,0,0,0,3,0,2,5,3,0,10,0,0,0,"吴建军,吴祖财,李敏,","李敏,吴建军,","监事 ,执行董事 ,"
830922044,104.3762252,31.61066935,安县中联水泥有限公司,5.11E+14,非金属矿物制品业,安县桑枣镇云丰村一组,水泥、水泥制品、水泥熟料的生产、研发及销售。（凭生产许可证、资质证等相关行政许可经营）,0816-4634009,,25000,存续,四川省绵阳市安县工商行政管理局,唐勇,1.44E+12,1.23E+12,3.25E+13,1.48E+12,其他有限责任公司,sc,,,,0,0,0,0,0,2,0,3,4,3,0,0,2,0,0,"四川西南水泥有限公司,中建材联合投资有限公司,","唐勇,王显,潘毅,","执行董事 执行董事 ,总经理 总经理 ,监事 监事 ,"
842337644,104.6914589,31.4649531,绵阳高新区恒奥电子科技有限公司,5.11E+14,计算机、通信和其他电子设备制造业,绵阳高新区路南工业区,企业依法自主选择经营项目，开展经营活动；依法须经批准的项目，经相关部门批准后依批准的内容开展经营活动。,0816-2396286,manager@myjch.com,1500,存续,四川省绵阳市工商局高新分局,何俊,1.47E+12,1.11E+12,1.74E+12,1.48E+12,有限责任公司(自然人投资或控股),sc,,,,0,0,0,0,0,2,0,3,4,3,0,11,0,0,0,"何俊,绵阳市建诚电子有限公司,","何俊,李方辉,彭维正,","董事 ,监事 ,董事 ,"
843868483,104.6543497,31.45237897,绵阳环阳科技有限公司,5.11E+14,研究和试验发展,绵阳市涪城区新皂镇八号路,机械设备的研发、生产、销售，国家允许的进出口贸易。(依法须经批准的项目，经相关部门批准后方可开展经营活动)***,0816-2561696,hykj988@126.com,1000,存续,四川省绵阳市涪城区工商行政管理局,舒焕森,1.45E+12,1.15E+12,1.84E+12,1.48E+12,有限责任公司(自然人投资或控股),sc,,,,0,0,0,0,0,5,0,2,1,3,0,14,0,0,1,"舒焕森,杨素琼,罗延新,袁彬,肖登成,","舒焕森,罗延新,","执行董事 ,监事 ,"
854931904,104.492664,31.514708,四川安泰消防工程有限责任公司,5.11E+14,建筑安装业,安县工业产业园兴仁园区,消防产品、防火门和防盗安全门及室内门的生产、销售、维修、安装；消防产品技术咨询服务；船用阻燃材料的生产及销售；建筑材料、钢材销售（以上项目不含前置审批或许可项目）。,0816-4323218,876141180@qq.com,5000,存续,四川省绵阳市安县工商行政管理局,杨斌,1.41E+12,1.00E+12,3.25E+13,1.48E+12,有限责任公司(自然人投资或控股),sc,,,,0,1,0,0,0,3,0,2,8,3,0,0,3,0,1,"杨斌,舒仁泉,罗明华,","杨萍,杨斌,","监事 ,执行董事 ,"
860002376,105.0425811,31.11887249,四川省三台水晶电子有限公司,5.11E+14,计算机、通信和其他电子设备制造业,四川省绵阳三台县北坝镇,人造压电石英水晶材料、光学水晶材料、声表面波水晶材料、人造珠宝水晶、压电石英晶片、光学晶片、声表面波晶片、传感晶片、传感器、传感系统及其它电子元器件、电子产品和本行业所需的机械设备、零配件、原辅材料及技术的研究、开发、生产销售。提供相关技术服务；自营进出口业务。（依法须经批准的项目，经相关部门批准后方可开展经营活动）,0816-5334898,smd@stqce.com,3000,存续,四川省绵阳市三台县工商行政管理局,何仁莉,1.46E+12,9.99E+11,1.80E+12,1.48E+12,有限责任公司(自然人投资或控股),sc,,,,0,1,0,0,0,3,0,4,0,3,0,21,0,0,0,"杨文富,何仁莉,杨晓萍,","杨文富,陈金灵,周禄雄,何仁莉,","监事 监事 ,董事 董事 ,董事 董事 ,董事长 董事长 ,"
866415352,102.8991597,30.36748094,四川嘉瑞丰科技有限公司,5.11E+14,科技推广和应用服务业,绵阳市涪城区绵安路35号（科技城软件产业园）,企业依法自主选择经营项目，开展经营活动；依法须经批准的项目，经相关部门批准后方可开展经营活动。,0816-6173016,xiany_grateful@163.com,300,存续,四川省绵阳市涪城区工商行政管理局,陈邻,1.47E+12,1.39E+12,2.33E+12,1.48E+12,其他有限责任公司,sc,,,,0,0,0,0,0,3,1,2,19,3,0,1,0,0,2,"陈邻,邹刚,闵雁,","邹刚,陈邻,","监事 ,执行董事 ,"
866665035,102.8991597,30.36748094,四川神龙粮油有限公司,5.11E+14,农副食品加工业,三台县芦溪工业集中区,生产、加工、销售：粮油食品。政策允许的农副产品购销。化肥、糖、酒、副食、百货、日用化工（不含危险品）、五金交电、畜禽饲料销售。停车服务。(依法须经批准的项目，经相关部门批准后方可开展经营活动）,0816-5336720,,5200,存续,四川省绵阳市三台县工商行政管理局,段世发,1.47E+12,1.05E+12,1.60E+12,1.48E+12,有限责任公司(自然人投资或控股),sc,,,,0,1,0,0,0,2,0,3,1,3,0,6,0,0,4,"贵用斌,文金华,","吴建伟,陈怀明,段世发,","副总经理 ,监事 ,董事长 ,"
867397195,104.705519,31.50470126,绵阳同辉科技有限公司,5.11E+14,科技推广和应用服务业,绵阳高新区普明南路东段70-98号茗苑,电子产品、新型材料、机械产品、环保设备、化工产品（不含危化品）、大数据、互联网、云计算的技术开发、产品开发、技术服务、技术咨询、产品生产、销售，模具、注塑、钣金产品研发、生产、技术服务、销售，五金交电、家具、日用百货销售，电子产品设备维修及技术服务，文化创意设计，企业管理与咨询服务，货物、技术进出口（法律、法规禁止项目除外，限制项目凭许可证经营）。,13350956370,,1000,存续,四川省绵阳市工商局高新分局,唐成义,1.44E+12,1.37E+12,1.84E+12,1.48E+12,有限责任公司(自然人投资或控股),sc,,,,0,0,0,0,0,2,1,2,4,3,0,0,0,0,0,"毛英慧,毛欣,","毛欣,唐成义,","监事 ,执行董事 ,"
868092360,104.7884705,31.50937553,绵阳市新兴机械有限责任公司,5.11E+14,通用设备制造业,绵阳市游仙经济试验区民泰路18号,无。内燃机及配件、汽车配件、农用机械及配件、机械电器设备及配件的制造、销售，金属材料（不含贵重金属）、建筑材料、五金、交电、化工产品、仪器仪表的销售。,15228777701,,1547.73,存续,四川省绵阳市游仙区工商行政管理局,高于翔,1.40E+12,9.34E+11,2.04E+12,1.48E+12,有限责任公司(自然人投资或控股),sc,,,,0,0,0,0,0,3,0,1,1,3,0,0,0,0,1,"张瑞芳,张瑞蓉,高于翔,","高于翔,","执行董事 ,"
950687572,104.7744704,31.45170709,四川长虹电源有限责任公司,5.11E+14,电气机械和器材制造业,四川省绵阳市经济开发区三江大道519号,电源系统（含光伏）方案提供及其生产；电源产品、电池材料、蓄电池、一次电池、工模具、非标准设备的设计、生产、销售、施工；经营本企业自产产品及相关技术的出口、转让业务，本企业生产科研所需的原辅材料、仪器仪表、机械设备、零配件及相关技术的进口业务，本企业的进料加工和三来一补业务。(以上经营范围：国家禁止的不得经营；涉及专项许可事项的，必须取得专项许可后在许可范围和时效内经营，需要资质的在取得资质后凭资质经营)***,0816-2439140,info@changhongbatteries.com,10000,存续,四川省绵阳市工商行政管理局,吴学锋,1.47E+12,8.86E+11,1.83E+12,1.48E+12,有限责任公司（非自然人投资或控股的法人独资）,sc,,,,0,2,0,0,0,1,0,5,0,3,0,63,3,0,0,"四川长虹电器股份有限公司,","王兵,杨兵,吴学锋,任宗贵,汪华聪,","董事 ,董事 ,负责人 ,董事 ,董事 ,"
963027197,102.8991597,30.36748094,四川中物环保科技有限公司,5.11E+14,科技推广和应用服务业,四川省绵阳市绵山路64号（科创园区）,环保技术的开发与服务；环保工程；环保和节能仪器、设备及相关配件的设计、研制、技术服务及销售；国家许可的项目投资。,0816-8023985,ZWHB@caep-ep.com,5000,存续,四川省科学城工商行政管理局,张海,1.47E+12,1.27E+12,3.25E+13,1.48E+12,其他有限责任公司,sc,,,,1,3,0,0,0,4,0,9,5,3,0,11,0,0,3,"张先,四川久远投资控股集团有限公司,四川巍林投资有限公司,四川鑫隆源投资有限公司,","田志强,李浩,张海,张先,顾林,侯春梅,郑祥兵,罗代才,谌戡,","监事 ,副总经理 ,董事长 ,副董事长 ,监事 ,董事 ,董事 ,董事兼总经理 ,监事 ,"
994511848,104.9196101,31.28335433,四川省隆源粮油食品有限公司,5.11E+14,农副食品加工业,三台县芦溪工业集中发展区,大米加工、销售；粮食收购、销售；米、面制品、调味品、干杂、食用油销售；国家政策允许的农副产品购销（依法须经批准的项目，经相关部门批准后方可开展经营活动）。,0816-5666118,61218894@qq.com,800,存续,四川省绵阳市三台县工商行政管理局,文宗泽,1.45E+12,1.27E+12,3.25E+13,1.48E+12,有限责任公司(自然人投资或控股),sc,,,,0,0,0,0,0,2,0,2,4,3,0,0,0,0,11,"文宗泽,文龙,","文龙,文宗泽,","其他人员 ,董事长 ,"
996895339,102.8991597,30.36748094,四川蓝色港湾科技有限公司,5.11E+14,电信、广播电视和卫星传输服务,绵阳市临园路东段78号福星楼1单元1806号,安全防范工程设计、施工（取得相关资质后方可从事经营）。计算机网络系统工程及软件、硬件、网络系统集成、数字控制系统集成、楼宇自控工程、电子系统工程开发、应用，有线电视网络工程应用软件、监控系统应用软件及其它计算机软件的开发，计算机配件、设备的生产、加工及销售，电子产品、电器产品、通信设备（不含大功率发射装置）、仪器仪表、计量设备、办公设备、机电产品、测绘设备、测量检测设备、文化用品、厨房设备、办公家具、数码产品及外设、音视频电器设备、实验室用机电产品的销售，计算机网络综合布线，智能建筑及机房施工服务，网络信息技术服务，电子产品维修服务，废旧物资的回收及销售，信息技术研发，电子设备、教学设备研发、生产、加工及销售，工程管理服务，规划管理，信息技术咨询服务，企业管理。(依法须经批准的项目，经相关部门批准后方可开展经营活动)***,13696273095,,1300,存续,四川省绵阳市涪城区工商行政管理局,邱宇,1.46E+12,1.19E+12,1.82E+12,1.48E+12,有限责任公司(自然人投资或控股),sc,,,,2,0,0,0,21,3,5,2,5,3,0,0,0,0,0,"刘四川,刘小平,邱宇,","邱宇,刘四川,","执行董事 ,监事 ,"
1006952506,104.4321612,31.66107091,绵阳启明星电力设备有限公司,5.11E+14,电气机械和器材制造业,四川安县工业园区(花荄镇花兴路),电力变压器、高低压线路器材、配电屏、开关柜制造、销售；电力设备检修、改制、调试、校验；五金交电、化工产品（不含危险品）、电器材料、日用杂品销售。,4366555,,6000,存续,四川省绵阳市安县工商行政管理局,蒋际富,1.46E+12,1.04E+12,3.25E+13,1.48E+12,有限责任公司（自然人投资或控股的法人独资）,sc,,,,0,0,0,0,0,1,0,2,9,3,0,11,0,0,1,"四川创科实业有限公司,","杨世明,蒋际富,","监事 ,执行董事 ,"
1017116330,104.7481915,31.51773607,四川省科学城帝威电气有限公司,5.11E+14,电气机械和器材制造业,绵阳市绵山路64号科学城八区民品楼212号,新材料研究，新能源开发，储能技术研究，信息自动化及计算机软硬件，GZP-Y系列交直流电源系统、节能环保发电设备、电力设备及控制系统、高低压电器成套系统、仪器仪表、消防设备、机械化工产品（不含易燃易爆易制毒品）的研发、生产、销售、安装、调试、技术咨询及服务；玻璃建材及现代办公设备的销售，环境治理技术咨询、进出口分销。（以上项目不含前置许可项目，后置许可项目凭许可证或审批文件经营）,0816-2533020,dwpower@126.com,1500,存续,四川省科学城工商行政管理局,李云,1.48E+12,1.14E+12,2.85E+12,1.48E+12,有限责任公司(自然人投资或控股),sc,,,,0,0,0,0,6,3,29,2,4,3,0,4,4,0,2,"李云,陈超,陈茂斌,","陈超,李云,","监事 ,执行董事 ,"
1030388167,102.8991597,30.36748094,四川荣丰电子有限公司,5.11E+14,计算机、通信和其他电子设备制造业,绵阳市游仙区游仙路300号,电子产品及配件、五金配件的生产、销售及售后服务，机械加工。（依法须经批准的项目，经相关部门批准后方可开展经营活动）,15397781063,474242159@qq.com,600,存续,四川省绵阳市游仙区工商行政管理局,唐子琴,1.46E+12,1.38E+12,2.33E+12,1.48E+12,有限责任公司(自然人投资或控股),sc,,,,0,0,0,0,0,2,22,2,5,3,0,0,0,0,2,"杨华,唐子琴,","杨华,唐子琴,","监事 ,执行董事 ,"
1031769185,104.677705,31.473927,四川长虹空调有限公司,5.11E+14,建筑安装业,绵阳高新区绵兴东路35号,企业依法自主选择经营项目，开展经营活动；依法须经批准的项目，经相关部门批准后依批准的内容开展经营活动。,0816-2410135,CHKT@changhong.com,20000,存续,四川省绵阳市工商局高新分局,李伟,1.47E+12,1.23E+12,1.86E+12,1.48E+12,其他有限责任公司,sc,,,,0,6,0,4,0,1,2,5,6,3,0,189,6,0,6,"合肥美菱股份有限公司,","李伟,杨兵,张晓龙,吴定刚,滕光胜,","董事长 ,董事 ,董事 ,董事 ,监事 ,"
1041371609,104.705519,31.50470126,绵阳虹瑞科技有限公司,5.11E+14,仪器仪表制造业,北川羌族自治县永昌镇山东产业园区,光学材料、灯具、城市及道路照明系统、钣金件、工业和楼寓自动化控制系统、企业信息、管理系统、仪器、仪表、电子产品、新材料的开发、加工、制造、销售、服务；货物和技术的进出口业务（国家限制和禁止的除外）。(依法须经批准的项目，经相关部门批准后方可开展经营活动)***,0816-4892398,740570543@qq.com,500,存续,四川省绵阳市北川县工商行政管理局,吴永刚,1.46E+12,1.38E+12,3.25E+13,1.48E+12,有限责任公司(自然人投资或控股),sc,,,,0,0,0,0,0,2,0,2,6,3,0,6,0,0,0,"郭龙,曹敏,","谢艳,吴永刚,","监事 ,执行董事 ,"
1041529417,104.6158503,31.45722488,绵阳市恒义机械制造有限公司,5.11E+14,汽车制造业,绵阳高新区磨家镇黄连咀村三社,机械制造、加工；汽车零部件制造、销售（涉及行政许可事项的，需取得相关许可证后方可经营），指机动车辆及其车身的各种零配件的制造，货物、技术进出口（法律、法规禁止项目除外，限制项目凭许可证经营）。,18681614660,mianyanghengyi@163.com,300,存续,四川省绵阳市工商局高新分局,梁发义,1.47E+12,1.23E+12,1.55E+12,1.48E+12,有限责任公司(自然人投资或控股),sc,,,,0,0,0,0,0,2,0,2,1,3,0,0,0,0,1,"梁发义,曹晓琼,","梁发义,曹晓琼,","董事 ,监事 ,"
1050966558,104.705519,31.50470126,四川绵阳瑞晨汽车零部件有限公司,5.11E+14,汽车制造业,安县花荄镇工业园,机动车配件制造、销售；机动车尾气催化净化器和消声器的研发、制造、销售；及其上述相关产品和技术的进出口业务(以上项目属国家限制、禁止和需要前置审批的除外)。,18142559346,1044234068@qq.com,1200,存续,四川省绵阳市安县工商行政管理局,陈美华,1.45E+12,1.26E+12,3.25E+13,1.48E+12,其他有限责任公司,sc,,,,0,0,0,0,0,3,1,3,4,3,0,0,0,0,0,"陈美华,杨梅,四川绵阳华元航升环保科技有限公司,","杨梅,胡长青,陈美华,","监事 ,总经理 ,执行董事 ,"
1052299117,104.2583414,31.96252731,北川天讯新材料有限公司,5.11E+14,计算机、通信和其他电子设备制造业,北川羌族自治县永昌镇（北川-山东产业园）,导电银布及新型导电纤维、导电涂料及电磁屏蔽涂料、LED照明、导电布的深加工、电磁屏蔽备件的生产、研发、销售；商品及技术进出口业务，覆铜板的研发、生产、销售。（依法须经批准的项目，经相关部门批准后方可开展经营活动）,13881149478,54504606@qq.com,2000,存续,四川省绵阳市北川县工商行政管理局,朱焰焰,1.44E+12,1.26E+12,3.25E+13,1.48E+12,有限责任公司（非自然人投资或控股的法人独资）,sc,,,,0,1,0,0,0,1,0,2,6,3,0,4,3,0,0,"天诺光电材料股份有限公司,","王文华,朱焰焰,","监事 ,执行董事 ,"
1054140651,102.8991597,30.36748094,四川浩康科技有限公司,5.11E+14,科技推广和应用服务业,绵阳高新区普明南路东段95号,安全技术与装备、专用设备、特种设备及仪器的设计、研制、生产、销售，化工材料（不含危化品）、激光材料研发、生产，技术开发、咨询、转让，材料分析测试，机电设备安装、维护。,13458005948,hkgs@haokangkeji.com,2000,存续,四川省绵阳市工商局高新分局,李波涛,1.45E+12,1.39E+12,3.25E+13,1.48E+12,其他有限责任公司,sc,,,,0,0,0,0,0,1,0,2,3,3,0,0,0,0,1,"四川省科学城海天实业有限公司,","李波涛,吴仕松,","董事长 ,监事 ,"
1056263739,102.8991597,30.36748094,四川鑫鼎新材料有限公司,5.11E+14,金属制品业,江油市三合镇羊河村八组,制造、销售：高速列车安装轨、磁浮列车供电轨、锻件、铸件、路桥装置用各类型钢材料、离心铸管、双(多)金属复合板。销售：建筑材料、机电产品(不含汽车)、化工产品(不含危险化学品)。经营本企业自产产品及相关技术的出口业务；经营本企业生产科研所需的原辅材料、机电设备、零配件（国家限定公司经营和国家禁止进出口的商品及技术除外）。,0816-3516375,,10000,存续,四川省绵阳市工商行政管理局,韩大京,1.45E+12,1.31E+12,1.96E+12,1.48E+12,有限责任公司(台港澳与境内合资),sc,,,,0,1,0,0,0,5,0,8,2,3,0,34,0,0,1,"姚文军,四川鑫源型钢钢管有限公司,上海一润投资管理中心（有限合伙）,江油旺鑫投资管理中心（有限合伙）,莎金投资有限公司,","周志军,张浩,刘彤彤,姚文军,鲍善勤,韩大京,张雄姿,罗宗立,","董事 ,监事 ,董事 ,监事 ,董事 ,董事兼总经理 ,董事 ,监事 ,"
1058268769,104.705519,31.50470126,绵阳艺精防辐射科技有限公司,5.11E+14,研究和试验发展,江油市德胜南路87号,核设施退役与放射性废物治理；核环境恢复与治理；环境、辐射检测与去污、防护技术和设备的开发以及上述领域的技术服务；汽车租赁服务（不带操作人员）。（依法须经批准的项目，经相关部门批准后方可开展经营活动）,0816-3620337,g77cq@163.com,100,存续,四川省绵阳市江油市工商行政管理局,邓幼宁,1.47E+12,1.32E+12,2.90E+12,1.47E+12,有限责任公司（非自然人投资或控股的法人独资）,sc,,,,0,0,0,0,0,1,0,4,3,3,0,0,0,0,0,"四川艺精科技集团有限公司,","黄鹤翔,魏彦波,邓幼宁,乔录成,","董事兼总经理 ,监事 ,董事长 ,董事 ,"
1063238039,104.3459077,31.45319419,绵阳启明星磷化工有限公司,5.11E+14,化学原料和化学制品制造业,安县河清镇宝华村,黄磷、磷酸、赤磷、三氯化磷、三氯硫磷、五硫化二磷、三聚磷酸钠、六偏磷酸钠、磷泥酸、磷铁、甲酸、甲酸钠、甲酸钾、磷酸钠盐制造、销售；化肥级磷酸一、二铵、磷酸二氢钾、磷酸脲制造、销售；食品添加剂磷酸(磷酸、三聚磷酸钠、磷酸一、二铵、磷酸二氢钾、六偏磷酸钠)制造、销售；日用杂品、化工产品(不含危险品)销售；机电修理；经营本企业自产产品及技术的出口业务和本企业所需的机械设备、零配件、原材料及技术的进口业务(国家限定公司经营或禁止进出口的商品及技术除外),0816-4563138,57851808@qq.com,8000,存续,四川省绵阳市安县工商行政管理局,陈大强,1.47E+12,1.01E+12,3.25E+13,1.48E+12,其他有限责任公司,sc,,,,0,0,0,0,0,2,0,8,10,3,0,17,0,0,2,"绵阳启明星集团有限公司,鄂州兆恒矿业有限公司,","王辉,李燕,陈大强,黎宁,彭永,杨汝燕,柳景森,熊道顺,","董事 ,董事 ,董事长 ,监事 ,董事兼总经理 ,董事 ,其他人员 ,监事 ,"
1066725187,102.8991597,30.36748094,四川杰邦科技有限公司,5.11E+14,科技推广和应用服务业,绵阳市游仙经济试验区一号路中段,"电器及汽车饰品的新工艺、新技术的开发、转让、咨询、服务及相关产品制造、销售；金属及非金属材料加工；装饰材料技术研发、制造、销售；表面着色材料和图纹成形技术的研发应用与产品制造、销售；花卉、苗木种植、销售；家禽养殖、销售。（以上经营范围不含前置许可项目,依法需经相关部门批准的，凭其批准文件经营）",0816-2283555,office@sinojbst.com,500,存续,四川省绵阳市游仙区工商行政管理局,韩玉平,1.40E+12,1.40E+12,3.25E+13,1.48E+12,有限责任公司(自然人投资或控股),sc,,,,0,0,0,0,0,3,0,2,0,2,0,4,0,0,0,"蔡晓虹,韩玉平,韩玉贵,","蔡晓红,韩玉平,","监事 ,执行董事 ,"
1066888772,104.705519,31.50470126,绵阳市鑫祥环保科技有限责任公司,5.11E+14,专用设备制造业,安县花荄镇工业园,环保技术研发及技术咨询服务（不含金融、证券、保险、融资性担保等金融业务）；汽车零配件、摩托车零配件、发动机装备及零配件制造、销售；塑料制品、橡胶制品、电子产品、发动机销售；有色金属加工、销售；汽车座椅的研发、生产、销售。(国家禁止和限制生产经营的除外),0816-4466909,zuojiang.99@163.com,5000,存续,四川省绵阳市安县工商行政管理局,嘉云强,1.46E+12,1.28E+12,1.91E+12,1.48E+12,有限责任公司(自然人投资或控股),sc,,,,0,1,0,0,0,3,0,2,1,3,0,1,0,0,0,"左莉,刘琛,申国秀,","左江,嘉云强,","监事 ,执行董事 ,"
1067016333,104.697983,31.495801,绵阳流能粉体设备有限公司,5.11E+14,专用设备制造业,绵阳科创园区财元路5号,粉碎设备生产、销售、安装及粉碎处理服务；机械零配件的生产、销售；环保设备的生产、销售；电气自动控制设备的生产、销售；进出口贸易（国家限定公司经营或禁止进出口的商品及技术除外）。,0816-6283675,MYLNPE@126.COM,800,存续,四川省绵阳市工商行政管理局,张巧绵,1.46E+12,1.14E+12,1.88E+12,1.48E+12,有限责任公司(自然人投资或控股),sc,,,,0,1,0,0,0,3,9,1,0,3,0,7,0,0,1,"朱文清,张苏娟,张巧绵,","张巧绵,","执行董事 ,"
1074179554,104.705165,31.46891714,四川九洲空管科技有限责任公司,5.11E+14,科技推广和应用服务业,绵阳科创园区九洲大道255号,企业依法自主选择经营项目，开展经营活动；依法须经批准的项目，经相关部门批准后依批准的内容开展经营活动。,0816-2469730,zhglb@jzkgkj.com,15000,存续,四川省绵阳市工商行政管理局,程旗,1.48E+12,1.29E+12,3.25E+13,1.48E+12,有限责任公司（非自然人投资或控股的法人独资）,sc,,,,0,1,0,0,41,1,19,8,4,3,0,150,0,0,0,"四川九洲电器股份有限公司,","张斌,刘志刚,任敏,孙仲,童波,程旗,贾必明,罗莲怡,","董事兼总经理 董事兼总经理 ,董事 董事 ,监事 监事 ,董事 董事 ,监事 监事 ,董事长 董事长 ,董事 董事 ,监事 监事 ,"
1083689810,102.8991597,30.36748094,四川知觉科技有限公司,5.11E+14,科技推广和应用服务业,绵阳市科教创业园区西南科技大学国家大学科技园,机器知觉软件系统的研发、生产、销售、技术开发和技术服务，自营货物及技术进出口业务（国家限制和禁止的项目或技术除外），企业管理培训（不含学历教育及职业技能培训）、企业形象设计、组织文化艺术交流活动 。,0816-6080996,1181592577@qq.com,500,存续,四川省绵阳市工商行政管理局,乐莉,1.45E+12,1.35E+12,3.25E+13,1.47E+12,其他有限责任公司,sc,,,,0,0,0,0,2,2,0,2,3,2,0,0,0,0,0,"绵阳西南科技大学国家大学科技园有限公司,绵阳铁牛科技有限公司,","杜斌,乐莉,","监事 ,执行董事 ,"
1096526103,102.8991597,30.36748094,四川昊吉科技有限公司,5.11E+14,计算机、通信和其他电子设备制造业,绵阳市涪城区塘汛镇洪恩村,电子产品的研发、生产及销售；金属表面处理及加工；机械设备、五金零配件的生产及销售；建筑材料、钢材（限专业市场内）的销售。(依法须经批准的项目，经相关部门批准后方可开展经营活动)***,0816-2842001,49346506@qq.com,500,存续,四川省绵阳市工商行政管理局,邓玄,1.42E+12,1.37E+12,2.00E+12,1.48E+12,有限责任公司(自然人投资或控股),sc,,,,0,0,0,0,0,2,0,2,5,3,0,4,0,0,0,"邓玄,刘东,","刘东,邓玄,","监事 ,执行董事 ,"
1115387535,102.8991597,30.36748094,四川梓冠光电科技有限公司,5.11E+14,计算机、通信和其他电子设备制造业,绵阳市经开区三江大道北段39号,通信设备（不含大功率发射装置）、光电器件及耗材的研发、生产、销售，计算机软硬件的开发，网络技术服务，货物进出口。(依法须经批准的项目，经相关部门批准后方可开展经营活动）***,15308339960,3082676038@qq.com,300,存续,四川省绵阳市工商行政管理局,唐娟,1.44E+12,1.43E+12,3.25E+13,1.48E+12,有限责任公司(自然人投资或控股),sc,,,,0,0,0,0,0,2,3,2,1,1,0,12,0,0,1,"唐娟,梁联长,","唐娟,梁联长,","执行董事 ,监事 ,"
1139410358,104.7481915,31.51773607,四川省科学城海天实业有限公司,5.11E+14,批发业,绵阳市绵山路64号化材所内,精细化工产品、高分子材料及塑料制品、新材料、化工材料、荧光材料、电子产品的研发、生产及技术服务，安全应急技术与产品的研发、生产及销售，环境检测服务，环保技术与设备服务，各种光电源、核电产品及配套件销售；文物保护材料与装备的研发、生产、销售及技术服务；机电设备安装工程、机械设备租赁、机械加工制造、机电产品研发及服务；技术开发、技术转移；软件开发与销售。,2491634,522764104@qq.com,6500,存续,四川省科学城工商行政管理局,习彦,1.45E+12,8.84E+11,3.25E+13,1.48E+12,有限责任公司（非自然人投资或控股的法人独资）,sc,,,,2,5,0,2,3,1,0,3,8,3,0,12,0,0,5,"中国工程物理研究院化工材料研究所,","袁秀兰,梁廷军,习彦,","监事 ,总经理 ,执行董事 ,"
1167989488,102.8991597,30.36748094,四川奥斯廷科技有限公司,5.11E+14,研究和试验发展,绵阳科创区创新中心8号楼313号,机器人减速器的研发、生产、销售、安装，智能机器人、自动化装备、智能自动化生产系统、物流仓储系统、生产辅助系统、控制软件、智能化数控系统、信息技术与网络系统的设计、开发及技术咨询、技术服务、技术转让，自营货物及技术进出口业务（国家限制或禁止的项目或技术除外）。,13981825056,2215526229@qq.com,800,存续,四川省绵阳市工商行政管理局,李照廷,1.45E+12,1.42E+12,3.25E+13,1.48E+12,有限责任公司(自然人投资或控股),sc,,,,0,0,0,0,0,2,0,3,5,1,0,0,0,0,1,"郭景松,绵阳顾能智能设备经营中心（有限合伙）,","李季,李照廷,苟茂星,","经理 ,执行董事 ,监事 ,"
1215275486,102.8991597,30.36748094,四川力程测控技术有限公司,5.11E+14,仪器仪表制造业,绵阳市涪城区绵安路35号（科技城软件产业园）,机械式定位器、智能式定位器、电磁阀、自动安全报警阀门，非标准设备及器件等机电一体化产品的研制、生产及销售；工业自动化控制系统集成及软件研发和销售；国家允许的进出口贸易。(依法须经批准的项目，经相关部门批准后方可开展经营活动)***,13158893348,401178352@qq.com,121.95,存续,四川省绵阳市涪城区工商行政管理局,徐程松,1.43E+12,1.39E+12,3.25E+13,1.48E+12,有限责任公司(自然人投资或控股),sc,,,,0,0,0,0,0,7,0,5,5,3,0,8,0,0,1,"杨云冬,谭晓治,王艳军,徐程松,谢沁窈,顾旭,江苏志昇投资管理咨询有限公司,","徐志明,顾旭,徐程松,谢沁窈,谭晓治,","董事 ,董事 ,董事 ,董事长 ,监事 ,"
1227584129,102.8991597,30.36748094,四川省积水科技有限公司,5.11E+14,批发业,绵阳市游仙区新桥镇民主村二社,金属切削液、金属表面处理剂、水处理化学品、黏合剂、脱模剂的研发、生产和销售；包装材料的生产和销售；油漆的研发及销售；电子产品、机电设备、仪器仪表、化工产品（不含危险化学品）的销售。(以上经营范围，需许可、备案的取得许可、备案后经营，需资质的凭资质经营)***,0816-5025466,1621235574@qq.com,800,存续,四川省绵阳市游仙区工商行政管理局,冯琼,1.42E+12,1.11E+12,1.74E+12,1.48E+12,有限责任公司(自然人投资或控股),sc,,,,0,0,0,0,0,5,1,2,2,3,0,0,0,0,0,"冯琼,周勇,周中华,王敬东,张敬阳,","周勇,冯琼,","监事 ,执行董事 ,"
1232055602,102.8991597,30.36748094,四川科莱立泊停车设备有限公司,5.11E+14,仪器仪表制造业,绵阳市绵山路64号附5号,立体停车设备的生产、销售、安装维护及维修改造。衡器产品的生产、销售，机械加工，电子设备、电子测量仪器、电子机械产品、工业自动控制设备的销售。进出口贸易（国家禁止的除外），科技信息咨询及技术服务。（以上项目不含前置许可项目，后置许可项目凭许可证或审批文件经营）,0816-5012568,cl@myclimb.cn,2000,存续,四川省科学城工商行政管理局,余海跃,1.42E+12,1.37E+12,3.25E+13,1.48E+12,有限责任公司（非自然人投资或控股的法人独资）,sc,,,,0,0,0,0,0,1,0,2,2,3,0,14,1,0,0,"四川科莱电梯股份有限公司,","许成林,余海跃,","监事 ,执行董事 ,"
1232568686,104.7716183,31.49405287,绵阳开元磁性材料有限公司,5.11E+14,计算机、通信和其他电子设备制造业,绵阳市游仙经济试验区,磁性材料及元器件生产、制造、销售，出口本企业自产的磁芯及电子元器件，进口本企业生产、科研所需原辅材料、机械设备、仪器仪表、零配件。（以上经营范围中依法须经批准项目，经相关部门批准后方可开展经营活动）,0816-2971233,kyccren@163.com,300,存续,四川省绵阳市游仙区工商行政管理局,汪伟,1.46E+12,8.64E+11,3.25E+13,1.48E+12,有限责任公司(自然人投资或控股),sc,,,,0,1,0,0,0,21,6,1,0,3,0,104,3,0,3,"汪伟,罗林,张宇,刘蒙才,张健,吴君,徐卫东,郭绪,姚勇,马培基,韩向林,朱孝明,赵昌金,张松才,郑素兰,於孝光,唐久强,李晓定,姚玲,徐建华,绵阳开元电力（集团）股份有限公司,","汪伟,","执行董事 ,"
1308026248,102.8991597,30.36748094,四川睿光科技有限责任公司,5.11E+14,科技推广和应用服务业,绵阳市科学城绵山路64号(科学城八区十二所系统楼302号）,激光器、科学仪器、光电器件的研发及系统集成，光学相关标准及检测，洁净精密装校工程、光学元器件、及自动化产品的研制，新材料生产与销售及相关工程咨询、设计、安装、调试、维护、修理及技术改造、技术培训、技术服务及转让，科技项目孵化及投资，软件开发，会务服务，办公设备、电子产品及耗材的销售。（以上项目不含前置许可项目，后置许可项目凭许可证或审批文件经营）,0816-6080226,,200,存续,四川省科学城工商行政管理局,许乔,1.45E+12,1.38E+12,3.25E+13,1.48E+12,有限责任公司（非自然人投资或控股的法人独资）,sc,,,,0,0,0,0,1,1,2,4,1,3,0,9,0,0,0,"四川融圆聚能科技有限责任公司,","王燕,唐晓东,许乔,范勇恒,","监事 ,监事 ,执行董事 ,总经理 ,"
1316373226,104.705519,31.50470126,四川省绵阳市吉星消防药剂有限公司,5.11E+14,化学原料和化学制品制造业,绵阳市安州区花荄镇龙兴村二组,消防药剂生产、销售，灭火器灌装药剂。,0816-4332275,jxxf1933@163.com,1200,存续,四川省绵阳市安县工商行政管理局,钟迪炯,1.47E+12,1.07E+12,3.25E+13,1.48E+12,有限责任公司（非自然人投资或控股的法人独资）,sc,,,,0,0,0,0,0,1,0,2,4,3,0,1,0,0,1,"四川省绵阳市金钟化工有限公司,","钟迪炯,钟思礼,","执行董事 ,监事 ,"
1346840565,104.7228681,31.76385467,江油中化炉窑工程有限公司,5.11E+14,建筑安装业,江油市工业开发区,耐火纤维、耐火材料制造；金属配件销售；筑炉保温、保冷、防腐工程安装、服务；精细化工（不含化学危险品）生产、销售。 （依法须经批准的项目，经相关部门批准后方可开展经营活动）,0816-3366995,,1200,存续,四川省绵阳市江油市工商行政管理局,徐庆涛,1.47E+12,1.00E+12,2.58E+12,1.48E+12,有限责任公司(自然人投资或控股),sc,,,,0,0,0,0,0,4,0,2,0,3,0,0,8,0,0,"徐光明,丁卫建,徐光道,徐庆涛,","丁卫建,徐庆涛,","监事 ,执行董事兼总经理 ,"
1485740699,104.705519,31.50470126,绵阳盛莉科技有限责任公司,5.11E+14,科技推广和应用服务业,绵阳科创区西南科技大学国家大学科技园,自救逃生设备研发、生产、销售，软件研发及相关技术服务，计算机信息技术服务，会务会展（不含餐饮、住宿）服务，国内广告设计、制作、发布，翻译服务。,15892607061,,20,存续,四川省绵阳市工商行政管理局,赵莉,1.44E+12,1.44E+12,2.07E+12,1.47E+12,有限责任公司(自然人独资),sc,,,,0,0,0,0,0,1,0,2,0,1,0,0,0,0,0,"赵莉,","赵莉,宜晨虹,","执行董事 ,监事 ,"
1531308786,102.8991597,30.36748094,四川久信工程造价咨询有限公司,5.10E+14,专业技术服务业,成都市金牛区星辉中路16号0626号,工程造价咨询（凭资质证经营）。,13008103228,373540462@qq.com,50,存续,成都市金牛工商局,袁静,1.46E+12,1.11E+12,6.40E+13,1.47E+12,有限责任公司(自然人投资或控股),sc,,,,0,0,0,0,0,3,0,2,0,3,0,0,0,0,0,"胡敬林,黄涛,袁静,","黄涛,袁静,","监事 ,执行董事兼总经理 ,"
1600520826,102.8991597,30.36748094,四川海鹏里科技有限公司,5.11E+14,研究和试验发展,绵阳科创区创业服务中心所属孵化大楼A303号,核辐射探测器及材料、核电子学仪器、辐射防护材料及仪器、半导体器件、管件阀门、光学器件、核仪器仪表及设备的销售及其技术研发、技术转让、技术服务，计算机软硬件及电子商务（不含金融、增值电信业务）技术开发，自营货物及技术进出口业务（国家限制或禁止的项目或技术除外）。,0816-6335396,guohui@haipenly.com,200,存续,四川省绵阳市工商行政管理局,曾本伍,1.46E+12,1.42E+12,3.25E+13,1.47E+12,有限责任公司(自然人投资或控股),sc,,,,0,0,0,0,0,2,2,2,2,1,0,0,0,0,0,"曾本伍,郭惠,","郭惠,曾本伍,","监事 ,执行董事 ,"
1605735646,104.705519,31.50470126,绵阳鑫亮机电科技有限公司,5.11E+14,专用设备制造业,绵阳市游仙区石马镇翠屏村（石马工业园区）,"机电产品的研发、生产、销售，机械加工，五金制品设计、制造，塑胶电子产品设计、制造，环保设备研发、制造，非标设备研发、制造，模具设计、制造（以上经营范围不含前置许可项目,依法需经相关部门批准的，凭其批准文件经营）。",0816-2660328,,300,存续,四川省绵阳市游仙区工商行政管理局,梁发义,1.46E+12,1.37E+12,2.31E+12,1.48E+12,有限责任公司(自然人投资或控股),sc,,,,0,0,0,0,0,2,1,2,10,3,0,0,1,0,0,"刘英,梁发义,","刘英,梁发义,","监事 ,执行董事 ,"
1619065374,102.8991597,30.36748094,四川科莱信息技术有限公司,5.11E+14,科技推广和应用服务业,绵阳市游仙区石马镇工业集中区,计算机软件、电子信息、网络技术、自动控制技术及其设备的研发、销售，电梯控制系统、物联网技术、数据管理系统的研发，信息集成服务及其设备的销售，科技信息咨询及技术服务，进出口贸易（国家限定公司经营或禁止进出口的商品和技术除外）。（以上经营范围不含前置许可项目，依法需经相关部门批准的，凭其批准文件经营）,0816-5012536,cl@myclimb.cn,1000,存续,四川省绵阳市游仙区工商行政管理局,余海跃,1.42E+12,1.40E+12,3.25E+13,1.48E+12,有限责任公司（非自然人投资或控股的法人独资）,sc,,,,0,0,0,0,1,1,0,2,4,2,0,0,0,0,0,"四川科莱电梯股份有限公司,","许成林,余海跃,","监事 ,执行董事兼总经理 ,"
1648387174,104.703652,31.496788,四川迈实通科技有限责任公司,5.11E+14,研究和试验发展,绵阳科创区创新中心二期2号楼320号,嵌入式系统软硬件、通信设备（不含大功率无线电发射装置及卫星地面接收设施）及零部件、机电设备及零部件、自动化控制设备、电源、电机及驱动设备、运动控制零部件、新能源设备及配套设备的技术研发、技术服务、技术转让及产品生产、销售及系统集成、系统维护。,18381669998,,500,存续,四川省绵阳市工商行政管理局,曾蕾,1.46E+12,1.44E+12,3.25E+13,1.48E+12,有限责任公司(自然人投资或控股),sc,,,,0,0,0,0,0,2,0,3,5,1,0,1,0,0,0,"曾蕾,胥鹏,","曾蕾,胥鹏,曾昭康,","总经理 总经理 ,执行董事 执行董事 ,监事 监事 ,"
1649202888,102.8991597,30.36748094,四川省安道速博科技有限公司,5.11E+14,科技推广和应用服务业,绵阳高新区创业服务中心孵化大楼310室,航空电子设备、ADS-B设备、无线电发射设备、软件研发及销售；计算机及配件、五金交电及日用百货销售；进出口贸易。,15328221372,,50,存续,四川省绵阳市工商局高新分局,刘志勇,1.42E+12,1.42E+12,3.25E+13,1.48E+12,有限责任公司(自然人投资或控股),sc,,,,0,0,0,0,1,3,0,2,0,1,0,0,0,0,0,"刘志勇,刘引川,林琳,","林琳,刘志勇,","监事 监事 ,执行董事 执行董事 ,"
1650235100,104.7611009,31.84372946,四川天利科技有限责任公司,5.11E+14,科技推广和应用服务业,江油市工业开发区科技路,涡轮增压器产品、机械电子产品、测控产品、特种风机产品及其它非标产品的设计、加工、销售；网络通信软件开发；测控电子产品销售；电力系统集成、制作及安装；科技成果转化及技术经济信息咨询服务。（依法须经批准的项目，经相关部门批准后方可开展经营活动）,0816-3856348,18981172588@189.cn,300,存续,四川省绵阳市江油市工商行政管理局,黄明镜,1.41E+12,1.17E+12,2.75E+12,1.48E+12,有限责任公司（非自然人投资或控股的法人独资）,sc,,,,0,0,0,0,0,1,0,8,0,3,0,0,0,0,2,"中国燃气涡轮研究院,","唐磊,刘涛,张晓勇,郭振宇,黄明镜,向传国,杨俐俊,李琳宏,","董事 董事 ,董事 董事 ,董事 董事 ,董事 董事 ,董事长兼总经理 董事长兼总经理 ,董事 董事 ,董事长 董事长 ,监事 监事 ,"
1667714506,104.705519,31.50470126,绵阳同成智能装备股份有限公司,5.11E+14,仪器仪表制造业,绵阳市高新区火炬东街47号2-4号,机械设备设计、制造、销售及安装，工业自动控制系统装置设计、制造与集成，仪表仪器设计、制造，机电产品、家电产品、电子电器元器件生产、销售，软件设计、开发及销售，自营产品进出口贸易。,0816-2544738,tongcheng@tchigh-tech.com,7010,存续,四川省绵阳市工商行政管理局,张亮,1.46E+12,1.31E+12,3.25E+13,1.48E+12,股份有限公司(非上市、自然人投资或控股),sc,,,,0,0,0,0,2,45,4,8,5,3,0,16,2,0,2,"张亮,刘水平,李奇峰,罗珊剑,王晓杰,周勇,于立华,曾雅军,黄海东,潘立群,莫建军,王健,张小莉,舒永胜,杜江,万献君,万忠祥,唐剑,李余,黄章松,鄂永江,李春阳,李奇玉,胡静,石岚,柳朝徐,车伟,黄光连,张国正,孙瑜霜,梁涛,钟兴隆,吕大为,黄强,徐中平,刘亚君,陈力雄,何运安,曾定洪,朱永忠,马大兵,尹德宁,梁卫国,谢文,雷静,","张亮,石岚,梁勇,王森,魏志强,刘水平,徐中平,万献君,","董事长 董事长 ,监事 监事 ,董事 董事 ,董事 董事 ,董事 董事 ,董事 董事 ,监事 监事 ,监事 监事 ,"
1671848315,104.705519,31.50470126,绵阳堂宏家纺有限公司,5.11E+14,纺织业,绵阳市游仙区一环路东段235号1-4-1,床上用纺织品及其他床上用品、针纺织品、服装、百货、鞋帽、饰品销售；针纺织品的生产、加工。（依法须经批准的项目，经相关部门批准后方可开展经营活动）,0816-2285367,251213918@qq.com,1000,存续,四川省绵阳市游仙区工商行政管理局,陈虹池,1.47E+12,1.39E+12,3.25E+13,1.48E+12,有限责任公司(自然人投资或控股),sc,,,,0,0,0,0,0,2,0,2,6,2,0,0,0,0,0,"陈虹池,毛英,","毛英,陈虹池,","监事 监事 ,执行董事 执行董事 ,"
1695188501,104.702735,31.49678,四川天佑归谷科技有限公司,5.11E+14,研究和试验发展,绵阳科创区创新中心二期6号楼101号,企业依法自主选择经营项目，开展经营活动；依法须经批准的项目，经相关部门批准后依批准的内容开展经营活动。,0816-2550022,,5000,存续,四川省绵阳市工商行政管理局,孟刚,1.47E+12,1.43E+12,3.25E+13,1.48E+12,其他有限责任公司,sc,,,,0,1,0,0,0,7,6,11,5,1,0,0,0,0,2,"成都交大房产开发有限责任公司,成都西南交通大学产业（集团）有限公司,绵阳科创园投资控股有限公司,四川长虹空调有限公司,上海中城信达雅金融信息服务有限公司,四川蜀业佳宸房地产开发有限公司,成都东煜壹号企业管理咨询合伙企业（有限合伙）,","陈俊,陈劲松,梁正明,路林,孟刚,王竹林,张国松,殷永辉,杜吉林,吴定刚,韦彦龙,","监事 ,董事 ,董事 ,董事 ,董事长 ,董事 ,监事 ,董事 ,监事 ,董事 ,监事 ,"
1696717143,104.705519,31.50470126,绵阳北斗电子有限公司,5.11E+14,计算机、通信和其他电子设备制造业,绵阳高新区滨河北路西段268号,NFC隔磁片（含陶瓷片，磁胶片或印刷用磁浆）、铁氧体吸波材料及低温和高温共烧陶瓷和铁氧体粉体，陶瓷贴片天线、电子材料与器件的研发、生产、销售。,0816-2863623,,3000,存续,四川省绵阳市工商局高新分局,童书盟,1.46E+12,1.12E+12,1.75E+12,1.48E+12,其他有限责任公司,sc,,,,0,0,0,0,0,2,0,10,1,3,0,0,0,0,0,"绵阳西磁科技有限公司,上海蓝沛新材料有限公司,","张鑫,陈雪梅,王庆军,童书盟,张仕俊,周永川,杨兆国,蒋运石,罗旗,马以庆,","监事 ,监事 ,监事 ,执行董事 ,董事 总经理 ,董事 ,董事 ,董事 ,董事 ,监事 ,"
1706277734,104.705519,31.50470126,绵阳丰源科技有限公司,5.11E+14,计算机、通信和其他电子设备制造业,绵阳市游仙区游仙经济试验区六里村5-5号,电子产品、自动控制产品、监控产品、计算机软硬件的设计、研发、生产、销售（以上项目涉及行政许可的，须取得相关许可证或审批文件后方可经营）。,0816-2972957,87529701@qq.com,150,存续,四川省绵阳市游仙区工商行政管理局,李泽春,1.44E+12,1.22E+12,1.85E+12,1.47E+12,有限责任公司(自然人投资或控股),sc,,,,0,0,0,0,0,3,0,1,1,2,0,0,0,0,0,"李泽春,李兰英,黄玉梅,","李泽春,","执行董事 ,"
1739630194,104.791859,31.420965,四川小康时代互联网信息服务有限公司,5.11E+14,电信、广播电视和卫星传输服务,绵阳市经开区三江大道39号,接受金融机构委托从事金融信息技术外包；接受金融机构委托从事金融业务流程外包；互联网信息服务；企业管理咨询；数据处理服务。（依法须经批准的项目，经相关部门批准后方可开展经营活动）***,0816-2697216,2258293556@qq.com,5000,存续,四川省绵阳市工商行政管理局,李晓培,1.44E+12,1.44E+12,3.25E+13,1.48E+12,有限责任公司(自然人投资或控股),sc,,,,0,0,0,0,1,2,0,2,0,1,0,0,0,0,1,"李林,李晓培,","杨淑君,李晓培,","监事 ,执行董事 ,"
1744836881,104.6968891,31.49254487,绵阳美科电子设备有限责任公司,5.11E+14,计算机、通信和其他电子设备制造业,绵阳市高新区6号路东段,"医疗设备、通信设备、计算机应用系统集成、软件及专用集成电路、电源、仪器仪表制造、销售，通信工程技术服务,货物进出口、技术进出口（法律、法规禁止项目除外，限制项目凭许可证经营）。",0816-6355071,332873770@QQ.com,200,存续,四川省绵阳市工商局高新分局,赵文军,1.45E+12,8.93E+11,2.79E+12,1.48E+12,有限责任公司（非自然人投资或控股的法人独资）,sc,,,,0,0,0,0,0,1,2,4,3,3,0,15,0,0,9,"绵阳勤德源科技有限责任公司,","赵文军,邓国勤,颜兰萍,曾礼良,","执行董事兼总经理 ,董事 ,监事 ,董事 ,"
2309690661,104.705519,31.50470126,绵阳市胜源合金制造有限公司,5.11E+14,有色金属冶炼和压延加工业,绵阳市游仙区石马镇横山村,耐磨合金的生产、研制、销售；金属表面处理；机械加工；有色金属销售（国家政策限制的品种除外）；建筑材料、保温节能材料的销售（以上经营范围不含前置许可项目，依法需经相关部门批准的，凭其批准文件经营）。,18981189916,,200,存续,四川省绵阳市游仙区工商行政管理局,饶昕,1.46E+12,1.39E+12,3.25E+13,1.47E+12,有限责任公司(自然人投资或控股),sc,,,,0,0,0,0,0,2,0,2,1,2,0,0,0,0,1,"饶宣平,饶昕,","李娅,饶昕,","监事 ,执行董事 ,"
2309975541,102.8991597,30.36748094,四川蓝狮科技有限公司,5.11E+14,科技推广和应用服务业,绵阳市游仙区新桥镇东华村,炸药及火工品的研发、技术咨询、服务及销售，含能材料生产、销售、技术开发、咨询及技术推广服务；引信控制装置生产、销售；环境测试服务；机电产品开发、制造、安装、销售；房屋及设备租赁；机械加工、销售。（以上经营范围中依法须经批准的项目，经相关部门批准后方可开展经营活动）,0816-2777212,178559851@qq.com,500,存续,四川省绵阳市游仙区工商行政管理局,李学平,1.46E+12,1.44E+12,2.07E+12,1.48E+12,有限责任公司（自然人投资或控股的法人独资）,sc,,,,0,0,0,0,0,1,0,3,2,1,0,0,0,0,0,"雅化集团绵阳实业有限公司,","顾超,陈志敏,李学平,","总经理 ,监事 ,执行董事 ,"
2310710005,102.8991597,30.36748094,四川中物材料股份有限公司,5.11E+14,计算机、通信和其他电子设备制造业,绵阳河北--平武工业园,高新技术材料、化工材料（不含危化品）、有色金属材料（不含贵金属）的研发、生产、销售，新材料检测及相关技术服务，货物进出口、技术进出口（法律、法规禁止项目除外，限制项目凭许可证经营）。,0816-2864050,78351314@qq.com,3500,存续,四川省绵阳市工商行政管理局,李绍锡,1.45E+12,1.11E+12,3.25E+13,1.48E+12,其他股份有限公司(非上市),sc,,,,0,1,1,0,0,16,4,12,14,3,1,1,0,0,2,"杨克斌,达君,陶勇,万绍群,唐勇,龙军,刘光耀,李正武,江光平,芦艾,四川久远投资控股集团有限公司,四川中物创业投资有限公司,四川省科学城海天实业有限公司,广东巨海创业投资有限公司,四川科鹰电子有限公司,绵阳市顺风股权投资基金管理中心（有限合伙）,","李刚,李俊,王晓川,李海萍,钟辉,李绍锡,杨克斌,江光平,梁延军,贺红华,袁宗宣,龚春联,","董事 ,监事 ,董事 ,董事 ,监事 ,董事长 ,董事兼总经理 ,监事 ,董事 ,监事 ,监事 ,监事 ,"
2310820137,104.7856922,31.51374542,绵阳龙兴科技有限公司,5.11E+14,计算机、通信和其他电子设备制造业,绵阳市游仙区游仙镇游仙东路社区六组（龙山街99号）,光机、光电系统集成技术的研发、设计及服务；精密机械加工，金属包装容器及化工设备的制造、销售；金属结构件的制作、安装；钢材（限专业市场内）、有色金属（不含贵金属）的销售。(依法须经批准的项目，经相关部门批准后方可开展经营活动),0816-2295481,2118343400@qq.com,1000,存续,四川省绵阳市游仙区工商行政管理局,高瑷珑,1.46E+12,1.25E+12,1.88E+12,1.48E+12,其他有限责任公司,sc,,,,0,0,0,0,0,2,27,2,0,3,0,7,0,0,0,"陆玛瑾,四川省科学城城龙兴机械有限公司,","高瑷珑,陆玛瑾,","执行董事 执行董事 ,监事 监事 ,"
2310849308,104.788765,31.513407,四川嘉泰工业产品设计有限责任公司,5.11E+14,研究和试验发展,绵阳市游仙区游仙东路104号,工业产品设计、咨询、生产、销售。（以上经营范围不含前置许可项目，依法需经相关部门批准的，凭其批准文件经营）,0816-2970001,jtgy@163.com,500,存续,四川省绵阳市游仙区工商行政管理局,胡贵超,1.40E+12,1.25E+12,2.82E+12,1.48E+12,有限责任公司(自然人投资或控股),sc,,,,0,2,0,0,0,3,3,1,2,3,0,8,0,0,0,"胡贵超,邢燕萍,胡城纲,","胡贵超,","执行董事 ,"
2311263709,104.705519,31.50470126,绵阳西磁新材料有限公司,5.11E+14,计算机、通信和其他电子设备制造业,绵阳高新区火炬西街北段81号,磁性材料及器件、设备的研发、制造、销售、技术服务，金属材料（不含稀贵金属），机电产品加工、销售，化工产品（不含危险化学品）销售，货物、技术进出口（法律、法规禁止项目除外，限制项目凭许可证经营）。,0816-2540285,,200,存续,四川省绵阳市工商局高新分局,王永强,1.40E+12,1.24E+12,1.71E+12,1.48E+12,有限责任公司(自然人投资或控股),sc,,,,0,0,0,0,0,3,0,4,0,3,0,0,0,0,0,"王永强,李勇,绵阳西磁科技有限公司,","李勇,赵刚,王永强,赵淳,","董事兼总经理 ,监事 ,董事长 ,董事 ,"
2314642380,102.8991597,30.36748094,四川省豆萁科技股份有限公司,5.11E+14,研究和试验发展,四川省绵阳市经济技术开发区三江大道北段39号,半导体芯片、集成电路芯片、智能卡的设计、研发，半导体材料、多媒体软件、光电产品的生产、销售及进出口，电子产品的研发、生产、销售及进出口，计算机技术、软件技术的研发及相关技术咨询、转让、服务。,0816-6330233,jane@douqitech.com,2420.69,存续,四川省绵阳市工商行政管理局,张霞,1.47E+12,1.42E+12,3.25E+13,1.48E+12,股份有限公司(非上市、自然人投资或控股),sc,,,,0,2,0,0,0,2,2,9,4,1,0,4,0,0,3,"周颂铭,张霞,","王萍,刘明,刘威,张霞,陈彬,王强强,张锦华,施少雄,周颂铭,","监事 ,董事 ,监事 ,董事长 ,董事 ,监事 ,董事 ,董事 ,董事 ,"
2315973420,102.8991597,30.36748094,四川易德机械有限公司,5.11E+14,专用设备制造业,安县工业园区,机械及电子产品、节能环保产品及配套设施制造、销售；机电产品及材料的研发、制造、销售。,0816-4668088,,500,存续,四川省绵阳市安县工商行政管理局,赵德勇,1.40E+12,1.36E+12,3.25E+13,1.48E+12,有限责任公司(自然人投资或控股),sc,,,,0,1,0,0,0,6,0,2,0,3,0,0,2,0,1,"赵德勇,李文强,文浩杰,蒲德敏,贺春迪,赵勇军,","赵德勇,贺春迪,","执行董事兼总经理 ,监事 ,"
2316243413,104.744864,31.48478046,四川久信工程项目管理有限公司,5.11E+14,专业技术服务业,绵阳市涪城区西山东路37号,工程监理，工程技术咨询服务，工程招标代理服务，工程项目管理，汽车租赁，货物、工程和服务的政府采购项目代理业务及政府采购咨询业务（凭许可证经营）。(依法须经批准的项目，经相关部门批准后方可开展经营活动)***,0816-2344001,MYJX333@sohu.com,601,存续,四川省绵阳市涪城区工商行政管理局,邓幼宁,1.45E+12,9.92E+11,1.55E+12,1.48E+12,其他有限责任公司,sc,,,,0,1,0,0,0,29,2,8,7,3,0,0,1,0,1,"杨成瑜,胡玉芝,何关平,文和平,刘洪雁,古羽伶,杨全生,张家林,郭永谦,刘永真,吴兴华,鲁志良,薛琴,宋卫东,周凤梅,邹文,蒋弢,刘炯,王艳,杨开元,张英,田永丰,阎树山,陈炳彩,任建青,韩丽珍,李涛,胡志鹏,四川艺精科技集团有限公司,","韩丽珍,范勇,杨全生,孙钊,张红胜,郭永谦,邓幼宁,姒程,","监事 ,监事 ,董事 ,监事 ,董事 ,董事 ,董事长 ,董事 ,"
2320242528,104.7203107,31.46243988,绵阳市耐特电子实业有限责任公司,5.11E+14,计算机、通信和其他电子设备制造业,绵阳科创区创新中心二期二号楼4层427、428号,电子元件、器件，磁性材料的研制、销售，家用电器、通信器材原件、机电设备的销售，机械加工，打字、复印，计算机软件设计。,2367311,netelection@163.com,50,存续,四川省绵阳市工商行政管理局,全胜,1.46E+12,7.95E+11,3.25E+13,1.48E+12,有限责任公司(自然人投资或控股),sc,,,,0,0,0,0,0,4,6,2,1,3,0,3,0,0,1,"古俊芳,全礼门,邓松,全胜,","全胜,全礼门,","执行董事 ,监事 ,"
2320267075,104.705519,31.50470126,绵阳金鼎机电技术有限公司,5.11E+14,科技推广和应用服务业,绵阳市游仙经济开发区三江路一号,机电产品的设计、生产、销售及技术服务；金属、非金属材料及零配件的生产、销售；消防器材的设计、销售及技术服务；建筑材料、办公设备、电子产品的销售。,13547116799,,200,存续,四川省绵阳市游仙区工商行政管理局,冯异,1.45E+12,1.23E+12,1.86E+12,1.48E+12,有限责任公司(自然人投资或控股),sc,,,,0,0,0,0,0,4,0,2,0,3,0,5,0,0,1,"冯异,王洪,刘志学,黄晓东,","王洪,冯异,","监事 ,执行董事 ,"
2321264452,104.695742,31.49245,四川九九天目医疗器械有限公司,5.11E+14,专用设备制造业,绵阳市科创园区创业大道中段237号1号楼三楼310和316室,第三类（含第二类）：6830医用x射线设备的生产（凭许可证在有效期内经营）。相关技术咨询、技术转让、技术服务（国家有专项规定的除外）。,0816-6355594,scjjtm@126.com,5000,存续,四川省绵阳市工商行政管理局,蒋全松,1.45E+12,1.36E+12,1.52E+12,1.48E+12,其他有限责任公司,sc,,,,0,0,0,0,2,2,15,8,3,3,0,4,0,0,1,"江苏天目湖医疗器械有限公司,四川省科学城九九瑞迪数字成像技术有限公司,","周波,陈虹,李红波,周延,陈门雪,许州,蒋全松,马知人,","董事 ,监事 ,董事 ,董事兼总经理 ,董事 ,董事 ,董事长 ,董事 ,"
2322840006,104.368786,31.58918164,安县长城机械制造有限公司,5.11E+14,通用设备制造业,安县界牌镇石安村十四组,汽车配件制造、铸造、销售；机械加工、制造、销售；废旧金属收购、销售及仓储服务。（凭相关行政许可从事）,0816-4618858,,50,存续,四川省绵阳市安县工商行政管理局,程东波,1.46E+12,1.21E+12,3.25E+13,1.46E+12,有限责任公司(自然人投资或控股),sc,,,,0,1,0,0,0,2,0,2,0,3,0,0,4,0,1,"何吉芝,程东波,","何吉芝,程东波,","监事 ,执行董事 ,"
2323640672,104.655709,31.526464,四川奇石缘科技股份有限公司,5.11E+14,研究和试验发展,绵阳科创园区创业服务中心,道路动态称重系统、土木工程健康监测系统、标准件制程监控系统成套设备及软件的研发、生产、销售；应变及压电传感器的研发、生产、销售，自动化测试系统集成，自动化检测方案设计及测试设备的安装、技术服务，自营商品的进出口贸易，精密机械加工。,2548441,kisyer@163.com,1186.4,存续,四川省绵阳市工商行政管理局,汤世友,1.47E+12,1.05E+12,2.00E+12,1.48E+12,股份有限公司(非上市、自然人投资或控股),sc,,,,0,1,0,0,8,16,2,9,12,3,0,8,0,0,6,"吴大材,余继梅,汤世友,齐勇,侯建军,刘姜伶,朱敬朝,王瑞凤,冷君华,陈艳利,张建经,赵贵健,戴星,汤林,绵阳市君合银丰科技创业投资中心（有限合伙）,绵阳金缘创业投资管理顾问中心（有限合伙）,","唐黎,蒋德平,陈艳利,赵贵健,汤世友,吴大材,冷君华,朱敬朝,肖青吟,","监事 ,董事 ,董事 ,董事 ,董事长兼总经理 ,董事 ,监事 ,副总经理 ,监事 ,"
2328359822,102.8991597,30.36748094,四川安县银河机械制造有限责任公司,5.11E+14,专用设备制造业,安县雎水镇青云村,机械设计、制造、安装、销售；环境污染治理。（依法须经相关部门批准的项目，经相关部门批准后方可开展经营活动）,0816-4672213,517923649@qq.com,600,存续,四川省绵阳市安县工商行政管理局,陈宁,1.42E+12,1.23E+12,3.25E+13,1.47E+12,有限责任公司（非自然人投资或控股的法人独资）,sc,,,,0,0,0,0,0,1,0,2,3,3,0,0,0,0,0,"四川省银河化学股份有限公司,","陈宁,范德平,","执行董事 ,监事 ,"
2328434605,104.705519,31.50470126,绵阳昊天信息技术有限公司,5.11E+14,电信、广播电视和卫星传输服务,绵阳河北——平武工业园,软件开发、生产、销售及服务，电子产品、音、视频及语言扩声设备、科教仪器、激光投影机、激光电视、新能源产品、特种电源、高压电源、模块电源、光电设备、激光器、精密机械设备的研制、生产及销售，音响灯光工程、LED显示屏设计、销售、安装、调试及技术服务，相关货物进出口业务（国家限制或禁止出口商品和技术除外）。（依法须经批准的项目，经相关部门批准后方可开展经营活动）。,0816-2390446,472420698@qq.com,500,存续,四川省绵阳市平武县工商行政管理局,吴军,1.45E+12,1.43E+12,3.25E+13,1.47E+12,有限责任公司（自然人投资或控股的法人独资）,sc,,,,0,0,0,0,1,1,0,2,1,1,0,0,0,0,1,"绵阳昊瀚科技有限公司,","张红梅,吴军,","监事 ,执行董事 经理 ,"
2328435234,104.7481915,31.51773607,绵阳市科学城红杉科技有限责任公司,5.11E+14,生态保护和环境治理业,绵阳市绵山路64号（久远纳米大楼内）,各种工业、城市废水处理项目设计、技术咨询、工程服务、运营管理；各种废水处理设备经销；废水处理用化工产品经销。自动化控制。工业用节能产品研制、销售等。,0816-2487308,myhskj@163.com,500,存续,四川省科学城工商行政管理局,韩长生,1.45E+12,1.22E+12,1.85E+12,1.47E+12,有限责任公司(自然人独资),sc,,,,0,0,0,0,0,1,4,2,4,3,0,4,1,0,1,"韩长生,","韩长生,朱永全,","董事兼总经理 ,监事 ,"
2328438092,104.8496324,31.37641129,绵阳市凌峰机械制造有限责任公司,5.11E+14,通用设备制造业,绵阳市农科区,机械制造、加工及产品销售，建筑材料销售、金属表面处理加工。,0816-2820111,,1000,存续,四川省绵阳市工商行政管理局,王平,1.47E+12,1.03E+12,3.25E+13,1.48E+12,有限责任公司(自然人投资或控股),sc,,,,0,0,0,0,0,2,0,2,1,3,0,1,0,0,2,"王平,王素芳,","王平,王素芳,","执行董事 ,监事 ,"
2328474994,104.5563807,31.5379997,绵阳秦川恒远汽车电器有限公司,5.11E+14,汽车制造业,安县花荄镇龙安街胜果村六组,汽车灯具、汽车线束、汽车消声器及尾气净化装置、汽车前后保险杠总成、仪表台总成及其他内饰件总成的设计、生产、销售。（国家限制、禁止和需前置许可的除外）　　　　　　　,4326078,myqchy123@163.com,500,存续,四川省绵阳市安县工商行政管理局,徐金平,1.40E+12,1.26E+12,1.89E+12,1.48E+12,有限责任公司(自然人投资或控股),sc,,,,0,0,0,0,1,2,18,3,0,3,0,0,1,0,0,"重庆秦川实业（集团）股份有限公司,绵阳恒远机械制造有限公司,","王艳霞,陈文杰,徐金平,","监事 ,经理 ,执行董事 ,"
2328524255,104.705519,31.50470126,绵阳特航科技有限公司,5.11E+14,研究和试验发展,绵阳市游仙区沈家坝东津路38号1栋2层B区,无人机的研发、设计及技术推广；无人机及配件的销售。（以上经营范围不含前置许可项目，依法需经相关部门批准的，凭其批准文件经营）,18121893505,,100,存续,四川省绵阳市游仙区工商行政管理局,温德高,1.44E+12,1.44E+12,3.25E+13,1.48E+12,有限责任公司(自然人独资),sc,,,,0,0,0,0,0,1,0,2,0,1,0,0,0,0,0,"温德高,","杨浩,温德高,","监事 ,执行董事 ,"
2328625012,102.8991597,30.36748094,四川圣凯利电气设备有限公司,5.11E+14,电气机械和器材制造业,四川绵阳安州工业园区,各类电力变压器设备，高压电器的设计研发制造销售及服务；电子产品及器件的制造、销售开发服务；电气柜、控制柜的研发制造、销售及相关服务,4322115,,2000,存续,四川省绵阳市安县工商行政管理局,罗红梅,1.47E+12,1.37E+12,2.31E+12,1.48E+12,有限责任公司(自然人投资或控股),sc,,,,0,0,0,0,0,2,0,2,4,3,0,3,0,0,1,"罗红梅,陈立波,","罗红梅,陈立波,","执行董事 ,监事 ,"
2328628966,102.8991597,30.36748094,四川伍贰捌自动化设备有限公司,5.11E+14,仪器仪表制造业,绵阳科创园区西南科技大学国家大学科技园内,特种机器人、机器人配件、机器人定位仪、机器人非标件研制与销售；机械加工；机械材料、电子元器件销售；系统集成；数控机床；机电产品、自动化装备研制与销售；伺服驱动系统、液压与气动装置、运动控制装置、计算机软硬件开发与维护；安防工程、智能家居、节能环保产品、水处理设备研制、销售；产品设计、包装；承办展览展示；组织文化艺术交流活动；会议服务；企业管理服务；企业形象策划；通信产品的研制与销售；皮革加工设备的研制与销售；皮具产品设计、生产与销售。,0816-6080528,3023509494@qq.com,100,存续,四川省绵阳市工商行政管理局,王洪郁,1.45E+12,1.34E+12,1.97E+12,1.47E+12,有限责任公司(自然人投资或控股),sc,,,,0,0,0,0,0,0,0,2,0,3,0,4,0,0,1,,"卿小平,王洪郁,","监事 ,执行董事 ,"
2328650787,102.8991597,30.36748094,四川中物科技孵化器管理有限公司,5.11E+14,商务服务业,四川省绵阳市科创园区园艺街20号,科技园、产业园及孵化器管理，创业服务，投资服务(不得从事非法集资、吸收公众资金等金融活动)，管理咨询及培训，房屋租赁，物业管理，广告设计、制作、发布、代理，礼品销售及服务，餐饮服务，酒类销售。,0816-6356513,xia.li@chttc.com.cn,500,存续,四川省绵阳市工商行政管理局,赵莉,1.47E+12,1.34E+12,2.92E+12,1.48E+12,有限责任公司（非自然人投资或控股的法人独资）,sc,,,,0,0,0,0,0,1,0,3,2,3,0,0,0,0,0,"四川中物技术股份有限公司,","李明,傅丽,赵莉,","总经理 ,监事 ,执行董事 ,"
2328824660,102.8991597,30.36748094,四川博威能源技术有限公司,5.11E+14,研究和试验发展,绵阳市安州区工业园区（花荄）,新能源、新材料、核能、再生能源的开发应用；能源新技术、能源环境的研究；氢能、机械、电化学储能的开发应用；电力销售；合同能源管理服务；轨道交通监控系统、弱电项目、汽车配件、计算机软硬件、智能交直流充（换）电站储能系统、工业自动化控制系统、水处理系统、节能设备的研发、设计、制造、安装、销售、技术服务；从事货物及技术的进出口；新能源汽车出租销售业务。（以上经营范围涉及相关行政许可的除外）,0816-2532826,scbwny@126.com,2000,存续,四川省绵阳市安县工商行政管理局,陈超,1.48E+12,1.38E+12,3.25E+13,1.48E+12,有限责任公司(自然人投资或控股),sc,,,,0,1,0,0,0,2,0,2,3,3,0,0,0,0,0,"陈茂斌,陈超,","陈超,陈茂辉,","执行董事兼总经理 ,监事 ,"
2329724758,104.5897195,31.51273806,绵阳市启林实业有限公司,5.11E+14,专用设备制造业,绵阳市安县界牌镇金凤村一组,金属材料(不含贵金属)、机械及配件、摩托车及配件、汽车配件、五金交电销售；机械模具、工装、夹具及零配件制造、销售；飞机通气模型和零配件(空客梁、钩结头)的加工销售；(国家政策需审批的除外)环卫环保机械电器设备的开发、生产、销售、安装维护及相关技术咨询服务；本企业产品、技术及所需原辅材料和技术的进出口业务(国家限制、禁止的除外，需专项审批的凭批准文件经营)。,0816-4619088,myqilin@163.com,500,存续,四川省绵阳市安县工商行政管理局,胥蓉,1.40E+12,8.50E+11,3.25E+13,1.48E+12,有限责任公司(自然人投资或控股),sc,,,,0,0,0,0,0,2,7,2,2,3,0,0,0,0,1,"胥蓉,郭启林,","胥蓉,郭启林,","执行董事 ,监事 ,"
2332273229,104.705519,31.50470126,绵阳德菱机电科技有限公司,5.11E+14,仪器仪表制造业,绵阳市涪城区绵安路35号（科技城软件产业园）,电子产品、自动化控制产品、机电产品、智能传感产品、图像处理产品及计算机软硬件的研发、生产和销售。(依法须经批准的项目，经相关部门批准后方可开展经营活动)***,18781662605,2590035599@qq.com,150,存续,四川省绵阳市涪城区工商行政管理局,李泽春,1.41E+12,1.41E+12,3.25E+13,1.48E+12,有限责任公司(自然人投资或控股),sc,,,,0,0,0,0,0,2,0,2,0,2,0,0,0,0,0,"李泽春,李华,","李华,李泽春,","监事 ,执行董事 ,"
2334214908,104.705519,31.50470126,绵阳市天从科技有限公司,5.11E+14,科技推广和应用服务业,绵阳市游仙区仙人路一段32号,化工产品（不含易燃易爆易制毒品）；电子产品、新材料的研发、生产及销售；家用电器、金属材料、建筑材料、装饰材料的销售；办公文化用品、工艺美术品、旅游纪念品、服装、饰品的设计及销售；教育咨询服务（不含留学中介和教育培训）。（依法须经批准的项目，经相关部门批准后方可开展经营活动）,0816-2396068,hrm201@mytcht.com,300,存续,四川省绵阳市游仙区工商行政管理局,赖鸿姝,1.47E+12,1.45E+12,3.25E+13,1.48E+12,有限责任公司(自然人投资或控股),sc,,,,0,0,0,0,0,4,3,2,1,1,0,0,0,0,0,"赖鸿姝,张辉,范一洲,祝京旭,","张辉,赖鸿姝,","监事 ,执行董事兼总经理 ,"
2336989589,104.679947,31.506166,四川汇邦环保科技有限公司,5.11E+14,生态保护和环境治理业,绵阳科创园区创业服务中心,企业依法自主选择经营项目，开展经营活动；依法须经批准的项目，经相关部门批准后依批准的内容开展经营活动。,0816-8389868,471730290@qq.com,1000,存续,四川省绵阳市工商行政管理局,蒲晓斌,1.47E+12,1.33E+12,3.25E+13,1.48E+12,有限责任公司(自然人投资或控股),sc,,,,0,0,0,0,0,3,1,2,5,3,0,6,0,0,3,"蒲晓斌,胡晓,何婧,","胡晓,蒲晓斌,","监事 ,执行董事 ,"
2337096268,102.8991597,30.36748094,四川帝威能源技术有限公司,5.11E+14,研究和试验发展,绵阳科创区创业服务中心二期3栋216号,企业依法自主选择经营项目，开展经营活动；依法须经批准的项目，经相关部门批准后依批准的内容开展经营活动。,0816-2532826,www.dwpower@qq.com,2199,存续,四川省绵阳市工商行政管理局,李云,1.47E+12,1.09E+12,3.25E+13,1.48E+12,有限责任公司(自然人投资或控股),sc,,,,0,2,0,0,2,2,0,2,12,3,0,2,0,0,0,"李云,四川博威能源技术有限公司,","陈超,李云,","监事 ,执行董事 ,"
2337110308,102.8991597,30.36748094,四川光发科技有限公司,5.11E+14,计算机、通信和其他电子设备制造业,绵阳科创园区园艺东街8号,光电子产品、通信设备（不含无线电发射设备）、应用电子系统、安全防范系统、计算机软件、网络产品及设备的研发、生产、销售和相关技术服务，仪器仪表销售，经营自营产品、原辅材料及技术的进出口业务（国家禁止品种除外，限制品种凭许可证经营），经营本企业的进料加工和“三来一补”业务。,0816-2536680,2119755835@qq.com,10010,存续,四川省绵阳市工商行政管理局,邓政光,1.46E+12,1.30E+12,2.24E+12,1.48E+12,有限责任公司(自然人投资或控股),sc,,,,0,0,0,0,0,2,0,2,2,3,0,6,0,0,1,"张玉生,邓政光,","张玉生,邓政光,","监事 ,执行董事 ,"
2344067745,102.8991597,30.36748094,四川瑞可达连接系统有限公司,,计算机、通信和其他电子设备制造业,绵阳市经开区塘汛镇文跃西路257号南湖电子信息工业园3号厂房,光电连接器、电子元件及组件、传感器、线束的研发、生产及销售；电子产品、电子元件及组件、电线电缆、光纤光缆、模具、坚固件、机械配件、仪器仪表的销售；电子元件及组件、光电连接器、传感器、线束的技术开发，技术转让，技术咨询，技术服务；国家允许的进出口业务。(依法须经批准的项目，经相关部门批准后方可开展经营活动）***,13890183005,782619919@qq.com,1000,存续,四川省绵阳市工商行政管理局,吴世均,1.46E+12,1.42E+12,3.25E+13,1.48E+12,有限责任公司（非自然人投资或控股的法人独资）,sc,,,,0,0,0,0,0,1,5,2,2,2,0,15,0,0,0,"苏州瑞可达连接系统股份有限公司,","吴明金,吴世均,","监事 ,执行董事 ,"
2344472513,104.787496,31.507541,四川海格恒通专网科技有限公司,,电信、广播电视和卫星传输服务,绵阳市游仙区民泰路8号,无线通信器材、电子产品、机械设备的研发、生产、销售；计算机软件的开发、销售；计算机信息系统集成；安全技术防范工程的设计、施工、维修；从事货物及技术进出口业务(国家禁止的商品和技术除外)；通讯产品技术服务。（依法须经批准的项目，经相关部门批准后方可开展经营活动）,0816-2277999,cl-xzb-ht@haige.com,9740,存续,四川省绵阳市游仙区工商行政管理局,杨海洲,1.47E+12,1.27E+12,3.25E+13,1.48E+12,其他有限责任公司,sc,,,,0,1,0,1,0,3,3,6,14,3,0,0,0,0,0,"陈焕明,广州海格通信集团股份有限公司,四川维德通信技术有限公司,","刘建,陈华生,余青松,杨海洲,杨炜岚,陈焕明,","董事 董事 ,董事兼总经理 董事兼总经理 ,董事 董事 ,董事长 董事长 ,监事 监事 ,董事 董事 ,"
2344606318,104.705519,31.50470126,绵阳伦奇机器人有限公司,,仪器仪表制造业,绵阳市游仙区沈家坝东津路38号一栋二层B区,机器人自动化设备与零部件的设计、开发、制造、销售、安装、维护及服务，自动化控制与检测系统的开发、设计、技术咨询、技术转让；传感器、人工智能设备及智能家居的销售及技术开发；进出口贸易（国家限定公司经营或禁止进出口的商品和技术除外）。,18121893505,,1000,存续,四川省绵阳市游仙区工商行政管理局,王勇,1.45E+12,1.45E+12,3.25E+13,1.48E+12,有限责任公司(自然人投资或控股),sc,,,,0,1,0,0,0,3,31,3,0,1,0,13,0,0,1,"青礼平,周亚玲,王勇,","王勇,周亚玲,青礼平,","执行董事 ,经理 ,监事 ,"
2346410021,104.7481915,31.51773607,四川省科学城久信科技有限公司,,科技推广和应用服务业,四川省绵阳市绵山路64号,各类电子、电器产品销售、节电（能），电力网络设备生产销售，电力网络工程，软件开发及应用，新能源技术开发以及合同能源管理；电容器设计制造。,0816-2496995,,1836.75,存续,四川省科学城工商行政管理局,罗飞雪,1.48E+12,1.24E+12,2.82E+12,1.48E+12,有限责任公司(自然人投资或控股),sc,,,,0,2,0,0,1,19,2,8,10,3,0,43,1,0,24,"朱华丽,黄明礼,李建文,石凯,辛力,王卫,程航,欧名杰,姚济,李大堂,唐大波,陈俊,杨书悦,严冬,陈秀敏,周国军,李友书,四川久远投资控股集团有限公司,北京枭贤轩投资管理中心（有限合伙）,","张晓东,李秋实,辛力,董琳琳,罗飞雪,欧名杰,李晓记,姚济,","董事 ,董事 ,监事 ,监事 ,董事长 ,董事 ,董事 ,监事 ,"
2347576918,102.8991597,30.36748094,四川通恒中科信息技术有限公司,,科技推广和应用服务业,绵阳市涪城区绵安路35号（科技城软件产业园）,计算机软、硬件的设计、开发、应用、销售及相关技术服务。(依法须经批准的项目，经相关部门批准后方可开展经营活动)***,0816-2327585,scmyth@126.com,500,存续,四川省绵阳市涪城区工商行政管理局,余晨飞,1.45E+12,1.22E+12,3.25E+13,1.48E+12,有限责任公司(自然人投资或控股),sc,,,,0,3,0,0,3,4,0,2,7,3,0,3,0,0,0,"余晨飞,朱彦志,敬朝兰,成都通恒软件有限责任公司,","敬朝兰,余晨飞,","监事 ,执行董事 ,"
2347576919,104.659631,31.516331,四川中川智能设备有限公司,,计算机、通信和其他电子设备制造业,绵阳市涪城区绵安路35号（科技城软件产业园）,智能设备、智能仪器、办公用品、电子产品及相关软硬件的研发、制造、销售。(依法须经批准的项目，经相关部门批准后方可开展经营活动)***,0816-2327585,,100,存续,四川省绵阳市涪城区工商行政管理局,余晨飞,1.46E+12,1.45E+12,3.25E+13,1.48E+12,其他有限责任公司,sc,,,,0,0,0,0,0,3,0,2,1,1,0,0,0,0,0,"范炜,梁少富,四川通恒中科信息技术有限公司,","李佳,刘德龙,","监事 ,执行董事 经理 ,"
2348917594,102.8991597,30.36748094,四川昊伶节能科技有限公司,5.11E+14,科技推广和应用服务业,绵阳市科创园区创业服务中心所属孵化器D区269号,新型环保、节能建材的研发、生产、销售；建筑及装饰材料、保温材料、防水材料、五金交电的销售及相关安装服务，塑钢门窗的销售；电子信息产品、智能安防系统（不含信息安全产品节能元器件、体育器材、生活垃圾处理（粉碎、压缩）设备的研发、生产、销售及相关服务。（以上经营项目法律法规及国务院有关规定禁止或限制的除外，需要行政许可、备案、资质的，须取得相关行政许可、备案、资质后方可从事经营活动）,0816-2352678,372676320@qq.com,100,存续,四川省绵阳市工商行政管理局,彭飞,1.41E+12,1.38E+12,2.33E+12,1.48E+12,有限责任公司(自然人投资或控股),sc,,,,0,0,0,0,0,2,13,2,0,3,0,7,0,0,1,"彭飞,赵晓翠,","彭飞,赵晓翠,","执行董事 ,监事 ,"
2348985481,104.726647,31.773641,四川远方高新装备零部件股份有限公司,,专用设备制造业,江油市工业开发区会昌北路,工业、民用机械设备、机械配件、铸锻件、金属结构件的制造、销售，钢材、铁合金、机械设备及配件、五金、交电、农副产品销售，对外贸易经营，钢结构制作、安装、施工。（依法须经批准的项目，经相关部门批准后方可开展经营活动）,0816-3230158,yfjx2008@163.com,2827.5,存续,四川省绵阳市工商行政管理局,张超杰,1.47E+12,8.91E+11,3.25E+13,1.48E+12,股份有限公司(非上市、自然人投资或控股),sc,,,,0,2,0,0,0,7,0,8,10,3,0,2,1,0,0,"陈凤兰,张誉川,张超杰,李艳玲,周枳岍,彭义春,吴正锡,","刘勇,陈凤兰,刘曙光,何江林,张誉川,张超杰,周枳岍,舒小冬,","监事 ,董事 ,监事 ,监事 ,董事 ,董事长 ,董事兼总经理 ,董事 ,"
2349102937,104.7152667,31.49817185,四川汇能能源投资管理有限公司,5.11E+14,科技推广和应用服务业,绵阳高新区普明北路566号,节能设备生产、销售，能源技术咨询、投资（不含金融、证券、保险及融资性担保等需前置审批的业务）。,0816-6223355,13881100111@139.com,500,存续,四川省绵阳市工商局高新分局,陈波,1.47E+12,1.28E+12,1.91E+12,1.48E+12,有限责任公司(自然人投资或控股),sc,,,,0,0,0,0,0,4,0,2,3,3,0,6,0,0,0,"陈波,陈媛,张时东,刘君,","陈波,张时东,","执行董事 ,监事 ,"
2349119534,104.705519,31.50470126,绵阳西创信息技术有限公司,,互联网和相关服务,绵阳高新区西南科技大学国家大学科技园,计算机软件、互联网技术、产品开发、销售及技术咨询、服务，企业形象及品牌营销策划与咨询，网站建设与推广，图形图像设计，计算机软硬件及辅助设备、电子产品设计销售及服务。,18081238153,,50,存续,四川省绵阳市工商局高新分局,张松涛,1.45E+12,1.45E+12,3.25E+13,1.48E+12,有限责任公司(自然人投资或控股),sc,,,,0,0,0,0,2,5,34,3,0,1,0,0,0,0,3,"倪旭涛,蒋和松,何令华,卓乃江,张松涛,","张松涛,何令华,蒋和松,","执行董事 ,监事 ,经理 ,"
2349672403,104.7026851,31.52780704,四川恒远机电科技有限公司,5.11E+14,研究和试验发展,四川绵阳安州工业园区青安片区横一路,机电产品和设备的设计、研发、制造、安装、采购和维修服务；环保、降噪产品研发、生产和销售服务；金属及复合材料机械加工；钢结构制作、安装；测控技术的研发及测控设备的销售服务；计算机软件的研发和销售服务；建筑材料、化工产品（不含危化品）、五金交电、装饰材料销售；进出口贸易(国家禁止和限制的除外）(以上经营范围，需许可、备案的取得许可、备案后经营，需资质的凭资质经营),13035688387,,5000,存续,四川省绵阳市安县工商行政管理局,李清泉,1.47E+12,1.37E+12,2.00E+12,1.47E+12,有限责任公司(自然人投资或控股),sc,,,,0,0,0,0,0,7,0,2,8,3,0,0,0,0,0,"舒志军,李清泉,杨琳,蒋开宇,何仕健,罗娟,李春霞,","罗娟,李清泉,","监事 ,执行董事 ,"
2349713379,102.8991597,30.36748094,四川特飞科技股份有限公司,,科技推广和应用服务业,北川羌族自治县永昌镇望崇街5号(中国科技城北川通用航空产业园),航空、航天器和航空技术产品的设计、研发、生产、销售、维修及技术开发、转让、咨询、服务；货物仓储服务（不含成品油、燃气、危险化学品）；汽车配件、仪器仪表、电气设备、机械设备销售（以上经营范围不含国家法律、法规、国务院决定限制和禁止的项目）。,0816-4825275,mytfkj@126.com,2000,存续,四川省绵阳市工商行政管理局,谢立东,1.47E+12,1.32E+12,3.25E+13,1.48E+12,其他股份有限公司(非上市),sc,,,,0,1,0,0,0,14,0,8,18,3,0,0,0,0,1,"梁显效,徐航,焦健,刘晓瑛,唐勇,谢立东,程卓,牟爱斌,俞婕,胡浩,刘敏,云南长扬创业投资合伙企业（有限合伙）,北京衡利华飞科技发展有限公司,珙县珙商科技股权管理中心（有限合伙）,","刘敏,胡浩,徐航,程卓,彭浩风,谢立东,蔺志勇,梁显效,","董事 ,董事 ,董事 ,监事 ,董事 ,董事长兼总经理 ,监事 ,监事 ,"
2349768485,104.685974,31.475758,四川灵通电讯有限公司,,电信、广播电视和卫星传输服务,绵阳高新区普明南路东段111号,通信车系统集成，通信设备及信息技术设备、计算机及网络设备、医疗电子设备的研发、制造、销售，通信工程，安全技术防范工程设计、安装及技术服务，计算机信息系统集成、建筑智能化系统集成设计，建筑智能化工程承包（凭资质证书经营），货物进出口、技术进出口（法律、法规禁止项目除外，限制项目凭许可证经营）。,0816-2540258,public@my730.cn,6800,存续,四川省绵阳市工商局高新分局,刘永,1.46E+12,1.14E+12,1.77E+12,1.48E+12,其他有限责任公司,sc,,,,0,1,0,0,0,2,0,4,6,3,0,2,0,0,3,"航天通信控股集团股份有限公司,成都航天通信设备有限责任公司,","刘永,单国峰,黄泽刚,罗江发,","董事长 ,董事 ,董事 ,监事 ,"
2350165033,102.8991597,30.36748094,四川国力科创科技有限公司,,科技推广和应用服务业,绵阳科创区创新中心二期8号楼107号,电子元器件、电器零部件及整机的研发、生产、销售，机电产品、仪器仪表、计算机软硬件及外围设备、化工原料及产品（不含危险化工品）的销售，电子产品技术咨询，自营货物及技术进出口业务（国家限制或禁止的项目或技术除外）。,18081963321,1776387678@qq.com,520,存续,四川省绵阳市工商行政管理局,谢力,1.45E+12,1.43E+12,3.25E+13,1.48E+12,有限责任公司(自然人投资或控股),sc,,,,0,0,0,0,0,3,0,2,2,1,0,1,0,0,0,"刘星,谢力,崔国辉,","谢力,崔国辉,","执行董事 ,监事 ,"
2350437017,102.8991597,30.36748094,四川蜀旺新能源股份有限公司,,电气机械和器材制造业,绵阳经济技术开发区南湖电子信息工业园,太阳能热水器、太阳能光伏发电产品、LED照明设备、路灯、家用电器、机电设备的生产、销售及安装（售后服务），电池、通讯产品、五金交电的销售，太阳能路灯、太阳能杀虫灯、太阳能灭虫灯、太阳能LED照明灯及农用机械产品的生产、销售、安装，管道设备、制冷设备、供暖设备的销售与安装，办公用品、办公家具、计算机及配件、数码产品、电梯的销售，货物进出口业务（国家限制或禁止品种除外），空气源热泵的生产、销售，城市及照明工程专业承包。安防、监控设备安装和销售、机电设备安装工程专业承包、灌溉服务，水利水电工程施工总承包，电力工程施工总承包，水利水电机电设备安装工程专业承包，河湖整治工程专业承包，水工金属制作与安装工程专业承包。（依法须经批准的项目，经相关部门批准后方可开展经营或者）,028-82666436,1282253037@qq.com,2045.8,存续,四川省绵阳市工商行政管理局,陈青,1.47E+12,1.15E+12,3.25E+13,1.48E+12,其他股份有限公司(非上市),sc,,,,0,1,0,0,0,1,0,8,12,3,0,0,0,0,0,"?,","陈青,郑娟,曾宇,陈果,陈骏,陈启刚,黄欣瑶,刘钰梼,","董事长 ,董事 ,监事 ,董事兼总经理 ,董事 ,监事 ,董事 ,监事 ,"
2350553659,104.705493,31.490298,四川中物技术股份有限公司,5.11E+14,科技推广和应用服务业,绵阳市游仙区科学城大道1号,"科技项目投资，技术转移创新服务，创业服务，技术开发，技术转让，技术服务，高新技术产品生产，销售、代理，孵化器建设与经营，科技园区开发与运作；咨询培训，房屋租赁,计算机系统集成，自动化与仪器仪表系统设计，工控成套设备的安装调试，通信工程、机电工程、电子与智能化工程的设计与施工，光电产品的设计、研发、制造、销售。",0816-6356513,caep-tech@163.com,7500,存续,四川省绵阳市工商行政管理局,靳建立,1.47E+12,1.08E+12,3.25E+13,1.48E+12,其他股份有限公司(非上市),sc,,,,0,7,0,0,0,14,0,12,17,3,0,1,0,0,0,"李海萍,李晓全,刘丽,丁爱华,赵莉,张永华,李核庆,何超,马康,四川九洲电器集团有限责任公司,四川久远投资控股集团有限公司,浙江九鼎投资集团有限公司,浙江星鹏铜材集团有限公司,绵阳久盛科技创业投资有限公司,","赵莉,李凤明,马康,魏平,舒鹏,俞春雷,唐卫平,梁子浩,靳建立,杜开立,何林虎,郝敏宏,","副总经理 ,监事 ,董事兼总经理 ,监事 ,监事 ,董事 ,副总经理 ,董事 ,董事长 ,董事 ,董事 ,董事 ,"
2350638279,102.8991597,30.36748094,四川高达科技有限公司,5.11E+14,电信、广播电视和卫星传输服务,绵阳市绵山路64号,自动化产品、节能产品的研制、生产及销售；自动化工程咨询、设计、安装与调试；计算机软件开发及系统集成；进出口业务（国家限定公司经营或禁止进出口的商品和技术除外）。,0816-2495930,gd@scgdkj.com,1200,存续,四川省科学城工商行政管理局,李凌,1.43E+12,1.06E+12,2.85E+12,1.48E+12,其他有限责任公司,sc,,,75234415-6,0,0,0,0,0,16,5,8,2,3,0,11,11,0,0,"向昭东,谢平恩,邹培昌,吕卫东,郭军,潘泽友,韩长生,王蕾,刘俊英,何树清,谢明,夏中均,左扬,翟宗华,绵阳久盛科技创业投资有限公司,四川科学城锐锋集团有限责任公司,","刘金,韩长生,李凌,李凤明,谢明,林俊,席敏,郑康义,","董事 ,董事 ,董事长 ,董事 ,监事 ,监事 ,董事 ,监事 ,"
2350638809,104.8024363,31.39933028,绵阳市正阳科技有限公司,5.11E+14,研究和试验发展,绵阳市绵州大道南段126号,电子机械加工，新材料的研发、生产、销售，化工产品（不含化学危险品）、电子产品销售，包装材料的生产、销售，国家允许的进出口贸易。,0816-6396039,myzykj-1696@vip.163.com,100,存续,四川省绵阳市工商行政管理局,魏海涛,1.41E+12,1.09E+12,1.56E+12,1.48E+12,有限责任公司(自然人投资或控股),sc,,,76233825-1,0,0,0,0,0,4,3,2,1,2,0,0,0,0,0,"魏海涛,魏爽,魏书琼,龚永凤,","魏海涛,龚永凤,","执行董事 ,监事 ,"
2350697483,102.8991597,30.36748094,四川微松新材料有限公司,5.11E+14,计算机、通信和其他电子设备制造业,绵阳科创区创新中心2号楼众享空间,企业依法自主选择经营项目，开展经营活动；依法须经批准的项目，经相关部门批准后依批准的内容开展经营活动。,13372551785,,50,存续,四川省绵阳市工商行政管理局,张松涛,1.47E+12,1.45E+12,3.25E+13,1.48E+12,有限责任公司(自然人投资或控股),sc,,,,0,0,0,0,0,3,0,3,2,1,0,0,0,0,0,"严云,张松涛,何令华,","张松涛,严云,何令华,","执行董事 ,经理 ,监事 ,"
2351655911,104.705519,31.50470126,绵阳神州新材料有限责任公司,,研究和试验发展,绵阳市涪城区青义镇光明路,新材料研发，冶金粉末销售（不含危化品），新能源开发，汽车配件研发、生产、销售，电子接插件研发、生产、销售，建材生产、销售；模具的设计、制作、销售。(依法须经批准的项目，经相关部门批准后方可开展经营活动)***,13350027583,yuhui5308@1236.com,6000,存续,四川省绵阳市涪城区工商行政管理局,余辉,1.45E+12,1.23E+12,3.25E+13,1.48E+12,有限责任公司(自然人投资或控股),sc,,,68417233-9,0,0,0,0,0,3,6,2,5,3,0,8,0,0,0,"余辉,羊军蓉,羊春秀,","余辉,羊军蓉,","执行董事 ,监事 ,"
2351685020,104.705519,31.50470126,四川绵阳鼎鑫智能装备有限公司,,研究和试验发展,绵阳市高新区路南工业区,工业自动化智能生产线的集成研发、设计制作、生产销售以及售后技术服务，自动化工程专业领域内的技术开发、技术培训服务、技术咨询、技术转让，自动化设备的安装、维修，机械设备、自动化设备、环境污染防治专用设备、电子产品、通讯设备及相关产品的销售、售后服务，智能家居、智能办公的节能改造工程的系统集成，安防及智能楼宇工程设计、施工，信息安全及计算机网络集成；强、弱电、机电安装，计算机软、硬件开发，信息技术、物流信息咨询服务，货物、技术进出口。,2507673,,1000,存续,四川省绵阳市工商局高新分局,郭钢,1.45E+12,1.45E+12,3.25E+13,1.48E+12,其他有限责任公司,sc,,,,0,0,0,0,0,2,2,3,0,1,0,0,0,0,0,"罗砚心,绵阳鼎鑫工业机械制造有限公司,","陈静,郭钢,陈正林,","监事 监事 ,总经理 总经理 ,执行董事 执行董事 ,"
2352997783,102.8991597,30.36748094,四川虹信软件股份有限公司,,科技推广和应用服务业,绵阳高新区绵兴东路35号,"信息系统规划、设计、实施、咨询、服务，计算机软件及硬件、网络通讯系统设计、开发、制造、集成、销售、维护、咨询、服务，企业管理咨询及服务,计算机培训，建筑智能化系统集成工程设计、安装，公共安全技术防范系统设计、施工、安装、维护，安防产品生产、销售，货物、技术进出口（法律、法规禁止项目除外，限制项目凭许可证经营）。",0816-2418977,rcsit@changhong.com,6000,存续,四川省绵阳市工商行政管理局,莫文伟,1.46E+12,1.21E+12,3.25E+13,1.47E+12,其他股份有限公司(非上市),sc,,,,0,2,0,0,0,1,3,8,6,3,0,0,0,0,0,"?,","李军,王小杰,邱锦,刘嘉陵,吕新颜,周荣卫,莫文伟,寇化梦,","监事 ,董事 ,监事 ,董事兼总经理 ,监事 ,董事 ,董事长 ,董事 ,"
2353068039,104.705519,31.50470126,绵阳二四机械有限公司,,专用设备制造业,江油市方水镇广义村八组,机械配件、工业陶瓷、机械设备、绝缘、超硬材料研发、制造、销售。【依法须经批准的项目，经相关部门批准后方可开展经营活动】,0816-3366292,3194960967@qq.com,1000,存续,四川省绵阳市江油市工商行政管理局,韩晓艳,1.45E+12,1.24E+12,3.25E+13,1.48E+12,有限责任公司(自然人投资或控股),sc,,,,0,0,0,0,0,2,0,2,9,3,0,0,0,0,0,"李作胜,韩晓艳,","韩晓艳,李作胜,","执行董事兼总经理 ,监事 ,"
2353631908,104.705519,31.50470126,绵阳日盛科技有限公司,5.11E+14,科技推广和应用服务业,绵阳市涪城区绵安路35号（科技城软件产业园）,计算机软件、通讯产品（不含大功率通讯设备）的开发、销售；新能源、新材料、环保节能技术开发、技术咨询、技术服务；新能源产品、新材料产品、环保节能产品、仪器仪表、其他通用机械和备件的销售和售后服务。(依法须经批准的项目，经相关部门批准后方可开展经营活动)**,15882772754,554004690@qq.com,500,存续,四川省绵阳市涪城区工商行政管理局,李庆卫,1.40E+12,1.40E+12,3.25E+13,1.48E+12,其他有限责任公司,sc,,,,0,0,0,0,0,2,0,2,0,2,0,2,0,0,0,"李庆卫,杭州日盛净化设备有限公司,","章建,李庆卫,","监事 监事 ,执行董事 执行董事 ,"
2358014605,104.687489,31.475417,四川长虹智能制造技术有限公司,,仪器仪表制造业,绵阳高新区普明南路东段95号,电子和电工机械专用设备、包装专用设备、其他专用设备、工业自动控制系统装置、环保专用设备、模型、工装治具、机械零部件、通用塑料、工程塑料、功能高分子塑料、生物基相关新材料、塑料助剂以及产成品零部件的研发、制造与销售；软件开发和销售；计算机硬件及辅助设备、耗材的销售；3D扫描、3D打印技术服务与设备销售；企业管理咨询服务；设备及技术进出口。,0816-2554676,jinlian.yang@changhong.com,3000,存续,四川省绵阳市工商局高新分局,潘晓勇,1.47E+12,1.16E+12,1.79E+12,1.47E+12,其他有限责任公司,sc,,,,0,0,0,0,2,2,0,5,7,3,0,0,0,0,0,"四川长虹电器股份有限公司,深圳市深富安智能科技有限公司,","康志强,周钰,潘晓勇,阳丹,梅景锋,","董事 ,监事 ,董事长 ,董事 ,董事 ,"
2361628216,104.747065,31.523612,四川神工精密机械科技有限公司,,专用设备制造业,绵阳市绵山路64号,精密超精密产品设计与制造；专用设备及零部件设计与制造；模具设计与制造；铸锻件产品制造；特种加工与服务；热处理及表面处理服务；理化检测分析服务；机床性能检测与设备维修服务；计算机信息系统开发与服务；金属材料（不含贵重金属）、饮用水的销售。会议服务。(以上经营范围，需许可、备案的取得许可、备案后经营，需资质的凭资质经营),2487604,,1468,存续,四川省科学城工商行政管理局,肖永华,1.46E+12,8.21E+11,3.25E+13,1.48E+12,有限责任公司（非自然人投资或控股的法人独资）,sc,,,20541521-8,3,0,0,0,0,1,0,6,6,3,0,0,2,0,0,"中国工程物理研究院机械制造工艺研究所,","李斌,王丽彬,肖永华,吉方,梁保奇,毕均辉,","董事 ,监事 ,董事长 ,董事 ,董事兼总经理 ,监事 ,"
2386351699,104.705519,31.50470126,绵阳旭朗科技服务有限公司,,科技推广和应用服务业,绵阳高新区路南工业区5幢1-4层,电子信息技术及产品、现代交通技术及产品、生物医药与医疗器械技术及产品、新材料技术及产品、新能源与节能技术及产品、现代农业技术及产品的开发、服务，房屋租赁，房地产信息，工程信息咨询服务，文化教育咨询服务，物业管理咨询服务，广告设计制作服务代理，企业管理咨询，企业营销策划，企业形象策划，人力资源管理服务（不含中介），会务会展服务，绿化养护，保洁服务，市场营销策划，工程招投标咨询代理，工程造价咨询，室内外装饰装修工程设计及咨询，园林绿化工程咨询，建筑工程咨询，汽车租赁，计算机软硬件开发、销售、系统集成，计算机技术咨询服务，办公设备及文化用品销售，建材五金电子产品销售。,2232021,,500,存续,四川省绵阳市工商局高新分局,郑雪珠,1.47E+12,1.42E+12,3.25E+13,1.48E+12,有限责任公司(自然人投资或控股),sc,,,,0,0,0,0,0,4,0,2,4,1,0,0,0,0,0,"张秀丽,梁嘉瑞,郑雪珠,肖代全,","郑雪珠,梁嘉瑞,","执行董事 ,监事 ,"
2390205373,104.764076,31.494385,四川科成机电设备有限公司,5.11E+14,仪器仪表制造业,绵阳市绵山路64号附五号（科学城六区）,成套机械设备制造及销售，电子设备、电子测量仪器、电子机械产品、工业自动控制设备、衡器产品的生产和销售，进出口贸易（国家禁止的除外），科技信息咨询及技术服务。（以上经营范围需许可、备案的取得许可、备案后经营，需资质的凭资质证经营）,0816-5012519,cl@myclimb.cn,1000,存续,四川省科学城工商行政管理局,余海跃,1.42E+12,1.37E+12,3.25E+13,1.48E+12,有限责任公司（非自然人投资或控股的法人独资）,sc,,,07886903-X,0,0,0,0,0,1,0,2,2,3,0,5,0,0,0,"四川科莱电梯股份有限公司,","许成林,余海跃,","监事 ,执行董事 ,"
2429467275,104.705519,31.50470126,绵阳逢研科技有限公司,,研究和试验发展,绵阳市涪城区西南科技大学国家大学科技园,智能设备系统集成，运动控制系列产品、嵌入式软硬件的开发，产品质量检测服务，图像处理技术、网络控制软件的开发。(依法须经批准的项目，经相关部门批准后方可开展经营活动)***,13568430629,,50,存续,四川省绵阳市涪城区工商行政管理局,廖晓波,1.45E+12,1.45E+12,3.25E+13,1.48E+12,有限责任公司(自然人投资或控股),sc,,,,0,0,0,0,0,3,0,2,0,1,0,0,0,0,0,"廖璇,陈春梅,廖晓波,","陈春梅,廖晓波,","监事 ,执行董事 ,"
2430402339,104.705518,31.504701,四川天健科技有限公司,5.11E+14,研究和试验发展,绵阳科创区灵创孵化器北京楼612号,科技咨询服务，医疗器械的研发，软件开发，系统集成，电子元器件研发，自动化技术及装备研发、技术服务，计算机网络技术开发、技术服务，游戏软件开发，动漫设计、创作，计算机系统集成，网络综合布线工程设计、施工（凭资质证书经营）。,0816-8085332,845262891@qq.com,101,存续,四川省绵阳市工商行政管理局,唐毅宏,1.45E+12,1.37E+12,2.00E+12,1.48E+12,有限责任公司(自然人投资或控股),sc,,,07395285-4,0,0,0,0,0,2,0,2,14,3,0,1,0,0,0,"冉大英,唐毅宏,","冉大英,唐毅宏,","监事 ,执行董事兼总经理 ,"
2437549834,104.6835,31.503647,四川博明图科技有限公司,,科技推广和应用服务业,绵阳科创区灵创孵化器阳光楼312号,自动化控制设备、电气传动设备、智能设备、仪器仪表、电子元器件、机电设备、机电一体化设备的研发、制造、销售、安装、调试及技术服务，软件开发、系统集成，机械设计服务、机械加工。,0816-8118757,lrmczc06@126.com,126,存续,四川省绵阳市工商行政管理局,陈世川,1.46E+12,1.40E+12,3.25E+13,1.48E+12,有限责任公司(自然人独资),sc,,,,0,0,0,0,0,1,0,2,7,2,0,0,0,0,0,"陈世川,","马静,陈世川,","监事 ,执行董事兼总经理 ,"
2440631834,104.7487824,31.47587459,四川长虹电子科技有限公司,5.11E+14,计算机、通信和其他电子设备制造业,绵阳市涪城区跃进路4号,电子产品、设备及其配件的研发、生产、销售及服务。（以上经营范围涉及行政许可事项的，须取得许可证后方可经营。）,0816-2411696,ldc@changhong.com,10000,存续,四川省绵阳市工商行政管理局,陈炼,1.40E+12,1.22E+12,1.85E+12,1.48E+12,有限责任公司(国有控股),sc,,,67579332-8,0,0,0,0,2,1,0,1,0,2,0,1,0,0,0,"四川电子军工集团有限公司,","陈炼,","董事长 ,"
